{"type":"FeatureCollection", "features": [
{"type":"Feature","geometry":{"type":"Polygon","coordinates":[[[-73.65607334754434,45.479156118124564],[-73.66078293690177,45.481317824700845],[-73.6618681185583,45.480247407081826],[-73.66972683571338,45.48363140296789],[-73.67441226218756,45.48211087986206],[-73.67570148345452,45.48307971619113],[-73.67793734176678,45.48160279428127],[-73.68159171830627,45.46814673327572],[-73.68314691957123,45.46481944023652],[-73.68536309089284,45.46080213982046],[-73.68634835753232,45.45480243834166],[-73.67800863666348,45.45243970276189],[-73.67496947791786,45.45256567470502],[-73.67187888041775,45.4525508596915],[-73.6693755515152,45.45573317773037],[-73.66824019836253,45.45660720438294],[-73.6586878807512,45.45287135357603],[-73.64836948366155,45.44907690853324],[-73.64394704579925,45.447836952207666],[-73.6411370720352,45.44782322052346],[-73.63950300669856,45.44696223007738],[-73.6369379009788,45.44836844081763],[-73.63257647687162,45.44972911732343],[-73.6350837473046,45.450694988108495],[-73.63082441310208,45.45301595426396],[-73.62811257724475,45.45548146401059],[-73.62115956911741,45.460309759725],[-73.61879187651941,45.46145828316134],[-73.6124961774332,45.46389759173885],[-73.60747686282504,45.46624851696358],[-73.6024445802837,45.46915617855458],[-73.59939682033415,45.471723865910725],[-73.59660543075597,45.473199172291565],[-73.59576542930391,45.47484870714292],[-73.5973624993446,45.47379161737936],[-73.60221763571283,45.47587043460906],[-73.60322226385782,45.47499944529589],[-73.60627290318067,45.47635571194931],[-73.60594342501234,45.47681876657118],[-73.6125430723045,45.47976630726913],[-73.61407198876495,45.48046333548842],[-73.61240627524643,45.48270167703644],[-73.61720108943842,45.48478517532391],[-73.61531861463882,45.48680208826335],[-73.61840919355211,45.488229011040275],[-73.6179941169934,45.489414368782086],[-73.61481888181417,45.49301688449787],[-73.61144028448676,45.49164804269858],[-73.60923784467484,45.49404360271011],[-73.60810236124107,45.49356566179189],[-73.60649756166659,45.495377723242946],[-73.60450523290994,45.49575457923682],[-73.5986547522352,45.50108699569454],[-73.5958883563011,45.50240415967906],[-73.59507060500513,45.503651579909594],[-73.59166468276625,45.508221531172026],[-73.59416681216481,45.509758966253635],[-73.59360691582151,45.510619499574744],[-73.59621893746453,45.51107211435994],[-73.59748683277056,45.513249505526474],[-73.59919428118815,45.51300219061844],[-73.59755685554701,45.51447614743525],[-73.59238641687364,45.51459934137588],[-73.59081196735777,45.51508810745965],[-73.58931968507444,45.516764355392944],[-73.58864131687089,45.517525300694246],[-73.59360739673734,45.51970087373517],[-73.59330497468278,45.520416839314315],[-73.59641487910984,45.52178829485307],[-73.59718888145926,45.52094472936806],[-73.60490617791717,45.52437539408056],[-73.60437502386488,45.524951947603654],[-73.6088326662182,45.52701115916916],[-73.61020493815505,45.52575295117696],[-73.61125006473853,45.526256725667096],[-73.6067710906362,45.52828115057789],[-73.60450850386185,45.52833065095845],[-73.60776292183265,45.528478113355234],[-73.61058189764717,45.52936795240697],[-73.61908467145689,45.53069671829694],[-73.6173830984662,45.529695049889874],[-73.61690608382193,45.52819525467732],[-73.61746448105902,45.52698604555037],[-73.62053728746501,45.52354921801292],[-73.62205622962631,45.52409823002549],[-73.62275313719375,45.52337604896268],[-73.64678593653085,45.530303622316694],[-73.64901903069985,45.53013950543461],[-73.65012356929304,45.52887521468334],[-73.65186519775288,45.52496342592938],[-73.6551251279268,45.51965941233764],[-73.65847267655194,45.51464075869011],[-73.66277748667484,45.50782101539846],[-73.6650604555205,45.503621238023484],[-73.66588921345438,45.50257729923964],[-73.66759841550714,45.50214836618564],[-73.67386581850553,45.49718098770605],[-73.68149434477009,45.49125951519144],[-73.68619735410202,45.489507142697924],[-73.68344891640534,45.487996856625735],[-73.67728480102598,45.483862812203974],[-73.67526045687679,45.491338161508686],[-73.66946560080063,45.487920303468556],[-73.66711904316878,45.48607601635568],[-73.66468957378966,45.48775252619855],[-73.65622702414042,45.494352555930874],[-73.65701906416417,45.494845721933295],[-73.65554410041707,45.496001869936435],[-73.65302621988941,45.49441941824059],[-73.64781945844166,45.49201901576447],[-73.65058602128865,45.49281452057252],[-73.6545087838396,45.488504229260435],[-73.65567109716258,45.4867614452507],[-73.65621408455635,45.4842163322667],[-73.65607334754434,45.479156118124564]]]},"properties":null}
]}