{"type":"FeatureCollection", "features": [
{"type":"Feature","geometry":{"type":"MultiPolygon","coordinates":[[[[-73.36172801994056,45.573477206466215],[-73.36211502971021,45.573881149421965],[-73.35973458357108,45.5864002974869],[-73.36016044829745,45.589978863057844],[-73.38343937958065,45.608448525326786],[-73.41593469605426,45.633970575983135],[-73.4352242414317,45.64930726769271],[-73.44159789987756,45.65404228555866],[-73.44477248192177,45.657134259578434],[-73.44562138211518,45.65537290229523],[-73.44586888575502,45.65146789156658],[-73.44495939146965,45.650054805013134],[-73.44478148605192,45.648174098825365],[-73.44562869659755,45.64779650095327],[-73.44515691016952,45.644835798449606],[-73.44756180175075,45.63847530857169],[-73.4499507076735,45.63515600645413],[-73.45194040168793,45.63336619738557],[-73.45341781080958,45.63032541415421],[-73.45618191591602,45.621823093229594],[-73.45728700981395,45.61893510179711],[-73.45663828392962,45.61209620565318],[-73.45680888029308,45.6069133043507],[-73.45751630825079,45.603872191509446],[-73.45931481217737,45.59869879888631],[-73.4603797026623,45.59734049646707],[-73.46267719627679,45.592662094587496],[-73.46475370016759,45.592401789653465],[-73.46362608369708,45.59186159765591],[-73.46960160135282,45.58652730581841],[-73.47075520150105,45.58496308866419],[-73.47283351806226,45.581768002088324],[-73.47505111250489,45.58011290156164],[-73.48630411763061,45.570378595946714],[-73.4880462881675,45.57137758897876],[-73.48682959962014,45.569910688690875],[-73.48948208228107,45.56707650626911],[-73.49128890340045,45.56453920309201],[-73.4958753041884,45.560940006372164],[-73.49591378236786,45.56016630557136],[-73.49779679646355,45.558402604047096],[-73.49802740783146,45.55655789316053],[-73.49907789584269,45.55483030273308],[-73.50241589925295,45.55087606875662],[-73.50438000279844,45.54973709151193],[-73.5049048801849,45.54786540639853],[-73.50668488941167,45.54594871040709],[-73.50868271420198,45.546263503249214],[-73.51152538964925,45.5447515069432],[-73.51267760623979,45.54329369827785],[-73.51201152117005,45.54188999313938],[-73.51600599639981,45.539513911524374],[-73.51828531646927,45.53951359651711],[-73.51878381314305,45.53693999425422],[-73.52039691803,45.53615690026625],[-73.51898811207803,45.53511329536888],[-73.52131858824585,45.535742809537815],[-73.52174050867924,45.534006008153284],[-73.52323820593548,45.53328590015428],[-73.52609358605959,45.533834103757556],[-73.5269771939826,45.53350723993015],[-73.52680919856262,45.53098150115667],[-73.5255253149679,45.52284719020053],[-73.52417117461475,45.518480108578274],[-73.52033478038207,45.506048203810856],[-73.51731329003398,45.50163040127448],[-73.51552072049553,45.49731139232044],[-73.5169025081563,45.49727530388319],[-73.51783630906476,45.49620439546841],[-73.51711444752654,45.49385639672656],[-73.51622261483763,45.49115649874539],[-73.51429089264084,45.49158869593151],[-73.51507404348214,45.494110381733954],[-73.51450243387202,45.49420683992166],[-73.51386891188852,45.492389600390105],[-73.51235891794707,45.49085999527449],[-73.50971864436667,45.48678896165807],[-73.50816109652511,45.48162798980106],[-73.50803298662613,45.480161198172794],[-73.5045865281478,45.47765370292098],[-73.4864333624069,45.47717533404801],[-73.4859269160482,45.476759117654304],[-73.47772651594954,45.47671516093671],[-73.47776011025842,45.476274450541574],[-73.47454359374777,45.47663579588046],[-73.47501777903263,45.477148808865515],[-73.47341549573785,45.47600110318586],[-73.4722373196258,45.47612530369692],[-73.46546327530221,45.48072761831434],[-73.46461860190647,45.48195487830768],[-73.45942833175216,45.48558486548983],[-73.45268408089056,45.481175573681334],[-73.43789889208662,45.47119565607579],[-73.40820780728295,45.45144191459736],[-73.39385677258545,45.442026036653644],[-73.38447480820783,45.43570366683643],[-73.37994957832699,45.432982694675815],[-73.37806978122727,45.4347307849728],[-73.37899308612789,45.43544324301747],[-73.3774703690735,45.436595197467604],[-73.3792018341236,45.437858598932635],[-73.37335172774016,45.43836740802571],[-73.37560263006466,45.44200779935471],[-73.37370971294698,45.44333886802879],[-73.37120357988286,45.44379377709667],[-73.36663507385582,45.447012465138236],[-73.3631233426078,45.444717164750934],[-73.36041535459181,45.448791034594166],[-73.34789064437388,45.46538519264429],[-73.34626009810509,45.4669841492078],[-73.33882909243479,45.481951805155404],[-73.33525157963973,45.479328014788905],[-73.33177472051759,45.48763400015958],[-73.326444898966,45.504336720240715],[-73.3321166941241,45.508555351120215],[-73.3267527131084,45.51178144857933],[-73.31951331794235,45.5147136286498],[-73.31660366438126,45.515561889499196],[-73.31287394539828,45.51971899273021],[-73.31192071860981,45.52182298587646],[-73.30976411343728,45.52267383566508],[-73.3011197039976,45.53437742754857],[-73.29775678703817,45.53793597187915],[-73.29459009485977,45.540362137808856],[-73.29259406907471,45.55316791797833],[-73.31204738149388,45.5678225516055],[-73.31252938074955,45.56643547688742],[-73.31273220395904,45.56263001221482],[-73.31448131670602,45.557159584425264],[-73.31873077889874,45.557446286603664],[-73.32199304850975,45.559988364711415],[-73.32368327284662,45.55891574232271],[-73.32805996009124,45.56237994320927],[-73.32779681294582,45.56256691809062],[-73.33330369725407,45.566984388553934],[-73.33853393944305,45.563507864423364],[-73.34885465580223,45.57114444081275],[-73.34919343646179,45.5671874980284],[-73.35554073402929,45.572626521005425],[-73.35538320434932,45.57159309557802],[-73.36172801994056,45.573477206466215]]],[[[-73.4863745818461,45.59673460686608],[-73.48704088965113,45.59794050675185],[-73.48801541320648,45.596239903847774],[-73.48765691658429,45.59461110296696],[-73.48678530794409,45.59504299547291],[-73.4863745818461,45.59673460686608]]],[[[-73.48922254380471,45.58628742127724],[-73.4909783169777,45.58377749134739],[-73.49447680366886,45.58421869798413],[-73.48973541397366,45.58326451200621],[-73.4902865915682,45.582265796495676],[-73.49167051346411,45.582625800623276],[-73.49358001489774,45.58136620616194],[-73.4902355195155,45.58082599207726],[-73.49086360455101,45.57998020234385],[-73.4901846890975,45.5782434938816],[-73.48721221081847,45.57747840059216],[-73.48449550935875,45.57862980916124],[-73.4829961920583,45.57852159132583],[-73.48145830677605,45.57937620763358],[-73.4810863101008,45.580401999955576],[-73.47929210114344,45.581220499251195],[-73.47892010645262,45.582183211044416],[-73.47445800888963,45.58812120946697],[-73.47435519464955,45.588841092709316],[-73.47687031635817,45.588320775931145],[-73.47244470092993,45.590568312906285],[-73.47109798103833,45.592349605475384],[-73.47782708718763,45.59164029103639],[-73.47023910942765,45.59272729060313],[-73.46634069731505,45.596262492471524],[-73.46362091107277,45.60002299320489],[-73.46205459076364,45.60372979089237],[-73.4622718880994,45.60454869331311],[-73.47024779045944,45.6005467972631],[-73.47276139696649,45.59808190563789],[-73.47426150381786,45.59723640978536],[-73.47912029032307,45.5954738076692],[-73.48197860255135,45.59530329411373],[-73.4853757165124,45.59335120463469],[-73.48555558564841,45.59183939047234],[-73.4872735897788,45.58931110992216],[-73.48744059895473,45.587367502607364],[-73.48922254380471,45.58628742127724]]],[[[-73.46190461587337,45.61679520029869],[-73.46201889362398,45.61845089459493],[-73.46543049032813,45.61730919482219],[-73.46818709484293,45.617615985280956],[-73.47157170598739,45.61886758950078],[-73.47298248612931,45.61831910797013],[-73.47421309588805,45.61913819051385],[-73.47852198190117,45.61814030150971],[-73.48021520856935,45.616215006307236],[-73.48093478719855,45.61190489214161],[-73.48309060559122,45.60539050443295],[-73.48429591324098,45.60471579252626],[-73.48424499166816,45.60325809971741],[-73.48563039505645,45.600045903688816],[-73.48604181579503,45.595060905381885],[-73.48187568375228,45.596311001332616],[-73.47979927938522,45.5961577063726],[-73.47535081063174,45.597713601424594],[-73.47341490394201,45.59866689084016],[-73.47181171217414,45.60049320965424],[-73.47500388540544,45.59977409686366],[-73.47976019385818,45.59795739513954],[-73.48255429394683,45.598722793468575],[-73.47897810503103,45.59867709215153],[-73.4812081028239,45.59967630079976],[-73.4840665979571,45.599433802002125],[-73.4820666074688,45.60070230263373],[-73.47909311259494,45.59936101063731],[-73.47067021198104,45.60185170630232],[-73.46351491313686,45.60527800310274],[-73.4650020947265,45.60501750817975],[-73.47111650845659,45.606386900150625],[-73.47471880725439,45.60676569784523],[-73.47944948789771,45.606343685969286],[-73.47491088444772,45.60712570379551],[-73.47069321164928,45.606674813627116],[-73.46493771373184,45.60554839133484],[-73.46334791552177,45.60575479859771],[-73.46214189581441,45.60718510775515],[-73.46151020325333,45.61228699450594],[-73.46190461587337,45.61679520029869]]],[[[-73.4745261918772,45.63552400979004],[-73.47492510615153,45.63287870457143],[-73.4780168929988,45.63084570689872],[-73.47846650197839,45.62919910979367],[-73.480339189982,45.62823660587752],[-73.47921158613106,45.625671898467985],[-73.4809687193499,45.62533929274018],[-73.4824440916609,45.623351004713456],[-73.48299639876527,45.62073248877872],[-73.48385549954467,45.62029180736811],[-73.48563889511163,45.61662969483713],[-73.48610059341635,45.61673770534877],[-73.48817831222718,45.61424541459461],[-73.48955031004711,45.61378671551847],[-73.49152510094285,45.611825189993894],[-73.49217918450113,45.61039460234916],[-73.49098721121267,45.608630793818996],[-73.49148779788057,45.60506750907228],[-73.49351371249031,45.60119841032346],[-73.49369381526803,45.59516960336411],[-73.49195078740816,45.59407169207946],[-73.49252758175994,45.593360800215336],[-73.49150239222747,45.59210100675629],[-73.4901439146423,45.592019901574695],[-73.48807998479224,45.59442219440898],[-73.48846389763102,45.59705878691978],[-73.49030960559202,45.59701399226158],[-73.48896348715004,45.598750497575736],[-73.48778320822434,45.603267599687754],[-73.48633371471342,45.607235597649456],[-73.48535900277413,45.60823429034915],[-73.48526891500327,45.60965599985456],[-73.48152239549779,45.61821279826848],[-73.47859860347243,45.61904009909801],[-73.47762421233676,45.61873399180216],[-73.47444360792244,45.61974110010816],[-73.47382671326748,45.622548499502116],[-73.47730320715709,45.6197598128157],[-73.4797141116715,45.619355314718604],[-73.47517298885414,45.623385595187806],[-73.47332361821381,45.629017991455044],[-73.47300189108749,45.63144749895703],[-73.47383491874182,45.6325363982146],[-73.47339769537363,45.63503789317885],[-73.4745261918772,45.63552400979004]]],[[[-73.45561358926116,45.643211792355814],[-73.45688308897913,45.64391409619646],[-73.46100160201209,45.64308769512611],[-73.46382460706319,45.64200889003171],[-73.46649420887962,45.63985010370548],[-73.468973404584,45.63357009110269],[-73.4700515214589,45.63208559138366],[-73.47366150202069,45.61959699105909],[-73.47167409592991,45.619272604448675],[-73.46707141859136,45.61790359366111],[-73.46504548801322,45.61770508712071],[-73.46215959612299,45.61888289839283],[-73.46151600527973,45.62254490632601],[-73.45984650738902,45.6260806926633],[-73.4593311019594,45.629382792177026],[-73.4580716029211,45.632981701732064],[-73.45412821125493,45.640007812638636],[-73.45466479357583,45.642617502793485],[-73.45561358926116,45.643211792355814]]],[[[-73.4893783900847,45.573483294960106],[-73.48921168150486,45.574221204670536],[-73.49255601518986,45.572637702235795],[-73.49478549928807,45.5705771936039],[-73.49522130505548,45.569425509487075],[-73.49784779720174,45.565844206972045],[-73.50053801232035,45.56343270757656],[-73.5006405071451,45.56178599735778],[-73.49733539914342,45.56362168730075],[-73.49372241382014,45.568795610117405],[-73.4893783900847,45.573483294960106]]],[[[-73.49109468928893,45.57707379948601],[-73.4915043911928,45.57908949250334],[-73.49178659727094,45.577325808510906],[-73.49109468928893,45.57707379948601]]],[[[-73.5198833414008,45.49573984696955],[-73.51852726468749,45.49328338491669],[-73.5163859353905,45.486521011347676],[-73.51547869750881,45.484227708083914],[-73.51147730773036,45.477898386512614],[-73.51070280511962,45.47788738846662],[-73.51544060779436,45.48565849746934],[-73.51552428809573,45.48655566325673],[-73.51739821470109,45.49372137784872],[-73.5185198130903,45.49696002883631],[-73.5198833414008,45.49573984696955]]],[[[-73.51229532032782,45.48668547695312],[-73.51380439067385,45.49052688994987],[-73.5145462960596,45.490058910829056],[-73.51303728066132,45.48665566319688],[-73.51229532032782,45.48668547695312]]],[[[-73.51233211730735,45.485991896537584],[-73.51252388805655,45.48543388828992],[-73.51036099158893,45.48052990547926],[-73.51046388691962,45.48291449280118],[-73.51150050739065,45.48560501057572],[-73.51233211730735,45.485991896537584]]]]},"properties":null}
]}