{"type":"FeatureCollection", "features": [
{"type":"Feature","geometry":{"type":"MultiPolygon","coordinates":[[[[-73.49538910678994,45.710526491764874],[-73.4975854997823,45.70934781196862],[-73.49779101037254,45.708646003886045],[-73.49508090414929,45.710220489594654],[-73.49538910678994,45.710526491764874]]],[[[-73.84646376154663,45.72176232759548],[-73.8230718908639,45.70649473970865],[-73.81370298461408,45.70030998919558],[-73.80621378062102,45.695511016827695],[-73.78338084480448,45.68032726421148],[-73.78166217865517,45.68159711874581],[-73.78070685485574,45.68073260576337],[-73.77862853414572,45.681524579681586],[-73.77728734258227,45.683080273344366],[-73.77759638586673,45.68557313833697],[-73.77234112659477,45.681818876187364],[-73.76706690349556,45.68580484062357],[-73.76078272135564,45.6813499792104],[-73.75823235322721,45.67978198836911],[-73.75661131685855,45.68071571359078],[-73.75533301358153,45.67963355972629],[-73.74987351304063,45.67358631595763],[-73.74641349099699,45.6699989560887],[-73.74252259501995,45.67320590549295],[-73.74115909913567,45.67549429805827],[-73.73895631358486,45.67665959208769],[-73.73753201636953,45.67679759926728],[-73.73517739611354,45.678503110474615],[-73.72769611017411,45.682270515001356],[-73.72568289241842,45.68282340670533],[-73.71861020514974,45.68302610460003],[-73.71426501173731,45.68142369437652],[-73.7115543046631,45.68086189793253],[-73.7078474891738,45.681741500845355],[-73.7054260044953,45.68302351226438],[-73.70373179031928,45.683134603199406],[-73.69827130568416,45.68545669327852],[-73.69623838663719,45.687835703742444],[-73.69542248360561,45.689510794406914],[-73.6957981042198,45.69043691257867],[-73.6919378192509,45.69172119434196],[-73.68962030617878,45.69361469168613],[-73.68790240909698,45.69440939323424],[-73.6815471058445,45.694545696635444],[-73.67873391567365,45.69420809810368],[-73.6718257058311,45.69410181121926],[-73.66825489551161,45.69370210989614],[-73.6656969031309,45.69273409138869],[-73.6588124948272,45.69194300117352],[-73.65633678820943,45.69279229064396],[-73.65470282480861,45.69426721734226],[-73.65198140351043,45.69649638941061],[-73.64882620671887,45.69786831000842],[-73.64568091379822,45.69810631105237],[-73.64180090894608,45.69730131066253],[-73.64110289251127,45.695529598432685],[-73.63768361922453,45.69394099372818],[-73.63713979169688,45.69211508797335],[-73.63221809527509,45.690366299601465],[-73.62986898991545,45.69060290176813],[-73.62715148107493,45.69254050343184],[-73.62386700307263,45.69363290152227],[-73.61852489253896,45.69335968921768],[-73.61783299560926,45.69404420985817],[-73.61380200398509,45.694408193586874],[-73.61235210474146,45.69485960207273],[-73.61222132140391,45.69368999456233],[-73.60863588738752,45.69210980814455],[-73.60578409011123,45.691392597117535],[-73.60114810079438,45.69086590884421],[-73.59560260011021,45.691464612212386],[-73.58787659394088,45.69361228744506],[-73.58165220859259,45.69564149806041],[-73.57879710993723,45.696361259355434],[-73.57572129378433,45.69668041140101],[-73.56864850143803,45.69858339887298],[-73.56391118623709,45.69954900317315],[-73.56021428799842,45.70090970145399],[-73.55516828652634,45.7016590899101],[-73.55302351253629,45.701417090176434],[-73.54455960194734,45.69981009839901],[-73.54140058932755,45.699883309934904],[-73.5321430051275,45.701568898167835],[-73.52848271407012,45.701119996967634],[-73.52502860805349,45.701660709334796],[-73.51647669666477,45.703938802503366],[-73.50952921641814,45.70496539788385],[-73.50459768017332,45.706153407378025],[-73.50000000823529,45.70782709137997],[-73.49874140373568,45.70860089720873],[-73.50428951002705,45.706990306130734],[-73.50199069370166,45.7081421015978],[-73.49925499200725,45.70891588506546],[-73.4957871821611,45.71107540492064],[-73.49217780917564,45.71278481114491],[-73.4875553777475,45.71390031312197],[-73.48843891561386,45.71755736492761],[-73.49254771214193,45.720464291907106],[-73.49304038297612,45.718487443371416],[-73.49733434516423,45.721541587164886],[-73.49698708350351,45.7257125967603],[-73.49935458017019,45.72747085873431],[-73.50042397670532,45.729023678676924],[-73.50186918049961,45.73647589694795],[-73.51568130531238,45.743433313573725],[-73.5168011828498,45.74417704754081],[-73.51674149446589,45.74547751748447],[-73.51918957790951,45.74671911526907],[-73.52012082673882,45.74901596419994],[-73.52947950447106,45.75423463184772],[-73.52606076637667,45.77736772181717],[-73.52612015593955,45.79374793349605],[-73.52972877282367,45.793789535278144],[-73.54414308171985,45.793166842148054],[-73.55047603648697,45.793407771452266],[-73.54946725476553,45.816324817555284],[-73.55716453368673,45.817730831471565],[-73.5785701612351,45.82128452843031],[-73.5803582819369,45.81605065365537],[-73.59086279609558,45.81713890533797],[-73.591279755942,45.81219369429867],[-73.5938250814011,45.812475185717304],[-73.59448410171392,45.81327598916496],[-73.60907090796192,45.80329526483348],[-73.61830441688637,45.796386226014086],[-73.64489516710368,45.81416379261338],[-73.64557236342074,45.812729003157436],[-73.65115420103915,45.80568021775045],[-73.65145825455195,45.798485075926436],[-73.65343484800414,45.79671200666502],[-73.65801111548024,45.79403396877425],[-73.6609916578713,45.792568619314224],[-73.66048065395933,45.792022772419735],[-73.6705250287908,45.78673972207407],[-73.67076636186574,45.78764398533957],[-73.67752158226092,45.79029197127928],[-73.68556339211523,45.79290087315661],[-73.68731891700047,45.794766224265175],[-73.69002403714246,45.79441362917482],[-73.700886351285,45.797424111172745],[-73.69853346641267,45.804537397234675],[-73.74192516998586,45.806036464529065],[-73.74652724918862,45.80815299498129],[-73.7482763164273,45.810002534424186],[-73.75563639097506,45.81076979460712],[-73.75537821242422,45.81342912340517],[-73.7569032256632,45.813937793541605],[-73.76895966066833,45.81659028305623],[-73.770623997858,45.809891448844596],[-73.77663724217832,45.80982350781096],[-73.78043999176674,45.81570003095899],[-73.79727304037665,45.82680699985792],[-73.79758829520499,45.826395120828],[-73.80591588851136,45.82122255377742],[-73.8094144536632,45.82031753386151],[-73.82402252769342,45.81691513098856],[-73.80749391401787,45.805697710859015],[-73.79386514454603,45.796610495200056],[-73.7849066991366,45.79022362927617],[-73.77642031906778,45.78533661199396],[-73.74763544983584,45.766123791363675],[-73.7306997492503,45.75431883562885],[-73.75046075414086,45.750095540986514],[-73.74750494624624,45.73853113776816],[-73.74626985700405,45.73584704581432],[-73.74533549097472,45.73238940251198],[-73.74957954388077,45.73291138799815],[-73.75094648918216,45.73275456632449],[-73.75197537940147,45.73068191092924],[-73.75754561517438,45.729719408121504],[-73.75889076734745,45.72848517069184],[-73.7586011291477,45.7263164809727],[-73.75568843048791,45.71711445217645],[-73.76103527668442,45.71419317955809],[-73.76476237694314,45.71277836362565],[-73.77101325866553,45.712858476286996],[-73.77959336646526,45.71435351992793],[-73.78610878773907,45.71576824306976],[-73.78832420535471,45.71537080830047],[-73.7925444455152,45.71580890723544],[-73.79394275312175,45.717371221425495],[-73.79753421840438,45.7164042165102],[-73.80168448803983,45.7195371962262],[-73.80990758327984,45.7194750925533],[-73.81303268386002,45.71970357203068],[-73.81742529129707,45.71952446154719],[-73.82029750115761,45.72000863494939],[-73.830595219076,45.72129102568395],[-73.83524390011594,45.72172715793798],[-73.83619417095896,45.72243366699892],[-73.83923250743541,45.722694752575165],[-73.84200883385854,45.72182582995768],[-73.84646376154663,45.72176232759548]]],[[[-73.64080539426206,45.69464810119885],[-73.64132980352528,45.693819595621896],[-73.63964448353082,45.69250800488963],[-73.63762790458898,45.69218648873501],[-73.63864701244921,45.69413781244081],[-73.64080539426206,45.69464810119885]]],[[[-73.64540719112861,45.69655000867983],[-73.6505156912064,45.69579650706074],[-73.65272090081065,45.694569910455066],[-73.65671791756657,45.69130710094545],[-73.65558388329978,45.68978790012902],[-73.65136941471646,45.688605902557825],[-73.65058639276944,45.68868779262735],[-73.64627798369035,45.69075400098529],[-73.63978260411984,45.69127510710779],[-73.64357609688557,45.693537794331704],[-73.6436184054744,45.69501350298796],[-73.64540719112861,45.69655000867983]]],[[[-73.74184071193156,45.672829291753885],[-73.73948279277187,45.673725101381194],[-73.73865691275644,45.675697493272175],[-73.7408865079718,45.674801995065934],[-73.74184071193156,45.672829291753885]]],[[[-73.69364249128462,45.690836504618964],[-73.6954640100806,45.690356490494736],[-73.6948440987565,45.68931379698774],[-73.69220441792008,45.690811999909876],[-73.69364249128462,45.690836504618964]]]]},"properties":null}
]}