{"type":"FeatureCollection", "features": [
{"type":"Feature","geometry":{"type":"MultiPolygon","coordinates":[[[[-73.48418100488077,45.64840181494819],[-73.48538779187649,45.64551399190785],[-73.48430999169763,45.64607169645019],[-73.4836676191786,45.64830387577287],[-73.48418100488077,45.64840181494819]]],[[[-73.5007319177309,45.697632302635284],[-73.50152809510419,45.69922490315123],[-73.50256830568382,45.69874800896557],[-73.50160510144546,45.697038397026574],[-73.5007319177309,45.697632302635284]]],[[[-73.49265421248312,45.70362479264412],[-73.4990367968567,45.70233820340942],[-73.4999486837821,45.70159150242338],[-73.49992300065477,45.699863797941525],[-73.49812518670966,45.69946779221154],[-73.49450369276096,45.701762193707],[-73.49233331304687,45.70248200749677],[-73.49265421248312,45.70362479264412]]],[[[-73.50896398754064,45.69914342858239],[-73.51697540012788,45.69686620361299],[-73.52063430734098,45.6949669925258],[-73.52221308547861,45.69363500725156],[-73.52281589903963,45.692213094431054],[-73.52714060340499,45.6872092122819],[-73.52785870220977,45.6855174057724],[-73.53063050979384,45.683321113607036],[-73.53404330534903,45.68006280037901],[-73.53649281858912,45.676426796459864],[-73.54548651144565,45.671105711184005],[-73.55049179433983,45.670788602565686],[-73.5525189173389,45.669941893420194],[-73.55568629292658,45.66710600984321],[-73.56672930507952,45.66132331228297],[-73.57138689487792,45.660861500335756],[-73.57310611495191,45.66058150135741],[-73.57381028555388,45.659303308563274],[-73.57645099409635,45.657357892188514],[-73.57906668472096,45.65595239351366],[-73.58197788902856,45.65492458595768],[-73.58328478585612,45.65367289428427],[-73.58945121724216,45.650365894050225],[-73.59556348748582,45.645861801284084],[-73.59803681599293,45.644320998285885],[-73.60076429835213,45.641565191240275],[-73.60874592031826,45.63625799340802],[-73.61189670856514,45.633942402245296],[-73.61675330778962,45.63172400935919],[-73.61913829528693,45.63139760307113],[-73.62066349576142,45.629876642620474],[-73.6162953657173,45.62633217504666],[-73.61041689093798,45.6303766889294],[-73.6028748000949,45.62328999751775],[-73.60148103990281,45.62400739893624],[-73.59384366030181,45.61684540827961],[-73.59667297200214,45.614970940270474],[-73.6000131034085,45.61331781845997],[-73.60256803332376,45.612786188479355],[-73.60171417109207,45.61191882076865],[-73.6034247235824,45.61130771612159],[-73.60252647924169,45.611097354700846],[-73.59343400606883,45.60687875865689],[-73.57980764455112,45.60112190251151],[-73.57253269256151,45.59768886305257],[-73.56985095803209,45.59670774897963],[-73.56760259565816,45.59043134431588],[-73.5663433637981,45.588388168758655],[-73.56438655607013,45.58738814882876],[-73.56414916245646,45.58529634348611],[-73.56560656599463,45.58419335920628],[-73.56496604520355,45.583585904196525],[-73.56778779981691,45.58146474654833],[-73.56521543557986,45.580424002690116],[-73.5628048781006,45.584442975584956],[-73.56194890932886,45.58414939714202],[-73.56312757315689,45.58237658506884],[-73.56097681726807,45.58161666235777],[-73.5613741784031,45.581022059388225],[-73.55889244573743,45.580175067698725],[-73.56258784562822,45.574437272224074],[-73.5599075551669,45.57346779342169],[-73.56071165797995,45.57193191087874],[-73.55949646494275,45.57150683512032],[-73.55929126442435,45.57011410338611],[-73.5575640310151,45.5726713129708],[-73.55088306399635,45.57051838826819],[-73.54621459526447,45.57743418211078],[-73.5430334711092,45.58276756827674],[-73.54381922817763,45.58377482113437],[-73.55423382325576,45.58720904303571],[-73.55183463367369,45.59088657676654],[-73.54893399696455,45.59004797818946],[-73.5488114703526,45.59074489445161],[-73.54382829915095,45.589585085799065],[-73.54364895513702,45.58984273388689],[-73.53954455838632,45.58868886652521],[-73.53684620443792,45.59327862625797],[-73.52792232338442,45.60826532975138],[-73.52510219076824,45.61377258173108],[-73.52081817747592,45.62171724877051],[-73.5189880902357,45.62691822485551],[-73.51568121519256,45.633468152153846],[-73.5066939478683,45.63201292626353],[-73.50774142349111,45.62959302089121],[-73.50315990906343,45.62882920519771],[-73.50171019897387,45.62894469407085],[-73.49944853385925,45.63080285115561],[-73.50323989304306,45.626713038212436],[-73.50143921824618,45.62639815562089],[-73.50453961323805,45.623496160942864],[-73.50797958844812,45.617489629016745],[-73.5104297330309,45.61125562314114],[-73.50741528496921,45.610740315390004],[-73.50644900439602,45.61095260498656],[-73.50429548013958,45.616531501915084],[-73.50176961317823,45.62027491265524],[-73.49982041481846,45.622254504579026],[-73.50100030798328,45.62296539437537],[-73.49865340125695,45.625520910461894],[-73.49660160116497,45.62597969862449],[-73.49478018486863,45.62763529940819],[-73.4962551924498,45.62741039123774],[-73.49489551578826,45.62983089341358],[-73.4917658946344,45.631558400184545],[-73.49229171818955,45.63185539249925],[-73.49108578701185,45.6338079047575],[-73.4917013167829,45.63442879099169],[-73.49002058523162,45.63675020073022],[-73.48721089401043,45.639404400523475],[-73.48803151048794,45.641213203460104],[-73.48826170618942,45.644479491844365],[-73.48720900112725,45.647466788552656],[-73.48720478086375,45.648978543772195],[-73.48642609969784,45.64918541216046],[-73.48888780631033,45.657643898407954],[-73.49144038972787,45.66359188972893],[-73.49196609996112,45.66609351307319],[-73.49146539791036,45.66724519265313],[-73.49143918322771,45.67168130540401],[-73.49078380127511,45.67608129404236],[-73.49011601362369,45.678105811101034],[-73.49015401521115,45.680904304723285],[-73.48920338510251,45.684683496800055],[-73.48770058801787,45.68751769527913],[-73.48573599634068,45.68890318662058],[-73.4820115890689,45.69243900324544],[-73.48052128868564,45.694958192123025],[-73.4797370986667,45.6977385081159],[-73.47708980559425,45.702857909015094],[-73.48164901524127,45.70173389285073],[-73.48344690159998,45.70169820888484],[-73.48858378160789,45.70051110172457],[-73.49528739707058,45.69813609627727],[-73.4987031043411,45.697227294259214],[-73.50160508804319,45.69687640400661],[-73.50277371072934,45.69864899726894],[-73.50234990458526,45.69931489920047],[-73.50400650568753,45.69971080568612],[-73.50896398754064,45.69914342858239]]],[[[-73.61119411401032,45.63537380210648],[-73.60847968442788,45.63785090688146],[-73.61154430626405,45.63732610952174],[-73.61406788906949,45.635694903763344],[-73.61386101316808,45.63487619265336],[-73.61119411401032,45.63537380210648]]],[[[-73.61209839721674,45.638603291757185],[-73.61605820607834,45.63670070243795],[-73.61632398658232,45.63495480933231],[-73.61175159517234,45.638342700116745],[-73.61209839721674,45.638603291757185]]],[[[-73.60453919603668,45.64340651070139],[-73.60441251885254,45.644243393692165],[-73.60264499276697,45.645819690241915],[-73.60714249660202,45.642936196264685],[-73.60922868859478,45.64041460252043],[-73.60809912100468,45.6400468925589],[-73.60485631743408,45.641471604521726],[-73.6074212882921,45.64113629623055],[-73.60696188929073,45.642405385481034],[-73.60419081289896,45.64230899591316],[-73.6006925968032,45.644480686471724],[-73.60302712117019,45.64428969123389],[-73.60453919603668,45.64340651070139]]]]},"properties":null}
]}