{"type":"FeatureCollection", "features": [
{"type":"Feature","geometry":{"type":"MultiPolygon","coordinates":[[[[-73.75872581202918,45.5087600460197],[-73.75971811331038,45.50843629684496],[-73.7597535024253,45.50933200097624],[-73.76159796242935,45.51035842568671],[-73.76731128922249,45.50931860419707],[-73.7697695100122,45.50951080180752],[-73.77178791368758,45.50874109612915],[-73.77695690893283,45.50846780261171],[-73.78068321277559,45.50889959361271],[-73.78297738861782,45.509586897126454],[-73.78702089704292,45.50945980253508],[-73.7905886069729,45.50886589280755],[-73.79696461369647,45.5093804018495],[-73.7992112930451,45.510715285276284],[-73.80016730905406,45.51480711434548],[-73.8028179893515,45.51503400148408],[-73.80570930148134,45.514792302292854],[-73.80649431082857,45.51556410761275],[-73.80930148509698,45.51631240094992],[-73.81311120586493,45.5155101983522],[-73.81605458173927,45.51543000006682],[-73.81781191341229,45.51382349073],[-73.81791111098948,45.51325631021133],[-73.81922580169223,45.5126137013858],[-73.82136622367054,45.51296599212297],[-73.82347860119384,45.513258710958425],[-73.82173998727924,45.51360550335918],[-73.82413890268819,45.51457061092185],[-73.82496341606382,45.515494993453665],[-73.82687141953677,45.51565159209368],[-73.82974608545462,45.516966103810645],[-73.83212331839414,45.51635629745458],[-73.83625840568808,45.51650619950191],[-73.8416122878131,45.51710219122492],[-73.84590958717507,45.516540297019354],[-73.84864420485951,45.51375160288646],[-73.84876281290084,45.51222141387181],[-73.85097169483402,45.51137780032763],[-73.85560758425781,45.507773099582074],[-73.85708951196287,45.50532991272501],[-73.8580154807888,45.502024502821946],[-73.859148494045,45.50108518710273],[-73.85792219427427,45.499406305700674],[-73.85555691499049,45.499710695658784],[-73.85315368202562,45.49599280417996],[-73.85377571400655,45.49487206483634],[-73.85458438823977,45.49357670408935],[-73.8592633050852,45.48894589153346],[-73.86475361164345,45.4872907904921],[-73.86585630015306,45.48766520986291],[-73.8690554052955,45.485846296064494],[-73.86881819800435,45.4847762109511],[-73.87066229073804,45.483114486180774],[-73.87079081048047,45.48126039369955],[-73.87148309027083,45.481492087646636],[-73.87456329957935,45.47918749996763],[-73.87617470582698,45.475285802013666],[-73.87759010442498,45.47272560613726],[-73.8795408859847,45.47218897974432],[-73.88289188692018,45.47186209881533],[-73.88479518571016,45.46963310714389],[-73.88529769450932,45.470180298258214],[-73.88735990400356,45.468778499911224],[-73.89009538405043,45.46858030002788],[-73.89133190199249,45.467991103441875],[-73.89217848873548,45.4665304961875],[-73.89362669514861,45.46696641123549],[-73.89739029238909,45.46569360227702],[-73.89977300890082,45.46267080350176],[-73.90171830642136,45.462888890308705],[-73.90208179520522,45.46186181046974],[-73.90396540339371,45.4605954110996],[-73.90757411681325,45.460987495492965],[-73.90821930839053,45.461794988787695],[-73.91006017834744,45.46173440710735],[-73.9111514124156,45.460560694206436],[-73.91273520113188,45.460338999575704],[-73.91488231587421,45.46191500480735],[-73.91782541620455,45.46219219997525],[-73.9195874022273,45.46356250731826],[-73.92163258845369,45.466884385198405],[-73.9215456908396,45.46894540507841],[-73.92265742081965,45.4688332943522],[-73.92228691198221,45.47058040138597],[-73.92480500041744,45.47210978761947],[-73.92593308863799,45.474157192985714],[-73.92884740270293,45.473912407506575],[-73.93273798544244,45.47256600985111],[-73.9344059109437,45.47324351366947],[-73.93569021617222,45.47227579696008],[-73.9382670014108,45.471410999203464],[-73.94033031133056,45.468658599978504],[-73.93920179674407,45.46662030172685],[-73.94187118664942,45.466187099087385],[-73.94282919610275,45.46441959986379],[-73.94559139056776,45.46440890625418],[-73.94587100803356,45.462572100986165],[-73.9434043927392,45.46275271107395],[-73.94187832067497,45.46219169572511],[-73.9418323851605,45.46122899020491],[-73.94387638505702,45.4593494040774],[-73.94529670802964,45.45947880506481],[-73.94636439994377,45.458655901527216],[-73.94753189615857,45.45916418981605],[-73.94655958593306,45.45747628880028],[-73.94486469664415,45.45818481050795],[-73.94326321709718,45.4561572923282],[-73.9407829094624,45.456176007805254],[-73.9384951943968,45.45465498755979],[-73.93879559567131,45.45382598943005],[-73.9363264162721,45.453610493713605],[-73.93608979681872,45.45278349328045],[-73.93732158949224,45.45168998796572],[-73.93713542775049,45.450555738813414],[-73.94007410234286,45.44888990829968],[-73.94333489492202,45.44899419316385],[-73.94811551345055,45.45051441216172],[-73.95187139322485,45.448555887364236],[-73.95005190082583,45.448041093337494],[-73.95001781321926,45.446952504344615],[-73.95210981037438,45.44639530805588],[-73.95261219321313,45.44527748566602],[-73.9552456202841,45.44527599187794],[-73.95664830908858,45.4464222070438],[-73.96002121221117,45.446183688942085],[-73.96045060008667,45.445534112940486],[-73.95783481451441,45.44454579316678],[-73.95855189543396,45.44313010022298],[-73.96262410644619,45.44244778909532],[-73.96357630234374,45.44164310530518],[-73.96464120111644,45.442133595715],[-73.96586140629995,45.44128289643652],[-73.968182108077,45.44212819373557],[-73.96720480653697,45.43987350166527],[-73.96815241230321,45.438555909295715],[-73.97051510577123,45.43830321329696],[-73.97146011948738,45.436670597227334],[-73.97239500278768,45.43689170108393],[-73.97342270712831,45.43291909638866],[-73.974380485806,45.431313403460074],[-73.97429071315976,45.42973900314526],[-73.97518921146546,45.428682408845745],[-73.97527509961532,45.42674738751727],[-73.97425460677715,45.425437904409385],[-73.97072379656534,45.42496661006919],[-73.97004801385697,45.42361950349932],[-73.97073199285437,45.42134010620753],[-73.96864529777879,45.419333012267884],[-73.9683794114503,45.41808320184957],[-73.96750491364078,45.418950696179564],[-73.96630750455134,45.41784870785312],[-73.9650564061344,45.417970911626256],[-73.96388159717172,45.41650890185198],[-73.96542452049195,45.414576892094495],[-73.96372709689356,45.413243010630765],[-73.96200160097212,45.413150995694615],[-73.9618035872229,45.41236889205518],[-73.95916111818825,45.409472994228075],[-73.95682240994272,45.407799700331196],[-73.95777779294032,45.40588819338514],[-73.95668389764397,45.40488469736066],[-73.95127781306235,45.40295359857921],[-73.94800170398612,45.40220149063643],[-73.9438382140624,45.40229869043369],[-73.93924570719781,45.403072409955705],[-73.93612628903189,45.40440710441732],[-73.93183509950661,45.40453140718887],[-73.93002659190283,45.40357548727666],[-73.92744301291091,45.40313519689891],[-73.9256215069243,45.40383490454097],[-73.92366228852536,45.40320319454637],[-73.92343950716511,45.40413990720885],[-73.92119982172069,45.40358129234819],[-73.9199696840668,45.404791596762045],[-73.91999121045498,45.405979401404814],[-73.91885298335518,45.40753129906077],[-73.91671908637157,45.407458097260594],[-73.91430190053786,45.40884371231899],[-73.90864528502351,45.411014809581765],[-73.90592819051298,45.41157329945027],[-73.90054709018004,45.41124138465455],[-73.89704349923632,45.4126304091713],[-73.89543572054455,45.414183635697256],[-73.89208430423152,45.41417740537056],[-73.8888952022977,45.41490810451695],[-73.88659109206273,45.414286097205405],[-73.8845285002588,45.41534580893277],[-73.88221931084078,45.415848413307444],[-73.88048369774921,45.4142346071454],[-73.87834248832169,45.415024497328936],[-73.87864589035898,45.41645430066098],[-73.87658160480088,45.4172890081743],[-73.87555641479534,45.418777095835694],[-73.87286990588437,45.420216689179625],[-73.87046759730823,45.42021560673908],[-73.86812398983896,45.421356887381556],[-73.86451018928338,45.421728394965406],[-73.8632516177025,45.42272229074561],[-73.86093021835647,45.42341349652005],[-73.86135580655923,45.424033102980225],[-73.85897070822288,45.42472449719124],[-73.85622259124673,45.424616089997365],[-73.85149970314164,45.42753731010911],[-73.84905328484513,45.428705601504525],[-73.84585151053332,45.429678192148245],[-73.84014159224218,45.428030608568655],[-73.83989409097035,45.427248505522996],[-73.83522151340671,45.42586751098491],[-73.83335530268738,45.42796971297635],[-73.83133273919685,45.428446529256334],[-73.82674800713193,45.4279076983254],[-73.82632370241333,45.425254401312394],[-73.82361100135155,45.42686378979175],[-73.82171790493821,45.42654530036359],[-73.82071469099795,45.427681887775826],[-73.82211438352381,45.428856807565644],[-73.81830169968606,45.43035219137977],[-73.81828621684079,45.432151899830785],[-73.81597819682892,45.43309419906538],[-73.81145269490281,45.43290869031436],[-73.81000048667833,45.43378549238242],[-73.8072026088798,45.433990999865806],[-73.80618500367773,45.43488460514374],[-73.80359880568182,45.434054607153584],[-73.8026736994159,45.435532895685505],[-73.80396058869164,45.43716720041071],[-73.80329141308145,45.43869869376856],[-73.8036167838397,45.43979570915613],[-73.80246350021645,45.44166140501348],[-73.80277558260153,45.442623403934505],[-73.80109378619312,45.44368970366781],[-73.79873220608832,45.444307706973795],[-73.79811310827121,45.44569520188471],[-73.79562979827301,45.44750140792262],[-73.79275670443211,45.44813860927949],[-73.78931740721347,45.448066410067085],[-73.78693638508287,45.447451501025036],[-73.78558260412107,45.44769789855484],[-73.77980741427352,45.44578649659414],[-73.77579282058127,45.4430336943062],[-73.77389559919365,45.4392769078905],[-73.77217560447711,45.44045978807019],[-73.76958260363617,45.44084389837573],[-73.76609768529116,45.439115403009104],[-73.765262789943,45.43825338807944],[-73.76422189936635,45.43979458971302],[-73.75950271256741,45.43923849673322],[-73.7569671016452,45.438200403645986],[-73.75479821003316,45.43623461196155],[-73.75309269700651,45.437867109129904],[-73.75059870767068,45.437494602059544],[-73.74894150755142,45.435608598752765],[-73.74729880151588,45.43699790113374],[-73.74501460529159,45.43787568967956],[-73.73963421204034,45.43804009461627],[-73.73560428782956,45.43716661021916],[-73.73371430232498,45.437593504980406],[-73.73097427865615,45.43642920812855],[-73.72797270252455,45.43693019766037],[-73.7269410117806,45.43785009005522],[-73.72347980859203,45.4385227962414],[-73.71994259961643,45.43836683033309],[-73.71940505135571,45.43923947417859],[-73.7223241555874,45.44877943131721],[-73.7208242823919,45.448894356643564],[-73.72420527095852,45.45973086941798],[-73.72489108710612,45.46094795519065],[-73.71734215630671,45.466452933450164],[-73.70836118955722,45.47320688329506],[-73.7081632101691,45.473080809978654],[-73.69701798030881,45.481467087929886],[-73.7058651990395,45.4876125526927],[-73.7069644871993,45.48918019261133],[-73.70934757074804,45.488716429229974],[-73.71370608677061,45.488695735276266],[-73.71367652407064,45.48899832161686],[-73.72480422797427,45.48967286909898],[-73.72402111853133,45.4948509258313],[-73.7264672153131,45.49630523341157],[-73.72484456360189,45.49779312148418],[-73.73890475861367,45.50672248282021],[-73.73276947074365,45.51119320507401],[-73.73027429022146,45.51185587612304],[-73.7338694165331,45.51428314439472],[-73.75568305275483,45.50640605060665],[-73.75744595479802,45.507811568595166],[-73.75813113575656,45.50835782330025],[-73.75872581202918,45.5087600460197]]],[[[-73.81818108382095,45.51345349676521],[-73.81817120394788,45.51400239701698],[-73.82117830176007,45.51386810783827],[-73.82105811921363,45.51298659652228],[-73.81943160888002,45.51280210759777],[-73.81818108382095,45.51345349676521]]],[[[-73.85601781270394,45.507870800599804],[-73.85839290813465,45.5070445095248],[-73.8570541112601,45.505807007289256],[-73.85601781270394,45.507870800599804]]],[[[-73.90287085880873,45.511576609464484],[-73.90290281807457,45.51067550123409],[-73.90646870297903,45.50821539578944],[-73.90947719667138,45.50836648804896],[-73.9124049857046,45.50621438969793],[-73.9127672895806,45.503252596532135],[-73.91453019232915,45.501095587741546],[-73.91748861042477,45.50144471319651],[-73.91863520186163,45.500756711576024],[-73.92265679635194,45.49952698983522],[-73.9244138942711,45.49667700299702],[-73.92703959262215,45.493643801581335],[-73.9289486862467,45.49401459779449],[-73.93125929735078,45.49331299928735],[-73.93498220516095,45.49328089783],[-73.93540959554126,45.492307402198655],[-73.94004199842942,45.48914019536639],[-73.94093041263984,45.486581194014974],[-73.94121499770046,45.48370969913829],[-73.94338889105467,45.48361131000958],[-73.9437024162494,45.48280919967696],[-73.9410464916112,45.48342230834373],[-73.94078708853621,45.48131769869603],[-73.93852319549602,45.48135340360952],[-73.93875069838847,45.479354795902616],[-73.94161650486814,45.479424802746436],[-73.94283869156867,45.47869119675294],[-73.94432601370767,45.47588691023027],[-73.9429157992526,45.47547840527237],[-73.94063140870153,45.4761172117679],[-73.93707649231098,45.476238789967574],[-73.93504599804633,45.476651488279536],[-73.93350788609139,45.47622540928613],[-73.93142380063557,45.477997003724674],[-73.92941901064587,45.47676280495152],[-73.92774819492874,45.47739890125982],[-73.92660498800808,45.476746301534426],[-73.92474298818507,45.477482084723995],[-73.92182720419294,45.474109494926054],[-73.9197163013844,45.474036301236495],[-73.91777338579887,45.47073190403609],[-73.9159058083198,45.47068481188532],[-73.91256748743405,45.46888820525006],[-73.91400530943453,45.46788420581681],[-73.91221649742764,45.46811561181404],[-73.90843991744262,45.46933499519575],[-73.90434950361131,45.46961050939082],[-73.9015993845564,45.467766499167155],[-73.89895019048005,45.46929649951914],[-73.89969759242271,45.470094693911996],[-73.90418768376911,45.470249996154394],[-73.89978831727885,45.47204709729517],[-73.89629730872275,45.472140312878416],[-73.892020999351,45.471480194137555],[-73.88961471593994,45.473045100597915],[-73.88744518781945,45.475626089638425],[-73.88474721840821,45.47761479599036],[-73.87844179872445,45.481496286730824],[-73.87854658703908,45.483772501185854],[-73.87741545070624,45.48559835933271],[-73.87618508684791,45.486470888123826],[-73.8723794908285,45.48552950982641],[-73.870995103964,45.48705479937721],[-73.86859869940231,45.48838528865682],[-73.86618150687215,45.49047171015449],[-73.86425400504878,45.49115270349652],[-73.86430618954904,45.49329419038349],[-73.86314001182934,45.49498070331604],[-73.86149491593955,45.49583169584679],[-73.86107081072267,45.49754280124501],[-73.86320821703427,45.49961460253685],[-73.86339558977049,45.502898505882705],[-73.86035611514124,45.50384390266919],[-73.85959490408581,45.504872104999215],[-73.85979920075413,45.50682418746795],[-73.85835418972925,45.50900628629936],[-73.85553540677711,45.510517788315084],[-73.855028883394,45.51139220079298],[-73.85756370939671,45.51352589193325],[-73.85730168667271,45.514588588872954],[-73.86129130021287,45.5160067905778],[-73.86428749209654,45.51817490064156],[-73.8636801920212,45.51927458599137],[-73.86795210881444,45.51873909258859],[-73.86937800074674,45.51951728987473],[-73.87125910722625,45.51943020813327],[-73.87996749415089,45.52007649973644],[-73.88281548660434,45.520984801542255],[-73.88602439693948,45.52039811074899],[-73.8875330964246,45.51829639429404],[-73.88993951259664,45.51828821378477],[-73.89060929011941,45.518888797481324],[-73.8932392016618,45.51789899901816],[-73.89651148901311,45.51725780585396],[-73.8983464996353,45.516099595261714],[-73.89996708663767,45.517209708937266],[-73.90234588649868,45.51694941020471],[-73.90117721322773,45.5163865946022],[-73.90270779011414,45.515625396232736],[-73.90200439482663,45.51390909975132],[-73.90287085880873,45.511576609464484]]],[[[-73.87486750336582,45.48454948755423],[-73.87705440576096,45.48447029413714],[-73.87717821648194,45.48192340326972],[-73.8753373996874,45.4821003918678],[-73.87486750336582,45.48454948755423]]],[[[-73.85962188882881,45.49103249677736],[-73.86130441151047,45.49004629134272],[-73.86006251304703,45.489897191199994],[-73.85962188882881,45.49103249677736]]],[[[-73.73700701427707,45.43333030485292],[-73.73946298940135,45.433838194469764],[-73.74195388552383,45.43351790899777],[-73.74415371414439,45.43385519261795],[-73.74635750079395,45.43215881180412],[-73.74447449134625,45.43118189680375],[-73.74022869242205,45.43053409585949],[-73.7386842080841,45.43102320494658],[-73.73700701427707,45.43333030485292]]],[[[-73.72278900171672,45.43186520381099],[-73.72483461147462,45.43207709943319],[-73.72527908545857,45.43134740782616],[-73.72378269770454,45.43105340405436],[-73.72278900171672,45.43186520381099]]],[[[-73.95969060587623,45.40546648951476],[-73.95601128987427,45.40385250034141],[-73.95179928801518,45.402672493760036],[-73.95731041333696,45.40494520774088],[-73.95671740183143,45.404281710823085],[-73.95969060587623,45.40546648951476]]],[[[-73.97340511748095,45.42164400391502],[-73.97448689419647,45.4226562902083],[-73.97568911315732,45.42125651259858],[-73.97538609424777,45.42016000344914],[-73.97132910248617,45.42093269675492],[-73.97340511748095,45.42164400391502]]]]},"properties":null}
]}