{"type":"FeatureCollection", "features": [
{"type":"Feature","geometry":{"type":"MultiPolygon","coordinates":[[[[-73.39035226575497,45.35529854575561],[-73.38765115064615,45.35852951735459],[-73.3922221957457,45.36014934336878],[-73.39451610942518,45.372346027249606],[-73.39795722308851,45.37366371148063],[-73.39378241161994,45.378135107045345],[-73.39016168763384,45.38164921078396],[-73.38800236640746,45.38415007349961],[-73.38705839924165,45.38752197062144],[-73.38578104442296,45.3956937442674],[-73.38556142758017,45.39836698990927],[-73.38610793309711,45.39990944231602],[-73.38315443031041,45.3997522231595],[-73.38043015925658,45.401149320523785],[-73.393726889382,45.410473098961155],[-73.38518886095541,45.410124675231756],[-73.38665189964601,45.41319994332727],[-73.3868066582876,45.41355202420451],[-73.38337306965813,45.41572815442485],[-73.38435525109777,45.41861716332954],[-73.38410344211243,45.419277337642235],[-73.38077143747674,45.42258922553067],[-73.38701092273264,45.427554090181765],[-73.38362195145446,45.42984301955483],[-73.37794050660699,45.42750883030521],[-73.37636704765137,45.42892435010133],[-73.3809975948373,45.43206286905567],[-73.37994957832699,45.432982694675815],[-73.38447480820783,45.43570366683643],[-73.39385677258545,45.442026036653644],[-73.40820780728295,45.45144191459736],[-73.43789889208662,45.47119565607579],[-73.45268408089056,45.481175573681334],[-73.45942833175216,45.48558486548983],[-73.46461860190647,45.48195487830768],[-73.46546327530221,45.48072761831434],[-73.4722373196258,45.47612530369692],[-73.47341549573785,45.47600110318586],[-73.47501777903263,45.477148808865515],[-73.47454359374777,45.47663579588046],[-73.47776011025842,45.476274450541574],[-73.47772651594954,45.47671516093671],[-73.4859269160482,45.476759117654304],[-73.4864333624069,45.47717533404801],[-73.5045865281478,45.47765370292098],[-73.50152211485921,45.475923191633505],[-73.4994884105817,45.47319661508792],[-73.49849090759945,45.47068599534211],[-73.49742949124497,45.4665828025999],[-73.49634259857291,45.46608778906317],[-73.49664950630473,45.46455809571146],[-73.4965861934158,45.45510139515909],[-73.4959856986662,45.448477693912686],[-73.49611389079088,45.444779306459445],[-73.49519370194987,45.44194481293243],[-73.49412001537604,45.44087389132286],[-73.4954750867922,45.44048710445873],[-73.49536020311783,45.43797640702535],[-73.49426111780592,45.436671593338005],[-73.49383968929257,45.433756005723524],[-73.49288119706405,45.4322531960508],[-73.49110889061329,45.431610813525985],[-73.49142471355795,45.42984149586076],[-73.49514399191455,45.42439759559527],[-73.4993738161294,45.420933298860156],[-73.49930998771757,45.419097609768365],[-73.50102208273172,45.41532710839265],[-73.50337300797776,45.41277150590881],[-73.50654121813176,45.411241694820795],[-73.50958148220622,45.40875780385386],[-73.51170170171072,45.40654389276575],[-73.51581460037146,45.4048247085851],[-73.5194806939738,45.40431120987932],[-73.52260948849646,45.402133004938335],[-73.52691351218861,45.40044939916285],[-73.53153781324359,45.40102410579691],[-73.535516628875,45.40192384183408],[-73.53567688734523,45.401940701677205],[-73.53809180397579,45.40290280318311],[-73.54003329174576,45.40253319658525],[-73.54438829835287,45.401442688185234],[-73.54973990749532,45.4009007089619],[-73.55313841060612,45.40167301002608],[-73.5550552928055,45.4025628893898],[-73.55712469353901,45.402597910794356],[-73.56309169831164,45.40407049082001],[-73.56402560846438,45.40525779820594],[-73.56672220677483,45.40621909806217],[-73.57604721126687,45.405925303401816],[-73.57739679996364,45.4026579038116],[-73.57884060285836,45.402827899948385],[-73.58123208516922,45.40475199256749],[-73.58477339068088,45.406630085831964],[-73.58519631276212,45.40751161059946],[-73.59295009364159,45.4071997072638],[-73.60215689425624,45.40559658827004],[-73.62249989799841,45.40197950253269],[-73.6273528855106,45.401524407311456],[-73.63174689316061,45.40145630598975],[-73.63598839497965,45.40172140507665],[-73.64115070927392,45.40244400610717],[-73.6463656816866,45.40372420518806],[-73.64974131599283,45.40491669400431],[-73.66252019759565,45.41094620637878],[-73.66996579832244,45.414327900549026],[-73.67258779180251,45.41523280294506],[-73.67621881424104,45.41601009855799],[-73.68461509849332,45.41661769258726],[-73.68584119957082,45.41645378653987],[-73.684941305871,45.41477249675077],[-73.6861379799727,45.41344770497728],[-73.694179521323,45.41123879181534],[-73.69585888935406,45.4092021958114],[-73.69749239860828,45.40871339749113],[-73.69872049566088,45.40917930711792],[-73.70259960799281,45.4079036079264],[-73.70440769442634,45.40626258727582],[-73.7057891085531,45.40674608859307],[-73.70859820918014,45.4063540938769],[-73.71165270167414,45.40672640715574],[-73.7146772145588,45.40590189337808],[-73.71801679214178,45.40065839063129],[-73.719975484466,45.39849490941245],[-73.7229917000232,45.39895709177648],[-73.72491800290943,45.39834140924418],[-73.72704281291945,45.39625849989499],[-73.7269593920736,45.39777941079599],[-73.72933208926318,45.40017731001139],[-73.73264101258232,45.40032350580686],[-73.73490600052887,45.40132679206612],[-73.73704580829701,45.4029060938634],[-73.73977750105304,45.402468511320166],[-73.74470981103369,45.399866413040264],[-73.74975589660434,45.40004450578422],[-73.75248717970787,45.39980675134557],[-73.75412469578609,45.40011590689168],[-73.75516580263772,45.39870070773372],[-73.7551861903162,45.40039250757833],[-73.75370849808091,45.40127759145804],[-73.75539890088696,45.40224560084636],[-73.75861700602717,45.39923290610371],[-73.7619526983423,45.39965719253184],[-73.76316801212815,45.39728779904734],[-73.7643550886265,45.397141104565875],[-73.76503928681386,45.395960709361454],[-73.76477490360752,45.39402659008225],[-73.76619738158632,45.39235850109174],[-73.76724510496695,45.38971050289565],[-73.77190350024814,45.38644200774977],[-73.77217448360665,45.384380709262324],[-73.76931158583213,45.3838385056154],[-73.7684128085799,45.38278780155462],[-73.76957390108063,45.37993248878909],[-73.77308979259502,45.37818750831791],[-73.77567080722997,45.37593158915053],[-73.77661500482111,45.37319371192899],[-73.77559890424699,45.37166639133503],[-73.77205928068867,45.370982004926354],[-73.76871371538411,45.37083689444202],[-73.76533699629196,45.36950399500835],[-73.76492540504272,45.36883010577578],[-73.76970898736572,45.37072660042066],[-73.77241477979196,45.37058520369135],[-73.77251221541962,45.369613037761184],[-73.77297719262646,45.37073679671436],[-73.77530832302749,45.371308519613955],[-73.77548240047106,45.37133371037157],[-73.77623139226695,45.37046799018388],[-73.77799271528467,45.37036480058778],[-73.7809228980472,45.36912478947715],[-73.78148890242795,45.367413707095146],[-73.78312661293079,45.36559189434031],[-73.78794868979675,45.362412298507046],[-73.78915159844101,45.36299419016526],[-73.79028030621465,45.36157849388369],[-73.79354180249979,45.36035540767161],[-73.7944821152948,45.359525097451844],[-73.7904929940711,45.35823949471207],[-73.78834859698668,45.35821799016416],[-73.7882532988689,45.357048404453785],[-73.78996369739933,45.35705310952195],[-73.7929159913227,45.35536269863216],[-73.79369900797467,45.35619760544704],[-73.79500768740698,45.355069393862046],[-73.79407220765539,45.35433389081379],[-73.79691480893014,45.3536516975598],[-73.79805730965998,45.35247891293319],[-73.80321010208954,45.34946881278617],[-73.8080763054032,45.34549629173751],[-73.80900060209898,45.34417099750781],[-73.81309179726459,45.34324199806719],[-73.8119121879292,45.342210406618754],[-73.81222109335177,45.3403917904628],[-73.81428649667843,45.340080191123725],[-73.81489331382785,45.339052709331305],[-73.81647268368762,45.33856229999553],[-73.81642759040426,45.337329608442175],[-73.8195217077208,45.33391948912336],[-73.82122331660815,45.332510999214776],[-73.8241409030926,45.33180980060419],[-73.82600541385949,45.32991479737077],[-73.82894530357342,45.32868259196774],[-73.83231038510431,45.330391609644934],[-73.83471390114225,45.329088696141284],[-73.83517679732554,45.32969929698332],[-73.83747331294643,45.32972849609678],[-73.83956841913755,45.32806649115193],[-73.84117729474717,45.32832268858219],[-73.84221778580886,45.329516499446754],[-73.84253060326655,45.32848969363945],[-73.84694399416419,45.32840430689005],[-73.85008851721969,45.327332900175826],[-73.8536449867456,45.324856308074175],[-73.85153170100173,45.3234770116565],[-73.84970960724579,45.31967609279535],[-73.85218291073984,45.319470492693426],[-73.85282519388284,45.31815468741457],[-73.85781349517436,45.318310208125396],[-73.8586849163966,45.318955398388844],[-73.86346501682847,45.31849040394352],[-73.86499989954974,45.31717160913095],[-73.86928680371066,45.31738290504902],[-73.87216498858099,45.31671658914974],[-73.87230160570756,45.316158204705246],[-73.87602610633934,45.31617299465669],[-73.8762732150498,45.316901106798696],[-73.87913490928976,45.31569479465106],[-73.88139269979962,45.317631010560575],[-73.88090758279432,45.319477405943665],[-73.88363688908417,45.3175335074313],[-73.88717189682288,45.31596479894807],[-73.88882941156335,45.315869204939304],[-73.89157820301655,45.31682258906323],[-73.89421529634878,45.31638169338351],[-73.89687079767624,45.31491459354702],[-73.90187888059779,45.31611200899714],[-73.90320340397128,45.3158464018227],[-73.90398380808985,45.314376699320434],[-73.90332491394028,45.31319130293461],[-73.91367149032916,45.31540398708177],[-73.9124415140866,45.31638930300226],[-73.91158331594806,45.319406902973974],[-73.91233329455962,45.320808090547885],[-73.91272170987736,45.323362203372334],[-73.91326010178848,45.323738209239906],[-73.91736711343833,45.31844110956901],[-73.91973690110056,45.314643888528245],[-73.92095509168465,45.31208380005849],[-73.92352600484396,45.30794389466179],[-73.92544577863544,45.3054621069005],[-73.92772609977688,45.30176408813161],[-73.93097560380097,45.29475080876325],[-73.92926531849452,45.29788890095931],[-73.92736680447734,45.299758703338185],[-73.9216705818996,45.3070957997146],[-73.91866059356336,45.31049940405821],[-73.91377020243687,45.31493559139612],[-73.90360200837446,45.312704302149584],[-73.90263040918015,45.30877539595151],[-73.90335078210516,45.30606420955747],[-73.90621941688957,45.30239149147731],[-73.90915849936651,45.29973539932743],[-73.9130160129606,45.29714790444987],[-73.91530378563718,45.29790450812779],[-73.91349769094774,45.296768187788835],[-73.92298509882636,45.29008339182662],[-73.9249849058133,45.288141197377854],[-73.93512140281922,45.275036810366636],[-73.94281069880931,45.265693508725576],[-73.94746259693511,45.26092399057034],[-73.95156986915339,45.25706310706382],[-73.95124521315819,45.255981049161235],[-73.92308911033645,45.259506597773054],[-73.91140785951794,45.27108661251545],[-73.89841372538123,45.26454540610953],[-73.89373077448008,45.26086506797668],[-73.88244478939146,45.25244174413701],[-73.87438690911132,45.264734916857655],[-73.86660438021245,45.25906404154049],[-73.85812908464493,45.252532947158315],[-73.843571497604,45.24150036600565],[-73.83519462191157,45.25394160893436],[-73.8215830669044,45.27430359267428],[-73.8204748297958,45.27397136761807],[-73.81963033303333,45.275364312921845],[-73.81950726370246,45.27759188836587],[-73.82573385401028,45.277849272280584],[-73.82681415804474,45.27861587701073],[-73.82226372306438,45.28329619482848],[-73.82506330645056,45.28605741288359],[-73.8237788335276,45.28945800165286],[-73.81982672654945,45.29396424013877],[-73.81822116581299,45.29883087931614],[-73.81446119054641,45.304038387953995],[-73.81193851972824,45.30636171878255],[-73.81285267854,45.311851238950695],[-73.8126871125968,45.31290003858078],[-73.81128906271215,45.31373553946899],[-73.79838111160659,45.30375930390973],[-73.78468017560354,45.2937316973663],[-73.75268889720901,45.26966956085356],[-73.73434973451462,45.255947363093405],[-73.70362782507074,45.23285618245634],[-73.69821215296102,45.22900528775971],[-73.67860205703418,45.21408540858036],[-73.66848712457184,45.2065268091906],[-73.69592122242997,45.188346410543275],[-73.71011471474279,45.17966633786422],[-73.718848383578,45.17399716885309],[-73.72640304889491,45.16891261561585],[-73.72815389256448,45.17049998690555],[-73.73808843941362,45.17781136995126],[-73.75528237032223,45.16821555190974],[-73.74434351961708,45.159737011713176],[-73.73913077021352,45.155853498519875],[-73.73644396943988,45.15729866842193],[-73.72031246318907,45.14557969619474],[-73.7079606465511,45.13762884431375],[-73.69856881316794,45.13077967671509],[-73.70620659080424,45.12509358169066],[-73.69444200187179,45.116532805410564],[-73.67689062530222,45.10350862473706],[-73.67063543663531,45.09907463629288],[-73.68352853903447,45.094483497008824],[-73.68303189857454,45.08498841333931],[-73.68275793785324,45.07226832846545],[-73.68635363913025,45.07227247739541],[-73.68629204344978,45.06496465326399],[-73.68630983806356,45.04631667250602],[-73.69431492257739,45.046291903144926],[-73.6945036659084,45.02575470083875],[-73.69431268152361,45.010297937798526],[-73.69493733526217,45.00278288095825],[-73.67336900489072,45.0025370040826],[-73.65154034928038,45.002643466158425],[-73.63868325815253,45.003000933670045],[-73.6180780752728,45.00401247896698],[-73.58020045752251,45.00510510313748],[-73.56522117168025,45.00537683845905],[-73.53838206773867,45.006104800493226],[-73.53569751089893,45.01340319209458],[-73.52688331864121,45.03916798115575],[-73.52303209939613,45.05067660844092],[-73.52228479879199,45.05349218002459],[-73.51802768860482,45.06502289683377],[-73.51570802090438,45.0724757260129],[-73.51062237236776,45.087330278813944],[-73.5076251366343,45.096664582429305],[-73.50495307187356,45.103560909043885],[-73.50325995429935,45.102486921446044],[-73.50232365281349,45.10086276202034],[-73.4981357510115,45.108785441887086],[-73.48834450060602,45.10896666293213],[-73.48236178414226,45.12337946772338],[-73.4754760647071,45.137600633447164],[-73.46789770855943,45.155887937907],[-73.46040192087493,45.17229454508842],[-73.45432010890667,45.186348410117276],[-73.45363050258702,45.18754456633891],[-73.45044128853502,45.18766507158351],[-73.44969387902108,45.19091433504481],[-73.4518613018465,45.19082012651413],[-73.45039637322733,45.19250595535691],[-73.45043241264075,45.193579528838924],[-73.44923693255859,45.19338581188949],[-73.44877124493227,45.19508322972211],[-73.45307056227271,45.19349706704451],[-73.45411101205235,45.19719017502204],[-73.45591430075761,45.199764985029155],[-73.45832766153832,45.20146402147143],[-73.46651513921312,45.206192663737916],[-73.47332417970989,45.20277535776254],[-73.47526127595836,45.204397501583074],[-73.47980871636388,45.202110071915634],[-73.47973427676169,45.203554897408516],[-73.47824319549326,45.211768530632746],[-73.47681399906966,45.22088302693756],[-73.47441083692866,45.23491917646595],[-73.47256250186997,45.24634632215653],[-73.47088440388768,45.25326896851749],[-73.46763799748614,45.265561833685325],[-73.46812273458528,45.26871195246699],[-73.47608019941309,45.280753031003755],[-73.46074083231838,45.2889721384797],[-73.46403132568732,45.29399039178194],[-73.46382661837082,45.29424979446997],[-73.44378959217339,45.30373020838768],[-73.4440302200938,45.304822863881945],[-73.44223068996305,45.308066597934655],[-73.44376895721675,45.310678647992106],[-73.4260209031094,45.31875669524417],[-73.42475758465032,45.31921489766935],[-73.42121370563794,45.317736696191346],[-73.41719079508317,45.3213513049843],[-73.41185218418059,45.32563069652322],[-73.40842818829523,45.32890358469831],[-73.40960960097213,45.33211700280976],[-73.40607907935565,45.33772040562291],[-73.40636322286336,45.33952297891653],[-73.40505803365791,45.342118239307325],[-73.40500776976418,45.345886151839935],[-73.40405003862286,45.34717407990202],[-73.40162150061097,45.34840648854869],[-73.3949036648715,45.3497422974587],[-73.39035226575497,45.35529854575561]]],[[[-72.96605038936717,45.45705619669518],[-72.96261780695798,45.45901981238204],[-72.96221220981057,45.459989711453716],[-72.9617999907275,45.46434300128041],[-72.96199001579814,45.46587370266584],[-72.9630949007567,45.46802048809679],[-72.96308258411798,45.46932520198301],[-72.96116845121115,45.47167591511953],[-72.95850154657796,45.4735417469713],[-72.95808831586729,45.4750123293532],[-72.97732530026927,45.47729447654454],[-72.98474418960329,45.477493731014135],[-73.00347141435697,45.47936130560693],[-73.00797554040302,45.47414741663358],[-73.01790477511207,45.48080293253927],[-73.02668495912576,45.4864944258697],[-73.03457811127659,45.491897549915755],[-73.04003273109338,45.47681340161318],[-73.0726330725279,45.475952639198326],[-73.06226821424389,45.4935655236014],[-73.07079883302892,45.50007014379196],[-73.07901790542671,45.50579882529994],[-73.07335816335639,45.51667669190608],[-73.06251202870301,45.53831090342146],[-73.0851794975965,45.55637319239354],[-73.08528973631488,45.556931563627906],[-73.10076657277415,45.568067001041676],[-73.10044249946885,45.56601831089364],[-73.10149678503295,45.56367349973517],[-73.10142008606775,45.560019798907504],[-73.10208150416621,45.55887940887985],[-73.10231139069116,45.555325798190296],[-73.10398851729079,45.554355117650424],[-73.10548549574392,45.555603193062325],[-73.12009116417644,45.56566442827274],[-73.12057800606175,45.56196076078256],[-73.13485205870141,45.57226699779402],[-73.13526132123415,45.57190327301926],[-73.13876544071854,45.57439824616043],[-73.1397265765153,45.56972661048199],[-73.13908299378993,45.56857473973909],[-73.13948463454365,45.5657580485326],[-73.1298596810609,45.558835758474125],[-73.12893008880238,45.55745410906631],[-73.12856130611875,45.55180462550203],[-73.12998364196451,45.54718599584925],[-73.13144044959014,45.545289743450624],[-73.13526266749817,45.54144787953833],[-73.14062433590617,45.5412301324982],[-73.1416437635205,45.54021713828375],[-73.1466563750902,45.536620458360446],[-73.14744764709185,45.53569967978391],[-73.14373184516575,45.53320551288111],[-73.14609213570284,45.530186361570195],[-73.15023168046828,45.52780793063399],[-73.1501331469648,45.52633441150672],[-73.15337018531461,45.525620161371975],[-73.16042635398534,45.520348866597715],[-73.1720683455604,45.528722611537454],[-73.17549424276004,45.52578253873362],[-73.18180488634573,45.52291810309793],[-73.18966605787979,45.51834363168428],[-73.19241484482616,45.51637869124002],[-73.19469979668021,45.513805334254776],[-73.19637068815626,45.510680041227744],[-73.18764697782328,45.50389935602986],[-73.17294984448229,45.493891969328715],[-73.16578583203537,45.488881015042764],[-73.1639828573851,45.48741321704178],[-73.14727794152189,45.47589387572073],[-73.12826720259253,45.46252754579055],[-73.12317594128763,45.45910083856901],[-73.10754260194294,45.44811327996258],[-73.09512031375188,45.439294756865905],[-73.0955054346364,45.437249793727204],[-73.0973390735114,45.42251081906436],[-73.1115570709652,45.41811901153716],[-73.12532277151375,45.41485902272678],[-73.1203668195396,45.40311262029629],[-73.16213086688181,45.39212285568268],[-73.15523035202301,45.37907135393353],[-73.15968783039644,45.37766231510628],[-73.14853880168793,45.370302552428335],[-73.1330570446594,45.35968500312333],[-73.11730464123393,45.37115820762988],[-73.10496340830487,45.36255772199982],[-73.10404807132659,45.36337148860448],[-73.1036428306954,45.367146005681356],[-73.08783510119032,45.355696532985704],[-73.08458505431246,45.358238968616185],[-73.06096468485937,45.378043043124215],[-73.05802525310341,45.379142416904614],[-73.04749200328563,45.38625925397185],[-73.0461494170896,45.386917724363535],[-73.04527320238796,45.38587102902279],[-73.03281702536636,45.37708598650643],[-73.0302218499927,45.37665004692943],[-73.02783151554853,45.37443611256697],[-73.02685393363758,45.37249839887245],[-73.01126605942031,45.37545741991689],[-73.00704993190801,45.37074843993204],[-73.00857296361018,45.347763620373286],[-73.00870349908244,45.3475894785854],[-73.00045726549172,45.34195584191797],[-72.99323227984526,45.33616323110605],[-72.98922795794152,45.33405728464069],[-72.99009300388481,45.336124664131965],[-72.9893314908297,45.33844513527544],[-72.9900012080516,45.33938331000064],[-72.98995359169207,45.34180552047175],[-72.9780834644125,45.333414872313604],[-72.97561744783694,45.34280654520384],[-72.97337344172078,45.352044837474544],[-72.97128838728061,45.35053683188809],[-72.9668614577297,45.375739310110234],[-72.96299073075966,45.375123253038964],[-72.960341402838,45.37398743039714],[-72.95196233386187,45.36814954746946],[-72.94985131336084,45.36692516299968],[-72.94539303755434,45.38122077879119],[-72.94194348685805,45.39152251332399],[-72.9271252778295,45.38894527766126],[-72.91980650813225,45.414769818400366],[-72.92141655878933,45.41516881470085],[-72.922550876924,45.410434359625],[-72.92481581273547,45.41078879199392],[-72.92524388258377,45.40971823458426],[-72.9269851426093,45.410040543938685],[-72.92569065136126,45.414172651540916],[-72.9360006088875,45.41581176250602],[-72.9330380023455,45.424997304274484],[-72.93318248736887,45.42587979333568],[-72.93085426171088,45.43478690579449],[-72.93584869935157,45.435332605387416],[-72.95450901025943,45.4380147984052],[-72.96359666275949,45.43961660753194],[-72.9656556790736,45.44211764343694],[-72.96448131366864,45.447213491859074],[-72.964216390244,45.44953380791408],[-72.96448889946947,45.45181179530045],[-72.96633479852616,45.455365795612394],[-72.96605038936717,45.45705619669518]]],[[[-73.40484981258498,45.75782580843871],[-73.40586548907848,45.75767369309587],[-73.41000871994267,45.75521149165412],[-73.4127377836533,45.752631197895354],[-73.41504409716163,45.74899770949897],[-73.41516339725716,45.74660440740583],[-73.41353088823442,45.74672008628422],[-73.40929950394577,45.748687404067546],[-73.40874439586459,45.750144600886514],[-73.40687671076886,45.75255461368045],[-73.40490751057519,45.754046614338336],[-73.4056386079659,45.75504601206945],[-73.40360849880487,45.7545314078673],[-73.40292429071971,45.756204510091464],[-73.40484981258498,45.75782580843871]]],[[[-73.39636368354917,45.75889820157492],[-73.39647599120464,45.76075190611509],[-73.40177598452586,45.758696004077095],[-73.40443781706671,45.75817629625467],[-73.40321891612278,45.756843602536115],[-73.40048010721144,45.757255202126935],[-73.39939910640825,45.75798310956532],[-73.39636368354917,45.75889820157492]]],[[[-73.3615764050075,45.78566629032237],[-73.358230208786,45.7866071065309],[-73.35649099575596,45.7877025866799],[-73.35586771367441,45.79004130571761],[-73.35980660341303,45.78877751186197],[-73.3649323118741,45.786021290198306],[-73.36866409352542,45.785116888271],[-73.37383581184595,45.784447892947455],[-73.37705060894066,45.784586297100226],[-73.37196941031051,45.78508460818059],[-73.37440989837545,45.786491009179215],[-73.37833171384288,45.7868730983323],[-73.38122990905363,45.78484269868128],[-73.38175959611821,45.78369140357629],[-73.37859159832198,45.78564970727085],[-73.38114368791547,45.78298900848075],[-73.3840034943437,45.780742487699875],[-73.38723520531755,45.77874810299205],[-73.38776549133061,45.777272999206524],[-73.38963151310645,45.77652800920942],[-73.38973648335869,45.775466309488735],[-73.39108658704725,45.775467498877795],[-73.3927894894175,45.77258979886505],[-73.3939736913726,45.771952008910716],[-73.39468401287674,45.77030611121486],[-73.39709130667428,45.76870660862614],[-73.3979815907164,45.76690778509326],[-73.39930620004057,45.76678311134781],[-73.39960429978989,45.76542460409193],[-73.40157298344752,45.76449050469822],[-73.40306749183212,45.76267420597171],[-73.40240090210061,45.761575894313786],[-73.4046418139935,45.75913930662121],[-73.40249461050081,45.7594164094165],[-73.39954818357337,45.76086260934868],[-73.39472589981261,45.76166800063117],[-73.39313070297098,45.762287401912914],[-73.39138841438454,45.76573209976922],[-73.39015349478605,45.766099790667305],[-73.3854388075942,45.7705580944717],[-73.37847332019709,45.775013894181896],[-73.37657850142328,45.777090492570856],[-73.36807879501117,45.78243479847664],[-73.3641913913907,45.78394180980933],[-73.3615764050075,45.78566629032237]]],[[[-73.34266199686058,45.79331710882867],[-73.3403640151271,45.79623830432611],[-73.34159921019456,45.7961139940409],[-73.3444098136836,45.793841394603554],[-73.34558080737234,45.79366300290823],[-73.34580341145913,45.79224170806802],[-73.34266199686058,45.79331710882867]]],[[[-73.25419580498863,45.850810813397416],[-73.25063901480826,45.85150490841793],[-73.24983572049729,45.85258289182403],[-73.25183139591093,45.852623309409445],[-73.25897421440685,45.85048809509288],[-73.26255959777467,45.84913688987207],[-73.26447951405133,45.84878100736537],[-73.26790309465173,45.84598960209887],[-73.26975361353459,45.843725894957814],[-73.26965360421278,45.84301489573741],[-73.26666518605667,45.843368699106215],[-73.26946211296013,45.84260951288807],[-73.27214669773959,45.840941307159696],[-73.27355639707018,45.83936050156046],[-73.26886599992757,45.840430892475574],[-73.26749589405483,45.841759802780416],[-73.26543258798974,45.84257438546697],[-73.26118081325825,45.8433844060315],[-73.25786498419485,45.8449879969128],[-73.25528158256932,45.84691699693627],[-73.25208358668606,45.84803489142121],[-73.2499108090365,45.85019859232565],[-73.2536802112419,45.84802940545801],[-73.25314899162154,45.84877498810885],[-73.24972698654129,45.851008089200924],[-73.2516088930228,45.850562306777],[-73.25419580498863,45.850810813397416]]],[[[-73.2511962829375,45.853548700452016],[-73.24816828625539,45.85398290822739],[-73.2456328930958,45.856532695885726],[-73.25165388941672,45.85489939427124],[-73.25245599262514,45.85408229601317],[-73.2511962829375,45.853548700452016]]],[[[-73.24456741244207,45.85862679073473],[-73.24344650329616,45.85874129968675],[-73.24021859847453,45.860551496117516],[-73.23825290829869,45.86228369348181],[-73.24256290713575,45.86323829870482],[-73.24595221129277,45.862778012409066],[-73.24748249612627,45.86041489794527],[-73.2470362055772,45.859460109596675],[-73.24456741244207,45.85862679073473]]],[[[-73.24451261116845,45.86495219420814],[-73.2447902958206,45.8633871885999],[-73.24238101123026,45.86357080872996],[-73.24451261116845,45.86495219420814]]],[[[-73.2542139045512,45.8613203972133],[-73.25160939932414,45.864922805790734],[-73.25276030266177,45.86676089710416],[-73.25531599966884,45.86549770839738],[-73.25566860773607,45.8643827114866],[-73.25772109355637,45.863298404546164],[-73.25808768864201,45.861931509313756],[-73.25983180969688,45.86065750401392],[-73.25731518745096,45.85890660314232],[-73.25897160487841,45.85707449770634],[-73.25749289883531,45.8565764974786],[-73.2593520998619,45.85543768730212],[-73.25966819351648,45.85380079733231],[-73.26399301956891,45.851182392934206],[-73.26181901799553,45.85068299605833],[-73.25512730068125,45.85274729751629],[-73.25278948048663,45.85436190309646],[-73.25213721179266,45.856259105017536],[-73.24957078182526,45.857108308102035],[-73.25103861332008,45.86004479548905],[-73.24855518595923,45.85959840354443],[-73.24999811053841,45.86232799570321],[-73.25105908695399,45.86122350507598],[-73.2526710839218,45.86074119508173],[-73.2542139045512,45.8613203972133]]],[[[-73.24833799802408,45.870611400203096],[-73.24611768217113,45.87168619992043],[-73.24825620630563,45.87160989213785],[-73.24940951363658,45.87008279909876],[-73.25213370700466,45.86864019731423],[-73.25270728702353,45.867102690105945],[-73.25122310841252,45.86490401381506],[-73.25120550622309,45.865947799084175],[-73.24898168710861,45.86783239012596],[-73.249994013392,45.869013400187356],[-73.24833799802408,45.870611400203096]]],[[[-73.23318360573252,45.8693621971437],[-73.23771249337022,45.87038950319453],[-73.2390404851818,45.870131604387645],[-73.23980640892944,45.86885561192614],[-73.24412519969418,45.865194294622626],[-73.24199488936553,45.863524905764976],[-73.2381202045383,45.86312019668925],[-73.23628388474447,45.864690593051755],[-73.23318360573252,45.8693621971437]]],[[[-73.23322610965417,45.871224999013826],[-73.23072440588143,45.871830890733904],[-73.22988550013032,45.87480730890683],[-73.2312816801627,45.87376680653676],[-73.23503639994414,45.8724527954546],[-73.23322610965417,45.871224999013826]]],[[[-73.22679500532699,45.88246600223997],[-73.22505081047052,45.88346959434222],[-73.22257239545311,45.889591105172485],[-73.22500549918486,45.88744661203634],[-73.22678299765478,45.88492240564574],[-73.22955070558191,45.882733491927915],[-73.22679500532699,45.88246600223997]]],[[[-73.22578599500426,45.89116448956138],[-73.22581609782114,45.892901111789804],[-73.22418919429965,45.89355410394991],[-73.22496970174342,45.89467169258563],[-73.22671468766026,45.89361419813314],[-73.22717461309729,45.89177961177771],[-73.22999760613841,45.88889809287027],[-73.23260788408625,45.88733859645347],[-73.23023719358436,45.887314996694194],[-73.22850150791125,45.88918238902576],[-73.22676129979058,45.889358307362805],[-73.22578599500426,45.89116448956138]]],[[[-73.22013531366137,45.92588230630157],[-73.2198078060863,45.92434290802396],[-73.22076419762017,45.92388629292949],[-73.21993268265508,45.92256159939561],[-73.22175959301373,45.92078460297947],[-73.22136419094443,45.91992879619775],[-73.22366232110627,45.91666819216846],[-73.22288009839164,45.91582050522627],[-73.22494849319891,45.91461968671329],[-73.22665871083345,45.91026001540674],[-73.22675178578311,45.90704790804076],[-73.22820170349375,45.905746702372774],[-73.22768169039726,45.904017903177596],[-73.2250617982083,45.904758511774375],[-73.22234539669984,45.90672240450695],[-73.22174260785725,45.90869140370262],[-73.21991620465447,45.91049549986367],[-73.21922399304539,45.91227539567691],[-73.22079160024494,45.91583338996741],[-73.21984381501369,45.91717169362268],[-73.22027220707446,45.91914330654671],[-73.21893761153939,45.92049869136526],[-73.2187505083094,45.92436730175788],[-73.22013531366137,45.92588230630157]]],[[[-73.14658469655546,45.955300700867525],[-73.14894749566577,45.956828494864936],[-73.16325261018342,45.96741370287638],[-73.1648742858232,45.9688366172797],[-73.17925023066694,45.979263924316164],[-73.18109445253272,45.98070167850669],[-73.18283998225901,45.97693700858847],[-73.18466408595724,45.973882788756086],[-73.18800539489658,45.96946510282903],[-73.18984771383259,45.967670511491214],[-73.19136020871565,45.96484939888155],[-73.19724919842663,45.95908859650894],[-73.20051331156299,45.95428339035548],[-73.20347021092172,45.948928495726754],[-73.20461370920972,45.94490939765696],[-73.20556800827075,45.94008010916807],[-73.20685808285027,45.93508069596055],[-73.2070543158467,45.93211190048011],[-73.20850080494422,45.926752895621576],[-73.20825019366741,45.92535770684678],[-73.20954340622573,45.922157697364064],[-73.20896260879182,45.919816899727444],[-73.2095514870987,45.91812679498374],[-73.20868490506243,45.913742698348656],[-73.20906079999362,45.91336569448413],[-73.20771610892209,45.90923228986778],[-73.20824218912493,45.90721810199944],[-73.20789161012816,45.90525570467863],[-73.20837678753705,45.903664391564924],[-73.20804431148427,45.898264797978385],[-73.20966418836161,45.894066889685526],[-73.20966470266518,45.89643339143478],[-73.21158830800832,45.89576340261339],[-73.21273820346822,45.89265311133885],[-73.2150924048382,45.88838499092362],[-73.21741750547733,45.884710712295124],[-73.21864899335729,45.88067371068379],[-73.22029691262185,45.87831130535918],[-73.22233871185992,45.87701160437696],[-73.22309540423298,45.87511479266462],[-73.2259499100823,45.87353810651509],[-73.22750691651275,45.871238390608056],[-73.2271516085705,45.87014890949091],[-73.22844959469742,45.868136410969754],[-73.2331398882994,45.86232580836502],[-73.23635840091106,45.85984091010878],[-73.23965209161383,45.85774289451675],[-73.24540970772635,45.854660711320946],[-73.24679078662794,45.85109159762828],[-73.24941591095636,45.848595996718466],[-73.25306639234054,45.84706530960009],[-73.258758406543,45.8438290985296],[-73.26531781409403,45.842340198895045],[-73.2668650925261,45.841776502767786],[-73.26864790091146,45.840277408179766],[-73.27348199469937,45.8386584930677],[-73.27869658861674,45.835168596040454],[-73.27999010225906,45.83358740794225],[-73.28236330321769,45.83235919812352],[-73.28334009051433,45.83273908955253],[-73.28478891582157,45.8309062036823],[-73.2845915101015,45.82867428983427],[-73.28582839664769,45.82832580756351],[-73.28843670613006,45.826135112860335],[-73.29195928183633,45.82371220285254],[-73.2956585056639,45.82218020541002],[-73.29778780401479,45.82058240074508],[-73.29969348945068,45.82030670100935],[-73.29992941940783,45.81909249806057],[-73.30329110659389,45.81826141433211],[-73.30481591631117,45.81647350468255],[-73.30771569507822,45.81143958603237],[-73.30966628947336,45.809175287607175],[-73.31233529217224,45.80749709648297],[-73.31370378387066,45.80609569387734],[-73.31665689483928,45.80398589772558],[-73.31923741645039,45.801677602256774],[-73.32274459577118,45.799163701568],[-73.3266991106017,45.79748709217548],[-73.32824690515035,45.79613978987865],[-73.3304226844075,45.79551310877665],[-73.33301609274884,45.79289860543167],[-73.33468338920547,45.790219586797164],[-73.33830519276974,45.7875793941397],[-73.34004671021027,45.78575520045544],[-73.3419020864917,45.784561105724144],[-73.34840380832645,45.78197850689236],[-73.35011681699523,45.78099099311294],[-73.35708060540954,45.77847151415482],[-73.36045188410685,45.77757580484426],[-73.36510018962447,45.775043908510135],[-73.36810261139969,45.772357091900304],[-73.37110810932944,45.768203401169345],[-73.37517871008934,45.76469870044119],[-73.37887300676665,45.762624091426616],[-73.38070260401679,45.76070948828024],[-73.38384319937086,45.758841096643486],[-73.38481011691177,45.75745639981546],[-73.38784979913916,45.75448098779197],[-73.39001251364175,45.752782611952476],[-73.39396985428296,45.74895711707578],[-73.39324660582108,45.74755958319792],[-73.38753948045442,45.74376431827555],[-73.37078912635336,45.72967986032713],[-73.36889460353862,45.72853739929432],[-73.35978003846563,45.72142549230162],[-73.33566496889085,45.70223700203894],[-73.32255709979275,45.69211327707931],[-73.33775073146741,45.677243889671985],[-73.33151373953267,45.67238576499675],[-73.34513496825718,45.65078987751133],[-73.32665078473126,45.636936457962356],[-73.31941302967638,45.63130184043189],[-73.31885625533577,45.63224304937891],[-73.30963145793704,45.6255866863585],[-73.30500524500418,45.62196260989677],[-73.30161199705523,45.62752664849622],[-73.29950611149171,45.63008228461809],[-73.29187643735044,45.62315610770647],[-73.28338730002537,45.61875285079487],[-73.27610989368233,45.62759660695704],[-73.27488019601775,45.626507745483906],[-73.27251262711084,45.63308958529777],[-73.26471250463385,45.63784431859291],[-73.26191727027259,45.63884093862018],[-73.27596147236305,45.64955082865057],[-73.26816297649647,45.65453668226266],[-73.24539546016155,45.638004290024305],[-73.23798558309994,45.631853083959605],[-73.23216957312349,45.63593962387395],[-73.23004262664176,45.635653251018276],[-73.22647018900119,45.63300358080243],[-73.22555254419466,45.63467569281882],[-73.21420540783032,45.62610821209925],[-73.21449429238127,45.62730569203191],[-73.21195131612164,45.63053869553847],[-73.21200729979405,45.6321315104965],[-73.20342192286083,45.625926034436674],[-73.20126525034964,45.633233702607505],[-73.1847371771931,45.621162630113986],[-73.18460101941861,45.62358801437547],[-73.18497316414252,45.62726792738968],[-73.1859321057479,45.63054089331906],[-73.1887805279064,45.634228278778934],[-73.19353047434751,45.63763497163016],[-73.19635301833908,45.6399238279754],[-73.2018370475474,45.64173958663475],[-73.20474091540197,45.64398042684161],[-73.20547312684965,45.6460009621199],[-73.20408077899538,45.64941375686848],[-73.19964337634279,45.65556214962436],[-73.19494796240772,45.662937588753906],[-73.19258140920012,45.669689056186115],[-73.19202933838449,45.678815985635424],[-73.19053055673571,45.681388847873656],[-73.18909607735534,45.686157013799004],[-73.19009858996104,45.69763227678538],[-73.18963388223882,45.70249726197733],[-73.19089921616599,45.70876523644724],[-73.19134200618177,45.71450451483635],[-73.19240050438435,45.72089252260397],[-73.1912404420061,45.72664719131601],[-73.19107226570176,45.73249792608608],[-73.19143572685773,45.740518759628415],[-73.19082170458775,45.74522066745911],[-73.18856798128901,45.7493223574287],[-73.1859970205632,45.75485518793679],[-73.18369491529032,45.76164798063173],[-73.18300083339795,45.76597482134344],[-73.18144925311222,45.768727389053495],[-73.17074107923693,45.7764362882938],[-73.16390555468209,45.782912440066674],[-73.16311386101425,45.78405126875117],[-73.16122318302244,45.788423034110224],[-73.16117586224705,45.79014934158699],[-73.15949142054538,45.79369655937481],[-73.15462222890955,45.79888968976397],[-73.15209403238602,45.80222762453624],[-73.15066277993768,45.80479624599573],[-73.1498127773579,45.807198646335074],[-73.1478842508594,45.815027688009756],[-73.14573896481477,45.81931546562835],[-73.14506766112477,45.82284700949868],[-73.14057739200099,45.82969154598194],[-73.1389238053298,45.83345036997329],[-73.13935451460537,45.83507804954477],[-73.14349745940686,45.839505607886856],[-73.14564893655799,45.84345804938062],[-73.14674870920233,45.848088291641545],[-73.14667003717776,45.8554358893151],[-73.1501954852261,45.870646602317],[-73.15266065690565,45.87493029249433],[-73.15349369080498,45.88411406303598],[-73.15275983815401,45.892801829067494],[-73.15128995464063,45.89959720990739],[-73.15161437033667,45.903746135925985],[-73.15274992394916,45.90690087286113],[-73.15457037656257,45.90935260451212],[-73.15413650439636,45.91175145380073],[-73.15198103370268,45.91654192153406],[-73.15180615659838,45.91851871896166],[-73.15632915679673,45.92419167254724],[-73.15706603149965,45.926255264598666],[-73.15575525771392,45.92857492821427],[-73.15222467661644,45.93233321373155],[-73.15024935850332,45.93530743447152],[-73.15002354850142,45.94299763242198],[-73.14775083144576,45.952163500577804],[-73.14658469655546,45.955300700867525]]],[[[-73.50081831441467,45.45327400633579],[-73.50048579396507,45.45546969713626],[-73.50111240979857,45.45597351245934],[-73.50081831441467,45.45327400633579]]],[[[-73.51147730773036,45.477898386512614],[-73.50712359220348,45.47101878849038],[-73.50551188333377,45.46799540819624],[-73.50580571062092,45.464791890517425],[-73.50433500700062,45.46413510724807],[-73.5039000813027,45.462452406114394],[-73.50324216327665,45.45276696321521],[-73.50219830031784,45.43391314277616],[-73.50297770807227,45.43013881251892],[-73.50550759117344,45.42451459301096],[-73.50857400297917,45.42049199875157],[-73.51331359675899,45.416460209051806],[-73.51814248874554,45.4137149905691],[-73.52269000763556,45.411761411505104],[-73.52942199553524,45.41011319819201],[-73.53261876358884,45.40960097971532],[-73.53514498715187,45.409202688424564],[-73.54569730616362,45.40912700434512],[-73.55471691558981,45.4092310062405],[-73.56229229498389,45.40891219131132],[-73.5715546111431,45.409113715014755],[-73.5742152101485,45.411703598323435],[-73.5759907855645,45.4114775088264],[-73.57764980883537,45.41013560642056],[-73.58031980353783,45.410070698911994],[-73.58555880030916,45.41073289584613],[-73.59377238579343,45.41000649667103],[-73.59729920196564,45.41042650543785],[-73.60028747095294,45.40934302353455],[-73.60807798959294,45.4084550957518],[-73.60927908224753,45.40853490605207],[-73.61773241079257,45.40671781466296],[-73.62512920450962,45.40680000138694],[-73.62866568154945,45.40584220914681],[-73.63071928131842,45.404517003664026],[-73.63313261120744,45.40403729936615],[-73.6341427104237,45.40443210753437],[-73.63700238633629,45.4037538058039],[-73.64266330694694,45.40452069506309],[-73.64966958949168,45.406824390428746],[-73.65124678311224,45.4090090060802],[-73.6542658060148,45.41046280730616],[-73.65646251964755,45.41022579125977],[-73.65516210716959,45.41119049688256],[-73.65459130615024,45.41272099237784],[-73.65610201505274,45.413852804067474],[-73.66126708707138,45.41504240680689],[-73.66586878987009,45.4157736013131],[-73.66599440477916,45.41502659835005],[-73.66744260688631,45.41651819456372],[-73.66980358530577,45.415650907483034],[-73.67620929114797,45.41708989881847],[-73.6827022920738,45.41775460718253],[-73.68773590394585,45.41755750437821],[-73.69178371304919,45.41679491267781],[-73.71914809418325,45.409150901036014],[-73.71908320673386,45.40889899793663],[-73.69101690096697,45.41676919029024],[-73.68786308697698,45.4173863952013],[-73.68432450485767,45.41759908838155],[-73.67539070555627,45.41678521197299],[-73.67124808618524,45.4158737035057],[-73.6681781120511,45.4146815079101],[-73.65200850600272,45.407217292917984],[-73.64464381905104,45.40469819499941],[-73.63697481407104,45.40292600402309],[-73.630842302118,45.402474195156394],[-73.62655059727683,45.402568989563584],[-73.62066338843269,45.40328630056682],[-73.60157943585541,45.406753917718156],[-73.59537848696846,45.40785459902042],[-73.5888385922273,45.408435699959256],[-73.57473511533897,45.40872480097652],[-73.57582048873901,45.40835510166471],[-73.56848731440051,45.408143802447064],[-73.55526530780016,45.408348906719866],[-73.55631309499155,45.408609396980644],[-73.53740579309026,45.40863508999933],[-73.53285646625204,45.40895399875128],[-73.52652199564629,45.41005998829968],[-73.52016048980445,45.41211290733926],[-73.51526790341543,45.41453430524525],[-73.51217648358244,45.41646930022764],[-73.50934030487984,45.418818302806365],[-73.50706621117662,45.42115799599114],[-73.50467700210501,45.42437069021691],[-73.50214701042194,45.43008481141004],[-73.50153376503941,45.4337858459234],[-73.50184070626841,45.44157599586637],[-73.50267314051808,45.45274917995049],[-73.50263379728749,45.45432678681915],[-73.50336319309038,45.46362220996587],[-73.50415619882158,45.46654668867488],[-73.5055121050298,45.469642103026764],[-73.51070280511962,45.47788738846662],[-73.51147730773036,45.477898386512614]]],[[[-73.50883582515634,45.477816099436644],[-73.50723931331625,45.47531110306092],[-73.50381120892888,45.470902001514666],[-73.50328689437477,45.471873892626995],[-73.50455321193266,45.47398851329229],[-73.50822856115974,45.47779291155229],[-73.50883582515634,45.477816099436644]]],[[[-73.49996165089686,45.43327010965829],[-73.50006391038389,45.432289501700716],[-73.49820121865002,45.43268740070727],[-73.49859411680104,45.435438902775545],[-73.4998977188103,45.43551089597372],[-73.49996165089686,45.43327010965829]]],[[[-73.50025571260218,45.44505840536864],[-73.50035798243285,45.44281780131401],[-73.49945030358765,45.443177706528125],[-73.49941189512941,45.44476140471288],[-73.50025571260218,45.44505840536864]]],[[[-73.74196949001983,45.40725110788356],[-73.74046579610301,45.40812720299677],[-73.74114651710468,45.40898049844154],[-73.74252258625708,45.408131788497606],[-73.74196949001983,45.40725110788356]]],[[[-73.69489780248648,45.41207440113032],[-73.68942150491696,45.41344240370314],[-73.68739270607779,45.41425558885703],[-73.68635250844238,45.41652491370427],[-73.6910772032961,45.41568931071201],[-73.71012038464718,45.41035570279616],[-73.70756449297957,45.410144400246644],[-73.70667929474352,45.409129187576],[-73.70054060600985,45.41088580343714],[-73.69887660229297,45.40998889826539],[-73.69874029955561,45.411203891773766],[-73.69489780248648,45.41207440113032]]],[[[-73.56382331344255,45.40707571087708],[-73.56152461095517,45.40784180534988],[-73.56957289955949,45.407837207277915],[-73.56807730379796,45.407118112182815],[-73.57222869723978,45.40683659818341],[-73.57601020279606,45.40688820135149],[-73.57547300090617,45.40639359293423],[-73.5652661991996,45.40658888702602],[-73.56382331344255,45.40707571087708]]],[[[-73.55334578561916,45.40487630603528],[-73.55449699812989,45.40650460283472],[-73.55758890532431,45.40683599465764],[-73.56273710724273,45.40682430354846],[-73.5621479854395,45.40547479135462],[-73.55832710789385,45.404163091663584],[-73.55505630941798,45.403651700241404],[-73.55256430551614,45.402573089531124],[-73.54934490155993,45.401917593816016],[-73.5526928035023,45.40329300508922],[-73.55334578561916,45.40487630603528]]],[[[-73.53331063117356,45.407753914844],[-73.53777560411211,45.40747408909402],[-73.54499341461324,45.407444497473676],[-73.5426169140276,45.406977494183614],[-73.53347993295347,45.4073065364612],[-73.53331063117356,45.407753914844]]],[[[-73.53004689681406,45.40788140376613],[-73.52567840296315,45.40909728830562],[-73.53046850138946,45.408097191297166],[-73.53004689681406,45.40788140376613]]],[[[-73.52293201358982,45.409718697765285],[-73.51835878968514,45.4112222860454],[-73.51789910448905,45.41173529123412],[-73.52293201358982,45.409718697765285]]],[[[-73.51045151336335,45.41599260882196],[-73.50739811906291,45.41836839807051],[-73.50762810196414,45.41860241347395],[-73.51045151336335,45.41599260882196]]],[[[-73.50656770120692,45.41941230297303],[-73.50397398350326,45.422237995778225],[-73.50408910116029,45.42261589139993],[-73.50656770120692,45.41941230297303]]],[[[-73.50000000685661,45.4317855066255],[-73.50116290981597,45.427943111345115],[-73.50052401342421,45.428770990659075],[-73.50000000685661,45.4317855066255]]],[[[-73.90696709784055,45.31423119518052],[-73.90571139814251,45.31519849859759],[-73.90558379242225,45.316971686750186],[-73.90632440868177,45.31710410282417],[-73.90737091538993,45.31540860436527],[-73.90696709784055,45.31423119518052]]],[[[-73.91059630167418,45.315190105781454],[-73.90898770482151,45.31676159591288],[-73.90899930322647,45.31837239377579],[-73.91082078742225,45.31626910383317],[-73.91059630167418,45.315190105781454]]],[[[-73.9548472569244,45.269284066805554],[-73.94885670355836,45.27614449351081],[-73.94117010446033,45.285866088738594],[-73.93305370746539,45.29641669303103],[-73.93079699950803,45.29979079969058],[-73.92795710398863,45.301952188617555],[-73.92570158491988,45.305560206627696],[-73.92575888531891,45.30639679288687],[-73.922144395484,45.31252028957489],[-73.92130369863368,45.3143771994055],[-73.91994221580502,45.314805102217555],[-73.91757240718515,45.318611309887686],[-73.91839701157502,45.31974211348937],[-73.91631209673943,45.32418609594416],[-73.91756910865907,45.32338059488566],[-73.91815811015601,45.3219385909224],[-73.91999019261374,45.32130199945362],[-73.92101728514623,45.318760601336884],[-73.92633950195965,45.319199890436465],[-73.9308641903725,45.318768900801985],[-73.93327889723078,45.31929069132609],[-73.94054821497078,45.31914590455139],[-73.94299910323626,45.31938829980798],[-73.94584560225262,45.3180275053454],[-73.94858570602943,45.31613600666594],[-73.95324888514209,45.315523698893834],[-73.95393429670621,45.315107086831915],[-73.95976209541617,45.31500280836721],[-73.96176189461733,45.31623648579001],[-73.96173289415515,45.317379509832165],[-73.96364939433681,45.317794699043255],[-73.9669227997935,45.3203459924998],[-73.96810730106739,45.3185773932043],[-73.96761860001864,45.31654559892366],[-73.96827719149165,45.31598500627717],[-73.97466702755153,45.3191544655008],[-73.97284601560825,45.31784689789115],[-73.96855639591914,45.31580390249098],[-73.96930268654083,45.315062898912025],[-73.97120119564605,45.31483019985368],[-73.97214031021703,45.31272961481544],[-73.96416930480738,45.304093092779574],[-73.96324981227528,45.29995847012932],[-73.96076509380224,45.291423213148384],[-73.95737997892837,45.27790461021997],[-73.9548472569244,45.269284066805554]]],[[[-73.86274001674437,45.322811992944885],[-73.86081548452759,45.32307009813829],[-73.8589483936563,45.324335793863575],[-73.85874671681091,45.32673899052109],[-73.86004311485539,45.327985805940926],[-73.86149759152566,45.32601950586067],[-73.86152731134774,45.324678614029764],[-73.86274679122272,45.32387390247188],[-73.86274001674437,45.322811992944885]]],[[[-73.85317171198896,45.32875420004938],[-73.85565931389766,45.32872849922172],[-73.85543230074789,45.3271183961583],[-73.85317171198896,45.32875420004938]]],[[[-73.84529669162347,45.332323702814236],[-73.8460882128688,45.33242030250865],[-73.84759579916378,45.33067898851047],[-73.84531851490124,45.33172079098263],[-73.84529669162347,45.332323702814236]]],[[[-73.8488888103568,45.33347371096593],[-73.84810171623107,45.334124003320085],[-73.85259209583805,45.33403819297113],[-73.85621540704695,45.331993292125084],[-73.85720210301942,45.33063140172344],[-73.85579458962773,45.329978886282476],[-73.85044151657533,45.3307873021313],[-73.8477967811335,45.3322622064155],[-73.849646887602,45.332274495672735],[-73.84796860690197,45.333215502633706],[-73.8488888103568,45.33347371096593]]],[[[-73.84008951449529,45.33841351070816],[-73.84368749811242,45.33837570256044],[-73.84971718588126,45.33955420110895],[-73.8506538043637,45.338327503820054],[-73.8509790116191,45.33519499502564],[-73.84679130372542,45.33473088966748],[-73.84645170310493,45.335523807567576],[-73.84827290271652,45.33707501285535],[-73.84556668472567,45.33686730441143],[-73.84700158798063,45.33783479458724],[-73.8433745015255,45.337260810490505],[-73.84314919900277,45.33797241119821],[-73.84008951449529,45.33841351070816]]],[[[-73.83299109409126,45.35293130397689],[-73.83405071205537,45.352982191576075],[-73.83560460072239,45.350296092390245],[-73.8386713863772,45.3487842029431],[-73.83980797895704,45.346801107398655],[-73.8438647130326,45.34446729874263],[-73.84631849164414,45.34088750038496],[-73.84421708518653,45.339427001668525],[-73.84389019009926,45.340246802870226],[-73.84182082121056,45.33985709183341],[-73.84392421312532,45.34163261416647],[-73.8423290918016,45.34163730384118],[-73.84441731156262,45.34299890654593],[-73.84148471395865,45.34338559231989],[-73.84070111168218,45.34464770193757],[-73.83803021730623,45.346131402594324],[-73.83780508678018,45.34692400758569],[-73.83564540733994,45.34856819220796],[-73.83396909618885,45.35210958962103],[-73.83299109409126,45.35293130397689]]],[[[-73.82932561199907,45.354678693928186],[-73.83028890304091,45.35571081226248],[-73.83118039847933,45.355402208254596],[-73.83356648955886,45.353109589000994],[-73.83216318956299,45.35321258764411],[-73.83074330540083,45.35485459466075],[-73.82932561199907,45.354678693928186]]],[[[-73.8289077137007,45.35524680413378],[-73.82702450087292,45.35625110167121],[-73.82802620953663,45.35731898940498],[-73.82949759243107,45.35572200798156],[-73.8289077137007,45.35524680413378]]],[[[-73.8214628926155,45.359074393773085],[-73.82285470156123,45.35916949370337],[-73.82454678759888,45.358201793384154],[-73.8214628926155,45.359074393773085]]]]},"properties":null}
]}