{"type":"FeatureCollection", "features": [
{"type":"Feature","geometry":{"type":"MultiPolygon","coordinates":[[[[-73.57672509033473,45.66070508828609],[-73.57471200799456,45.6619660978142],[-73.57635410662307,45.66156008891007],[-73.57672509033473,45.66070508828609]]],[[[-73.56726361372466,45.668107606440195],[-73.56822619218688,45.66818791108846],[-73.56977709313742,45.66650440515103],[-73.56700619546032,45.66751380691407],[-73.56726361372466,45.668107606440195]]],[[[-73.54314650142501,45.68242621177874],[-73.54132412027684,45.68323679365255],[-73.54059320176412,45.684253809866604],[-73.54010751599452,45.68728639134877],[-73.54244340776945,45.68637670382935],[-73.54380210075952,45.68365879420437],[-73.54314650142501,45.68242621177874]]],[[[-73.53708779340937,45.68340020681158],[-73.53567709511603,45.685560191853405],[-73.53517850455394,45.688961688507376],[-73.53661620613664,45.68846630370706],[-73.53896430362943,45.68659390401166],[-73.54077191432495,45.68302099404637],[-73.54385188195756,45.681652105480254],[-73.54459489972707,45.67960029797289],[-73.54123200857491,45.68024039352147],[-73.53753632036093,45.682167290665994],[-73.53708779340937,45.68340020681158]]],[[[-73.5364842999533,45.683085500286836],[-73.53214751021216,45.687090890752536],[-73.53155879083378,45.6904203943728],[-73.53362561257765,45.68978990732509],[-73.53475429962403,45.6881880123778],[-73.53509938932464,45.685623393715694],[-73.5364842999533,45.683085500286836]]],[[[-73.53712250113192,45.69696939585877],[-73.53180731516369,45.6984375961204],[-73.53364370482969,45.69863508995966],[-73.54073119507594,45.697571010214126],[-73.53712250113192,45.69696939585877]]],[[[-73.65625678394319,45.588909673356724],[-73.65755138639317,45.590202005938316],[-73.65599240606159,45.591886812358496],[-73.6536583028576,45.59605621218136],[-73.65119090799601,45.598435005461],[-73.64837613561065,45.60022909280036],[-73.64557569833629,45.603094496352625],[-73.64373929626723,45.60684009165248],[-73.64320720108135,45.60932430341604],[-73.64167690591222,45.612538510655234],[-73.6419632058094,45.61935891090403],[-73.64055820163678,45.62157408960498],[-73.63852409905193,45.62347529761017],[-73.6391549770677,45.624501170570994],[-73.63896641859925,45.62603919107928],[-73.63564338037239,45.63076730528136],[-73.63125248906552,45.63430870815611],[-73.62687310264246,45.63748100322934],[-73.62515588486993,45.63820280105817],[-73.62132660774549,45.64104129496068],[-73.61930188716865,45.642042292001506],[-73.61835528786789,45.643312097409236],[-73.61411538698349,45.646429695823336],[-73.60943630056065,45.64824288901545],[-73.60628151632216,45.64891169491552],[-73.6014998993965,45.651075694683485],[-73.59991141057901,45.652507810607695],[-73.59542448576532,45.65469819401781],[-73.59333580784946,45.65639161400763],[-73.5912833132946,45.65667218966432],[-73.58705260769888,45.659042109766524],[-73.5848338103477,45.65984450541463],[-73.58379390731584,45.65950330038969],[-73.58188349195451,45.66055750477354],[-73.57807358967321,45.66152299006979],[-73.57488069188472,45.66336970811806],[-73.57350918619746,45.66460338864005],[-73.57146981602106,45.66543249057307],[-73.56876570698928,45.66856560160363],[-73.56503181178081,45.66926060001714],[-73.56037679973282,45.67283550847312],[-73.55797778218636,45.67397940353336],[-73.55695188365355,45.675050796075986],[-73.5546295095693,45.67579880144205],[-73.55015219052441,45.678626189695564],[-73.54903659816686,45.67982339500332],[-73.54855019990605,45.68155130199137],[-73.5463209080223,45.68687908839637],[-73.54473000367001,45.6881753988627],[-73.54069980843587,45.68969769664322],[-73.53252438517472,45.69499119147674],[-73.52926428076498,45.69761050746472],[-73.53126780523472,45.69811390075905],[-73.53505510334506,45.697015012237266],[-73.53787979602835,45.69665418616141],[-73.54130890198049,45.697480904071895],[-73.54362028888433,45.69750700726367],[-73.54711361650946,45.69817139422726],[-73.55113400116352,45.69942939888368],[-73.55354830446298,45.699581303280326],[-73.55955720963539,45.69877749192822],[-73.56419110193201,45.69729931145885],[-73.57013471135099,45.69595511118782],[-73.57597449984632,45.69401679868854],[-73.57688618783556,45.69402510741861],[-73.58226379910423,45.692419704542786],[-73.58878371147738,45.69076820378661],[-73.59522521493858,45.68852249814617],[-73.60016651534947,45.687564401980765],[-73.60341531638475,45.68788539844686],[-73.61300021701236,45.691538697550676],[-73.61618558784174,45.69216529942686],[-73.62140545456194,45.69199799150636],[-73.62432579898245,45.69203980559835],[-73.62604388976976,45.691039084766],[-73.62816940091835,45.68849030855214],[-73.6335349031118,45.68800719409538],[-73.64138279969403,45.68935650518774],[-73.64573518144934,45.689351001973876],[-73.64812218757162,45.688988006680404],[-73.65010383955871,45.687710583735715],[-73.65231198558511,45.68585120280821],[-73.6553238888788,45.68402049481595],[-73.65812061414283,45.68330579167487],[-73.6603826111311,45.68422041383199],[-73.66344710968386,45.687320493134585],[-73.66616348745012,45.68550790618291],[-73.66834549351931,45.685351788827255],[-73.67022949332076,45.68432319321739],[-73.67734049608522,45.68397041013091],[-73.6814519200915,45.68498979208249],[-73.68536867993333,45.685370408868096],[-73.68738248368474,45.6848182938463],[-73.69017439601002,45.6828339943984],[-73.69281488903783,45.6816688860139],[-73.69791928056323,45.68029240218378],[-73.70200108606721,45.680195295657214],[-73.7069520910345,45.67912458965291],[-73.70782699814865,45.679635903702874],[-73.71135461419223,45.67898160284616],[-73.71374300280765,45.679184113178415],[-73.71534539664317,45.67863220008229],[-73.7229451117069,45.67874360648079],[-73.72601488870228,45.67917850567635],[-73.73138199640393,45.676423305632284],[-73.73454699030995,45.67510310307727],[-73.73475908889645,45.67367199660965],[-73.73352469848362,45.673116587483],[-73.73632368914247,45.67027650932774],[-73.73795039743077,45.66949919257527],[-73.7397529806924,45.66784880324186],[-73.7421780904407,45.66774470476798],[-73.74467721194922,45.666920492752546],[-73.74691380940196,45.664801200703174],[-73.74823451368614,45.66455540636421],[-73.74885571188186,45.66280830846905],[-73.75083008384783,45.661861024791556],[-73.752144416732,45.66075850382123],[-73.75387770071974,45.65810929547628],[-73.75935151014268,45.65415570448955],[-73.75956439145207,45.65301239743982],[-73.76421110155232,45.6506983039146],[-73.76830030413072,45.647278399342675],[-73.76652739131086,45.64676070164599],[-73.76750539312542,45.64467980566842],[-73.76916429539538,45.64553980587178],[-73.77128599763732,45.643888087887994],[-73.77191990639885,45.6449843018644],[-73.77355230743584,45.64298279533284],[-73.77405830057681,45.64152388721943],[-73.77205710726844,45.63885620197476],[-73.77572781437638,45.636678891643164],[-73.77597349299009,45.63445569676568],[-73.77816359029899,45.633829590135676],[-73.77855619894774,45.6327938094189],[-73.78190269563555,45.63258759821152],[-73.78393588613103,45.631358806380646],[-73.78560260609025,45.63124670195388],[-73.78628510520397,45.63034011362086],[-73.78632360501095,45.62924719031195],[-73.78445251683148,45.626993395984314],[-73.78410998493163,45.625194593253596],[-73.78554298871559,45.62456119373648],[-73.78450528752678,45.622215210594554],[-73.78513349688005,45.6196761091355],[-73.78759790945557,45.61760931452629],[-73.78745068944357,45.61641289064847],[-73.78894158689668,45.61460949393194],[-73.79074910301004,45.61453300310555],[-73.79148889152891,45.61378418770167],[-73.79554460498244,45.612109105926585],[-73.79609779503086,45.61004709968293],[-73.79706530299235,45.60873981392877],[-73.79810451252968,45.60887210655351],[-73.79673140775846,45.611044190100756],[-73.79629139594782,45.6127101067009],[-73.79726479869807,45.61252761194445],[-73.80009681635869,45.609820700432685],[-73.79934149493428,45.60763609045071],[-73.7982578147646,45.608745696669295],[-73.7978175970859,45.60793700294614],[-73.79892890723009,45.607178304657864],[-73.79990691106724,45.607868512267565],[-73.80316458477847,45.60812089803404],[-73.80705828087045,45.60743560728342],[-73.80684819381342,45.606518290415984],[-73.80996839115446,45.60834854363817],[-73.80803958902338,45.60637118549425],[-73.80975339672837,45.605628689484476],[-73.81060369978859,45.60404270392897],[-73.81043871768055,45.60204550040665],[-73.8141504094914,45.600991594127116],[-73.81626580291434,45.60104870470232],[-73.81987590962554,45.60246039842337],[-73.82051139612852,45.60375440274953],[-73.82208538041814,45.60326410589924],[-73.82313470981694,45.60516880965147],[-73.8228810855962,45.60789600530023],[-73.8241870802729,45.60757730606459],[-73.82551858994377,45.605071994649194],[-73.82466821031298,45.60431859873769],[-73.82498860542081,45.59986350690342],[-73.82358569281953,45.59662810176088],[-73.82632048465753,45.59523459376244],[-73.82657990415474,45.593542104823634],[-73.82598299501771,45.59229310327684],[-73.82796201172803,45.593178312451464],[-73.8300319098851,45.59207449003439],[-73.83086890303807,45.5905604134156],[-73.82985179900224,45.58977148740074],[-73.83058520915401,45.58806869131957],[-73.82855680258353,45.585284994010294],[-73.83039590071725,45.58420899464071],[-73.8292237910827,45.580999895305034],[-73.82966548602353,45.57983790328575],[-73.83218338221194,45.57875970438049],[-73.83321381343933,45.5796296042413],[-73.83514165399173,45.578620766901075],[-73.84011099652403,45.57807948986069],[-73.84257948911461,45.577316386417415],[-73.84506570467613,45.57738979211543],[-73.84798819136401,45.57549128685763],[-73.8493117084461,45.57609021299555],[-73.84964330137305,45.573776588411064],[-73.85142839952715,45.5723853886923],[-73.85026752110963,45.57113819138507],[-73.85085581174243,45.56890470928931],[-73.85065358016308,45.567294707355174],[-73.85344611087294,45.56723209358432],[-73.85827700019082,45.565399396391506],[-73.85904589971327,45.5634172933327],[-73.86475681231397,45.561068691333716],[-73.86565641433289,45.55953609963969],[-73.87028091109633,45.557640513117924],[-73.87263069526927,45.55850570517721],[-73.87615331231862,45.55853920585217],[-73.87820339364954,45.55670569467909],[-73.87976780111138,45.556961503691504],[-73.8809191166028,45.558649391603886],[-73.88318260348551,45.55620318842114],[-73.88150008089065,45.55554300673093],[-73.87814521378455,45.55567120039737],[-73.87892180943167,45.55495771244833],[-73.87860570132733,45.5536720082842],[-73.87978079526951,45.5531911997518],[-73.8797279094796,45.55104969807283],[-73.88125669263792,45.54796720428965],[-73.87953580952274,45.54722601275064],[-73.87850178711463,45.543918095180615],[-73.87988560605481,45.54212278974886],[-73.8812003029528,45.541506588370794],[-73.88046341904088,45.54047419612595],[-73.88157648722714,45.538418793496916],[-73.87841840916387,45.53529790306452],[-73.87945240787981,45.53293691097657],[-73.88054819952302,45.53215040372695],[-73.88258179376916,45.531846593540514],[-73.88504209457231,45.52840098862849],[-73.88573011933207,45.526050197151],[-73.88266999835467,45.524089805154794],[-73.88050260546946,45.52349409512385],[-73.88040529518442,45.52235169377962],[-73.87842730933241,45.52135939059379],[-73.87334021724567,45.52057529751777],[-73.87026967950912,45.52081020601697],[-73.86589009890247,45.520545400946084],[-73.86276504695422,45.520822571194955],[-73.85933118462997,45.52174499508113],[-73.85428849129623,45.521877698096645],[-73.85157921496003,45.5226238975451],[-73.84815728668254,45.521941600661506],[-73.84736620887364,45.522375906121624],[-73.84349941651298,45.52012899073712],[-73.8397728879225,45.51985220041842],[-73.83830230286951,45.520108601595595],[-73.83292531010045,45.5199532981061],[-73.82851210194164,45.52046998997483],[-73.82606338613033,45.519802209207526],[-73.82202091911621,45.51796899303033],[-73.81725336607336,45.518212710952795],[-73.8104695839792,45.51927870380086],[-73.80506878289616,45.51706170088691],[-73.80250899983064,45.51708640561884],[-73.79638120777939,45.5152578956138],[-73.79112039778815,45.51520840666091],[-73.78934547979303,45.51602280909723],[-73.78658171405702,45.516227708271074],[-73.78383430281083,45.51456078867365],[-73.78145120224644,45.51405381355632],[-73.77916371534671,45.51478829141523],[-73.77652801008675,45.5149657032604],[-73.77219498440235,45.513554299580925],[-73.76719891068613,45.512621308851806],[-73.76631647596193,45.51327586678222],[-73.76138920362772,45.51555919903173],[-73.75702831581691,45.519177491590774],[-73.75539299426119,45.519874100568906],[-73.75602651247945,45.52126739864963],[-73.75771620743596,45.52126349887682],[-73.75859069350047,45.52215249733599],[-73.75547920950305,45.524778001821126],[-73.7520911154234,45.525739294364456],[-73.74865829127268,45.5252969887483],[-73.74643730697645,45.52679550013398],[-73.74331420235453,45.52989758841888],[-73.73815388336428,45.5327340036969],[-73.72969431247942,45.53356119614898],[-73.72898957729257,45.533827097100534],[-73.72581250696523,45.536169406517885],[-73.7245002986394,45.53781869962028],[-73.7206775140041,45.53929300867495],[-73.71658110656314,45.53959770278024],[-73.715406987163,45.54060769670572],[-73.71339494998715,45.5411673743974],[-73.71111278684286,45.54282939613479],[-73.71041279756406,45.544000401278005],[-73.70724738818049,45.546831685891696],[-73.69980161810798,45.548995596416624],[-73.69726018107283,45.551024708955985],[-73.69005119460512,45.55148670902588],[-73.68634009198256,45.552455699517985],[-73.68196650230047,45.55452339667899],[-73.67912830772484,45.556147500305414],[-73.67736402777152,45.557857675539765],[-73.6761294053257,45.559715607288396],[-73.67270698569973,45.56314919476073],[-73.6710255920873,45.566292094700515],[-73.67169169166769,45.56623709616464],[-73.67540980568143,45.5631180110875],[-73.67523759578565,45.56536789098806],[-73.6727713890655,45.567450292974414],[-73.66975250397034,45.57317769260126],[-73.67027168391004,45.57538160602878],[-73.6683156094317,45.57761161298866],[-73.66713460023219,45.58046120645672],[-73.66298420301152,45.58531730333483],[-73.66083698641299,45.58735389209573],[-73.66016140460621,45.58865068749249],[-73.65817930368074,45.59020119910064],[-73.65654340054557,45.58853605933481],[-73.65625678394319,45.588909673356724]]],[[[-73.71629138226102,45.68094300769478],[-73.71762729716583,45.681156395277824],[-73.72094961447947,45.680520209031954],[-73.72142101464364,45.679610395353805],[-73.71601541485619,45.67926079893083],[-73.71406590165745,45.679696407408876],[-73.71629138226102,45.68094300769478]]],[[[-73.6866053125793,45.686592093271],[-73.69207809098195,45.687662895038734],[-73.69415458232756,45.6866875994932],[-73.695484502697,45.68516448808651],[-73.69937961338229,45.68302529939156],[-73.7009833909695,45.682779494100075],[-73.70314711076443,45.68116510082319],[-73.7003471994997,45.680756104540244],[-73.69824259499845,45.68098469742015],[-73.6924731980675,45.68308210520381],[-73.68815639605168,45.68591479005682],[-73.6866053125793,45.686592093271]]],[[[-73.68575139579045,45.688519110703545],[-73.68789929028466,45.689631397273835],[-73.69024709621156,45.68913260941818],[-73.68753511758096,45.68821929172474],[-73.68575139579045,45.688519110703545]]],[[[-73.66558989528839,45.6869394883068],[-73.66736151437433,45.686882907382866],[-73.66625528601982,45.68620970112401],[-73.66558989528839,45.6869394883068]]],[[[-73.65466980261593,45.6888893003253],[-73.657379002681,45.68894861265488],[-73.65897858115426,45.687101900151305],[-73.65839310387558,45.684340189964104],[-73.65586520417696,45.684757591422475],[-73.65312309190813,45.68666900202628],[-73.65217750981246,45.68830790986237],[-73.65466980261593,45.6888893003253]]],[[[-73.66726108996734,45.69197598743947],[-73.66971689219345,45.693106104420934],[-73.67514951941395,45.69353889521866],[-73.67928348948641,45.69340639762675],[-73.68209319505267,45.69270909332202],[-73.68449601222564,45.693245195312684],[-73.6856119095375,45.69290139419285],[-73.68899320721205,45.69040339129018],[-73.68763159967281,45.69023469291271],[-73.68441731364008,45.68883619756021],[-73.68356551277734,45.68748791232032],[-73.68153340194876,45.68634830209101],[-73.67703808596711,45.68573450807157],[-73.6754698932777,45.685152102013596],[-73.67179840520873,45.68519371032475],[-73.67000251390185,45.68569129244816],[-73.6669655856311,45.68760340101406],[-73.66415707819455,45.68867820753026],[-73.66129348998493,45.688475299782425],[-73.65886440949673,45.68760590088884],[-73.65747129320586,45.68984830599749],[-73.6586547215895,45.69058449160892],[-73.663883997857,45.69188190542136],[-73.66726108996734,45.69197598743947]]],[[[-73.79259421482777,45.61675979873488],[-73.79056469170585,45.61853769968873],[-73.79008540955648,45.620086496061504],[-73.7923434913681,45.617867210323375],[-73.79259421482777,45.61675979873488]]],[[[-73.8366505256348,45.58000783251874],[-73.835498809737,45.58032480132706],[-73.83477598681576,45.58161360721391],[-73.83638970807188,45.58144701234152],[-73.83726028322454,45.58056836790672],[-73.8366505256348,45.58000783251874]]],[[[-73.8184151109737,45.60257251340063],[-73.81765731226048,45.60456320342536],[-73.81982499704264,45.60477310748162],[-73.81962419408829,45.60328890292163],[-73.8184151109737,45.60257251340063]]],[[[-73.81278391272288,45.60191320307465],[-73.81121269984307,45.60289819707446],[-73.81214559078175,45.60470439728218],[-73.81501479301674,45.601979096271585],[-73.81278391272288,45.60191320307465]]],[[[-73.82020108819545,45.605536890252736],[-73.81895959329024,45.60590029132442],[-73.81951758099795,45.607077605624916],[-73.82124121538152,45.60584900136834],[-73.82020108819545,45.605536890252736]]],[[[-73.81117851415061,45.6083153952821],[-73.81229518279108,45.60855520624069],[-73.81656880951851,45.60704970690459],[-73.81679380204903,45.60373778791681],[-73.81575490950468,45.60365071286242],[-73.81320358622867,45.60592519979862],[-73.81117851415061,45.6083153952821]]],[[[-73.8865672987164,45.526785094951265],[-73.88941150796205,45.52522780869849],[-73.8887364042343,45.52387139186712],[-73.88728649301225,45.523390388189334],[-73.88543801701562,45.52450339624536],[-73.8865672987164,45.526785094951265]]],[[[-73.88111838513925,45.533183299057036],[-73.87974799566143,45.53501448994702],[-73.88085349671738,45.5356497011234],[-73.88175528355208,45.534584907283964],[-73.88111838513925,45.533183299057036]]],[[[-73.7539168907216,45.52468249693406],[-73.75508149302591,45.52458989536827],[-73.75724779532938,45.522425489671896],[-73.75753810269686,45.52150689360257],[-73.75564438647035,45.52167318932646],[-73.75513811108256,45.52012650047353],[-73.75379548778304,45.52045351068371],[-73.75428130238433,45.523142907840594],[-73.7539168907216,45.52468249693406]]],[[[-73.74628288585625,45.523682291631935],[-73.74657158375983,45.52531040121434],[-73.75020371203325,45.5244927142869],[-73.75203720677976,45.5251365142243],[-73.75354121880929,45.52368449139029],[-73.75282441227856,45.520842608499656],[-73.75126178812805,45.52061210533019],[-73.74917848664738,45.52133649586645],[-73.74628288585625,45.523682291631935]]],[[[-73.853062995893,45.51220830337728],[-73.8514987132166,45.51380581051059],[-73.85228170290033,45.51414519243617],[-73.85387340835689,45.512835611223956],[-73.853062995893,45.51220830337728]]],[[[-73.85072191259992,45.516498610397335],[-73.85129260714858,45.517702712928994],[-73.85274919331114,45.517284310415576],[-73.85497549375312,45.51510879651473],[-73.85414900115465,45.51395059062154],[-73.85212390995868,45.5155315063919],[-73.85011090594695,45.514970813535015],[-73.84846771028415,45.51623560091905],[-73.85072191259992,45.516498610397335]]],[[[-73.85034620875085,45.52194389741387],[-73.85290178170314,45.521207105340885],[-73.8564097860953,45.521322209083216],[-73.85776310561602,45.520751110084056],[-73.86112819623753,45.52052451163581],[-73.86216141106183,45.51994541226856],[-73.86180819775451,45.51876770318997],[-73.85922470565542,45.51710209761215],[-73.85660729697302,45.51610249846821],[-73.8536585993168,45.51737150137953],[-73.85331950592003,45.51842539881845],[-73.85183711226954,45.51880791239473],[-73.84830628524819,45.51704599645881],[-73.84706009690805,45.51838159665528],[-73.84703460158244,45.520478310542906],[-73.85034620875085,45.52194389741387]]]]},"properties":null}
]}