{"type":"FeatureCollection", "features": [
{"type":"Feature","geometry":{"type":"MultiPolygon","coordinates":[[[[-73.32524678396408,45.809425209373565],[-73.32223029126122,45.81123809238813],[-73.32371050389571,45.81107848906855],[-73.32778411539734,45.80858320512604],[-73.32524678396408,45.809425209373565]]],[[[-73.34676378954822,45.812614289458814],[-73.34276220731303,45.8171257892585],[-73.3452844904372,45.81709329017146],[-73.34890289519399,45.81620730883703],[-73.35675099921588,45.811718505153955],[-73.35909788791653,45.809705891089116],[-73.36199220306878,45.80476061064396],[-73.36053870814536,45.80465979655396],[-73.35465299435779,45.80702789502725],[-73.35123591102307,45.80991189983582],[-73.34719000761797,45.812030092278896],[-73.34676378954822,45.812614289458814]]],[[[-73.28528030497978,45.84370210711278],[-73.28696600103396,45.84393918944417],[-73.28660840005807,45.843155694095906],[-73.28873581034252,45.842331901334504],[-73.29151138274781,45.84026750029853],[-73.29756819223944,45.83857780569084],[-73.30015621316119,45.83845630752876],[-73.30056640950224,45.83893390092893],[-73.30264389819025,45.83756090590337],[-73.30406098163493,45.83723040916278],[-73.30812481270561,45.83467289239882],[-73.30989829425097,45.83174260750199],[-73.31175868636154,45.82970309986841],[-73.317989409117,45.82542119513829],[-73.32134160607912,45.82357291207131],[-73.32642971166023,45.8221140053924],[-73.3277453966937,45.82112629240465],[-73.33426530997075,45.818409601250025],[-73.33624680156174,45.81852940200047],[-73.34236429777845,45.81679239357941],[-73.34446990580098,45.81385289998434],[-73.34766860821253,45.811103902121914],[-73.35134088474021,45.80914719266547],[-73.35215401497894,45.80820350266195],[-73.35671510191722,45.80567178969221],[-73.3601406130955,45.80439831089409],[-73.3622893890267,45.80426598605794],[-73.36379829368884,45.80277410777363],[-73.36378818413134,45.801649398799476],[-73.3669759827133,45.797343104709064],[-73.36924290816884,45.796086002767524],[-73.37120557915799,45.79284900774397],[-73.37547121590613,45.78927249289026],[-73.37690031496831,45.78863519812026],[-73.37615709917885,45.787356711409714],[-73.3709771924889,45.78592929659744],[-73.36570218496611,45.78673309238641],[-73.36364260258888,45.78746841175138],[-73.36098831596338,45.78943579898154],[-73.35491147884132,45.79168670711213],[-73.35181980195847,45.79350029169505],[-73.35079990590908,45.79489369742815],[-73.34443451866795,45.7988532974991],[-73.34100551210385,45.80135900852049],[-73.33764398435012,45.802686006034044],[-73.3329902041703,45.805873611681655],[-73.32736369740935,45.81138101190538],[-73.32413021727106,45.812626697165676],[-73.32608579246315,45.81271070231616],[-73.32146149416933,45.814260208204374],[-73.31624828327243,45.81871500167787],[-73.31140099528392,45.82129839492796],[-73.306034380868,45.82500560382825],[-73.30407009502339,45.82731469590447],[-73.30023718806366,45.83018739868599],[-73.29902219908824,45.83163400330871],[-73.29275939309443,45.837012487163896],[-73.29243111311612,45.838739493855506],[-73.29108831094385,45.83982580940976],[-73.28792919892746,45.841142604522716],[-73.28620881286189,45.843281011930486],[-73.28528030497978,45.84370210711278]]],[[[-73.48163240966724,45.89637607414493],[-73.48128940449385,45.89390340007466],[-73.48056818550175,45.892949494424315],[-73.4820633897823,45.89165401011488],[-73.48296530647603,45.892023095224125],[-73.4849628134589,45.89125859911162],[-73.48650870347979,45.892383489226376],[-73.49007780234751,45.893553492080606],[-73.48953618577117,45.895722008394195],[-73.48827309970594,45.89706259618475],[-73.48863361371016,45.898493303493815],[-73.48716409132561,45.90003169586156],[-73.48883919303282,45.901057686605384],[-73.49006359710533,45.900652797362],[-73.4914425112181,45.90190370030447],[-73.49350452149602,45.90202069322777],[-73.49273141040072,45.901030994252174],[-73.4956440991961,45.89909659046779],[-73.49777051649038,45.899429504281],[-73.50074749349962,45.900941201971975],[-73.50039958571152,45.899366600451046],[-73.50135574766229,45.89805362901808],[-73.51074230372281,45.891658775693614],[-73.5139327428735,45.88965317426303],[-73.53251306050005,45.876575937061034],[-73.5246977021653,45.87105017594827],[-73.52688678396106,45.87089509057902],[-73.52833011680383,45.869594083251044],[-73.52858721178173,45.871252278601595],[-73.53181926799319,45.87250496542726],[-73.53348088677555,45.87195482790484],[-73.52862293693039,45.86890051005143],[-73.53094000512469,45.867245794939244],[-73.53707321806237,45.87153573093936],[-73.5380143619759,45.87081713560144],[-73.53542557481325,45.868957954184964],[-73.5366906102732,45.86794694143861],[-73.5356291249367,45.86725705106619],[-73.53845551174814,45.866364984594675],[-73.53184623231203,45.861871905809465],[-73.5353795110211,45.86079506403534],[-73.53871248204976,45.84207337807241],[-73.5425162763482,45.84348544875592],[-73.54602601576934,45.84336829829889],[-73.54901837030206,45.84041738113538],[-73.55381306157179,45.837855791716606],[-73.55452548883017,45.83664005530365],[-73.55711264249173,45.83635131314447],[-73.55765755971662,45.83293622798708],[-73.55942036823319,45.82492262192716],[-73.56270351724955,45.82538491815771],[-73.56254284681589,45.82635261465957],[-73.57703761851444,45.82769706127244],[-73.5785701612351,45.82128452843031],[-73.55716453368673,45.817730831471565],[-73.54946725476553,45.816324817555284],[-73.55047603648697,45.793407771452266],[-73.54414308171985,45.793166842148054],[-73.52972877282367,45.793789535278144],[-73.52612015593955,45.79374793349605],[-73.52606076637667,45.77736772181717],[-73.52947950447106,45.75423463184772],[-73.52012082673882,45.74901596419994],[-73.51918957790951,45.74671911526907],[-73.51674149446589,45.74547751748447],[-73.5168011828498,45.74417704754081],[-73.51568130531238,45.743433313573725],[-73.50186918049961,45.73647589694795],[-73.50042397670532,45.729023678676924],[-73.49935458017019,45.72747085873431],[-73.49698708350351,45.7257125967603],[-73.49733434516423,45.721541587164886],[-73.49304038297612,45.718487443371416],[-73.49254771214193,45.720464291907106],[-73.48843891561386,45.71755736492761],[-73.4875553777475,45.71390031312197],[-73.48129540555908,45.71458279504263],[-73.47985941449458,45.714726898753575],[-73.47938449469467,45.713773000470056],[-73.47732989877852,45.712584894671],[-73.47336098598443,45.71242209324429],[-73.47153679063283,45.71311448736317],[-73.46743769270985,45.71606470533295],[-73.46351741114273,45.71988769239931],[-73.46031738180017,45.72194730585565],[-73.45621641339565,45.72567089384021],[-73.45382560068582,45.72708270364818],[-73.45260400986079,45.728422911286145],[-73.45332311117993,45.72885509412048],[-73.4502371034251,45.73160730039876],[-73.44789840416055,45.73195710617513],[-73.44370688770596,45.73465449463299],[-73.44515908561785,45.734538300109186],[-73.4413918109108,45.736884909562846],[-73.44037481497621,45.738621000855275],[-73.4386134032913,45.73938490150164],[-73.43790471049198,45.741220108776666],[-73.43918990903144,45.74105891313151],[-73.44374231537842,45.73790289652377],[-73.44603011100024,45.73740008954528],[-73.43906079364862,45.7416886012937],[-73.43701681627188,45.742245403044436],[-73.43634629894376,45.74418859322635],[-73.43468859963542,45.74403468793164],[-73.43314349557636,45.746571303062495],[-73.43225390325394,45.748919307498],[-73.42932091159749,45.75091509524513],[-73.42571580261406,45.75561869270483],[-73.42466229105284,45.75519509790226],[-73.42499469903784,45.75654499892045],[-73.42187900807194,45.76012419552296],[-73.42059819754375,45.76032920276481],[-73.41969202079761,45.761193396380385],[-73.4202950935,45.7620036939061],[-73.41801708757625,45.7637746029366],[-73.41713931681295,45.766257495198346],[-73.41346979369494,45.76971000056207],[-73.4140387029827,45.76756889831945],[-73.40945569645888,45.7712275908783],[-73.40827019642117,45.772810295284906],[-73.41126828939763,45.77149890750151],[-73.41075230892999,45.772578307486675],[-73.40627351538363,45.77511209034423],[-73.4041096852812,45.77709889805071],[-73.40010160684685,45.78213439193751],[-73.39931115560364,45.78375823943108],[-73.39799868773392,45.78573168915254],[-73.39640210305086,45.7867650054678],[-73.3962844897446,45.787745700447125],[-73.39455720605687,45.789840709592326],[-73.38863218587841,45.794046105214235],[-73.38218048088756,45.79756680388502],[-73.37944831346094,45.79985841085975],[-73.37749709451167,45.80386940842158],[-73.37403810962005,45.80881459232747],[-73.3716538897894,45.81050348575427],[-73.36985709557213,45.814091703016146],[-73.36719569501776,45.81855148723326],[-73.36601020929095,45.819243005735366],[-73.36346791028299,45.82213729319002],[-73.36276039961291,45.82203750456725],[-73.35996191181981,45.824319597653165],[-73.35556829806156,45.82624868913546],[-73.34951300823792,45.828553413966844],[-73.34604810526479,45.82953850723022],[-73.33798700357035,45.830795997603104],[-73.33131408237095,45.8326400025055],[-73.3258487109644,45.835106197475234],[-73.3221962900997,45.83805188885793],[-73.32144580502279,45.83929239399878],[-73.31790928916504,45.842085189654334],[-73.31647389792103,45.84404439559191],[-73.3145509920695,45.84542700839618],[-73.31250308740844,45.84763826510388],[-73.31492182413287,45.849590299138015],[-73.3285219402984,45.86001203187963],[-73.35573618345833,45.87893554594578],[-73.35798293021446,45.88060373715623],[-73.37348778137125,45.89130115860118],[-73.38193193068525,45.897543772272996],[-73.39204338648706,45.90523480277807],[-73.40203293201417,45.912515962366676],[-73.42125848061181,45.926197167716026],[-73.42490540990057,45.92838669014299],[-73.42525629798017,45.92624561278844],[-73.42837951433408,45.92403409464337],[-73.42991705509831,45.924422485447785],[-73.45054191600921,45.93964062991315],[-73.4563700156143,45.94375995588803],[-73.45746045789862,45.93790602940242],[-73.45772944516605,45.93500293541614],[-73.45965969025063,45.92575637021425],[-73.46083896814132,45.91594301041197],[-73.46112427833779,45.91527448792193],[-73.4628014409098,45.90468562228163],[-73.46548449227326,45.90473310542516],[-73.46993189947831,45.90306970689602],[-73.4723951882788,45.89984019507185],[-73.4746248114326,45.899660712946314],[-73.47858181181492,45.89838381509831],[-73.47841450067259,45.897501996796095],[-73.48092760260853,45.89707951383414],[-73.48163240966724,45.89637607414493]]],[[[-73.48227508982933,45.71211788741732],[-73.49022590100921,45.71026519634218],[-73.49509398740751,45.707017203959744],[-73.49071469076797,45.70641410286474],[-73.48880140825977,45.70473119364431],[-73.48765849447783,45.704533111307995],[-73.48498700934941,45.70532459361461],[-73.48082508101469,45.7079605019332],[-73.47855080358453,45.71046149217232],[-73.48002739986441,45.7117664889677],[-73.48227508982933,45.71211788741732]]],[[[-73.45980008974293,45.708755899950326],[-73.46193219128683,45.70862160086704],[-73.46190610362169,45.70927850500578],[-73.46475749078428,45.709081399225255],[-73.46845710712728,45.70780470965956],[-73.47141208412947,45.70582590511544],[-73.47310880717922,45.702820990574715],[-73.47273699158713,45.70163319748767],[-73.46994950691158,45.70304520091797],[-73.46781750850907,45.70337750317723],[-73.46443928707681,45.70460030932212],[-73.46111298732389,45.70473408779481],[-73.46067541526789,45.70597579076763],[-73.45909497995528,45.70708200660055],[-73.45980008974293,45.708755899950326]]],[[[-73.46293151702676,45.712446093736595],[-73.46079801403087,45.7142540018577],[-73.46156818887879,45.71504620812377],[-73.4638811146354,45.71382319871526],[-73.4660272008491,45.7118892002994],[-73.46433220079463,45.71148369646214],[-73.46293151702676,45.712446093736595]]],[[[-73.45942639207607,45.71055540252467],[-73.45801341325831,45.710842703282154],[-73.45554610921297,45.7124435077688],[-73.45355269958962,45.715358101304986],[-73.45394969495253,45.71684290107955],[-73.45797109259703,45.71573780097797],[-73.46185311163036,45.711761990703465],[-73.46238028286966,45.71066430311624],[-73.45942639207607,45.71055540252467]]],[[[-73.45269991192376,45.721431498617086],[-73.45008999943613,45.72376978885767],[-73.45023060539441,45.72459770578473],[-73.45271179851576,45.72245730238896],[-73.45269991192376,45.721431498617086]]],[[[-73.45231710675952,45.71830900613312],[-73.45018409290424,45.71894698706089],[-73.44684039473184,45.72307549117522],[-73.4446425856398,45.72401929317936],[-73.44411440232217,45.72559370658841],[-73.44570661012224,45.72645829512159],[-73.44755750329136,45.72555039306173],[-73.44866401416846,45.72378720039863],[-73.4497693910079,45.723148787323886],[-73.45154420307132,45.72095409407214],[-73.45417939540994,45.71875958922848],[-73.45231710675952,45.71830900613312]]],[[[-73.42916991744536,45.73819169281149],[-73.42789551143359,45.739999512042246],[-73.42878219234005,45.73995511000216],[-73.42916991744536,45.73819169281149]]]]},"properties":null}
]}