{"type":"FeatureCollection", "features": [
{"type":"Feature","geometry":{"type":"Polygon","coordinates":[[[-73.57253269256151,45.59768886305257],[-73.57392829152445,45.59639464223887],[-73.5781621151494,45.59347776615604],[-73.5749182187876,45.592032049231584],[-73.5713012365572,45.59123046062306],[-73.56922995928751,45.58880817739313],[-73.56889202432929,45.58741492081022],[-73.57333973558593,45.58170770967291],[-73.5739922148601,45.58192516665389],[-73.5767240561897,45.579308537749256],[-73.57530429751051,45.57881165736079],[-73.5772412401393,45.576553840400464],[-73.5790699347537,45.57558480195324],[-73.58715033837571,45.56641527167165],[-73.58628991710624,45.56614914476748],[-73.5872841677305,45.565009505742914],[-73.59393597894757,45.55740578422972],[-73.5984683337437,45.55218807938964],[-73.60244432233337,45.54750990633307],[-73.60651941038277,45.543056051658255],[-73.61005849474735,45.54463277690295],[-73.61130880986526,45.54323397737369],[-73.61265243091869,45.54168539939026],[-73.61443338092474,45.53829875538519],[-73.61724730626027,45.53529131776438],[-73.61819997982846,45.53479000502884],[-73.62148316577753,45.53109857918702],[-73.61908467145689,45.53069671829694],[-73.61058189764717,45.52936795240697],[-73.60776292183265,45.528478113355234],[-73.60450850386185,45.52833065095845],[-73.59971118065823,45.528686145673774],[-73.59619667125628,45.53005086402465],[-73.59471736827993,45.531078245077694],[-73.58895753485317,45.535997166589695],[-73.58624876753957,45.53836555188112],[-73.58371649017504,45.54010664955635],[-73.57955178955508,45.54140505301036],[-73.57428063155068,45.54135720438481],[-73.57365459991941,45.541130872551605],[-73.57349588005899,45.54127851241699],[-73.5614527468825,45.54007890018839],[-73.56177256734603,45.54323382945153],[-73.55964022479279,45.547018643604304],[-73.55646422826067,45.552248258627536],[-73.55484615572675,45.55174065283745],[-73.55446971744072,45.55463813646544],[-73.57373563399916,45.56079753229422],[-73.56615717499895,45.569256689520365],[-73.55430571119571,45.56537577000915],[-73.55262648081033,45.567921250557916],[-73.55088306399635,45.57051838826819],[-73.5575640310151,45.5726713129708],[-73.55929126442435,45.57011410338611],[-73.55949646494275,45.57150683512032],[-73.56071165797995,45.57193191087874],[-73.5599075551669,45.57346779342169],[-73.56258784562822,45.574437272224074],[-73.55889244573743,45.580175067698725],[-73.5613741784031,45.581022059388225],[-73.56097681726807,45.58161666235777],[-73.56312757315689,45.58237658506884],[-73.56194890932886,45.58414939714202],[-73.5628048781006,45.584442975584956],[-73.56521543557986,45.580424002690116],[-73.56778779981691,45.58146474654833],[-73.56496604520355,45.583585904196525],[-73.56560656599463,45.58419335920628],[-73.56414916245646,45.58529634348611],[-73.56438655607013,45.58738814882876],[-73.5663433637981,45.588388168758655],[-73.56760259565816,45.59043134431588],[-73.56985095803209,45.59670774897963],[-73.57253269256151,45.59768886305257]]]},"properties":null}
]}