{"type":"FeatureCollection", "features": [
{"type":"Feature","geometry":{"type":"MultiPolygon","coordinates":[[[[-73.5614527468825,45.54007890018839],[-73.57349588005899,45.54127851241699],[-73.57365459991941,45.541130872551605],[-73.57428063155068,45.54135720438481],[-73.57955178955508,45.54140505301036],[-73.58371649017504,45.54010664955635],[-73.58624876753957,45.53836555188112],[-73.58895753485317,45.535997166589695],[-73.59471736827993,45.531078245077694],[-73.59619667125628,45.53005086402465],[-73.59971118065823,45.528686145673774],[-73.60450850386185,45.52833065095845],[-73.6067710906362,45.52828115057789],[-73.61125006473853,45.526256725667096],[-73.61020493815505,45.52575295117696],[-73.6088326662182,45.52701115916916],[-73.60437502386488,45.524951947603654],[-73.60490617791717,45.52437539408056],[-73.59718888145926,45.52094472936806],[-73.59641487910984,45.52178829485307],[-73.59330497468278,45.520416839314315],[-73.59360739673734,45.51970087373517],[-73.58864131687089,45.517525300694246],[-73.58931968507444,45.516764355392944],[-73.59081196735777,45.51508810745965],[-73.59238641687364,45.51459934137588],[-73.59755685554701,45.51447614743525],[-73.59919428118815,45.51300219061844],[-73.59748683277056,45.513249505526474],[-73.59621893746453,45.51107211435994],[-73.59360691582151,45.510619499574744],[-73.59416681216481,45.509758966253635],[-73.59166468276625,45.508221531172026],[-73.59507060500513,45.503651579909594],[-73.5958883563011,45.50240415967906],[-73.5986547522352,45.50108699569454],[-73.60450523290994,45.49575457923682],[-73.60649756166659,45.495377723242946],[-73.60810236124107,45.49356566179189],[-73.60923784467484,45.49404360271011],[-73.61144028448676,45.49164804269858],[-73.61481888181417,45.49301688449787],[-73.6179941169934,45.489414368782086],[-73.61840919355211,45.488229011040275],[-73.61531861463882,45.48680208826335],[-73.61720108943842,45.48478517532391],[-73.61240627524643,45.48270167703644],[-73.61407198876495,45.48046333548842],[-73.6125430723045,45.47976630726913],[-73.60594342501234,45.47681876657118],[-73.60627290318067,45.47635571194931],[-73.60322226385782,45.47499944529589],[-73.60221763571283,45.47587043460906],[-73.5973624993446,45.47379161737936],[-73.59576542930391,45.47484870714292],[-73.59382882804354,45.477359988140556],[-73.58611803061,45.48271923650433],[-73.58512428772089,45.48223249778234],[-73.58059332202647,45.485632878829506],[-73.58111137262742,45.486310728812434],[-73.57760928546031,45.488722118098806],[-73.57256273286794,45.49266225743221],[-73.57228394343093,45.4925338171355],[-73.56516135601599,45.48913831837691],[-73.5618046443206,45.48815037407699],[-73.55710119839033,45.49069249647028],[-73.55633698727846,45.49299950222788],[-73.55350982769667,45.492832480707],[-73.55307081749297,45.49309790266209],[-73.55196228821337,45.49814659006314],[-73.55277198567062,45.501970606837816],[-73.54826800200857,45.50229648837055],[-73.54801279372826,45.50325040333183],[-73.55279838879463,45.50289728842639],[-73.55244148438649,45.50436429835826],[-73.54750219116673,45.50467239052531],[-73.54728538459538,45.50559929304198],[-73.55213530025182,45.50528229708404],[-73.5512407098213,45.506749402671865],[-73.54682580124584,45.50694029532384],[-73.54558878918267,45.51237579165247],[-73.54626761391106,45.51284350717093],[-73.5478779134652,45.510152296068384],[-73.54922168241485,45.510133708398584],[-73.54632708672713,45.515409453123674],[-73.54509913003784,45.51919678122948],[-73.54504489241451,45.52024059939837],[-73.54246551736611,45.52867309923767],[-73.54097048554124,45.5327140052114],[-73.54124176879078,45.53283248783507],[-73.54417555624742,45.53354393165352],[-73.54754687713321,45.53775344307494],[-73.54946875463013,45.538889736199714],[-73.5614527468825,45.54007890018839]]],[[[-73.5519597039685,45.49533000037601],[-73.55092729127178,45.4997127970762],[-73.55168158991606,45.499046487022156],[-73.5519597039685,45.49533000037601]]],[[[-73.53906633571388,45.48826163219667],[-73.54105549353412,45.49111421052204],[-73.54287780160026,45.498573192692064],[-73.54278238808465,45.50772470661316],[-73.54330730171598,45.50788640378074],[-73.54439171607746,45.503593894030615],[-73.54543390424325,45.49476590113661],[-73.54657259768797,45.494828492482355],[-73.54598821108874,45.499903803187316],[-73.54793339861618,45.50004699934484],[-73.54891139037451,45.49165108525567],[-73.54999891653925,45.49171350012679],[-73.54930168883658,45.49914660278105],[-73.55054340774477,45.49967689560422],[-73.55088629279922,45.49676130871901],[-73.55165251156092,45.49521321389469],[-73.55225358061996,45.49500600422646],[-73.55292927991302,45.4923151059746],[-73.55224894280842,45.49137871637325],[-73.55064563235771,45.49045854591928],[-73.5409991369309,45.48850762424807],[-73.53906633571388,45.48826163219667]]],[[[-73.526840417931,45.50754383934412],[-73.52575009869625,45.51043841241443],[-73.52699191463734,45.511202894598775],[-73.52860180260258,45.50614539216164],[-73.52863970121476,45.505137606776806],[-73.5272576048885,45.50514688803721],[-73.526840417931,45.50754383934412]]],[[[-73.5185198130903,45.49696002883631],[-73.52123000856375,45.50455430754062],[-73.52770279348431,45.5255101986376],[-73.5280740180485,45.525375094785566],[-73.52708671125488,45.522154006468206],[-73.52905780778309,45.52169458890904],[-73.52814479085636,45.513407298131085],[-73.52823339587394,45.51155360466367],[-73.52963949452321,45.50817881149426],[-73.53020140413413,45.505902103240494],[-73.52946998804349,45.502032890432375],[-73.52830460078721,45.50034150525765],[-73.5258468064036,45.4981015067988],[-73.52361978721234,45.49688719017663],[-73.5198833414008,45.49573984696955],[-73.5185198130903,45.49696002883631]],[[-73.52525119024313,45.51118529346984],[-73.52699460726764,45.517051909950204],[-73.52574031243714,45.51724120261067],[-73.51994810022713,45.49804870147455],[-73.52129151016292,45.49785950330734],[-73.52525119024313,45.51118529346984]],[[-73.52373651310879,45.50029759049796],[-73.52358219308208,45.498488901137016],[-73.52562989844267,45.499334302507094],[-73.52602740266647,45.50147588833597],[-73.52712838401669,45.502339505997526],[-73.52730840881274,45.50420210351477],[-73.52881840939406,45.50420169556799],[-73.52871710900082,45.50637929608641],[-73.52708149620484,45.511391892601075],[-73.52563490169902,45.51043840186489],[-73.52697668568068,45.50640679413694],[-73.52696229696286,45.50279838894617],[-73.52600261624904,45.50302359607063],[-73.52536368555332,45.505066408554846],[-73.52404549350325,45.50498570264186],[-73.52373651310879,45.50029759049796]]],[[[-73.53512879069615,45.52719990847742],[-73.53571810621445,45.527811614350234],[-73.53416961125193,45.52875679967026],[-73.53215970600168,45.52897341301184],[-73.53269870703882,45.531249903487605],[-73.53410711606388,45.5314024945265],[-73.53694732213413,45.52818009230132],[-73.53867380444694,45.52560601351387],[-73.53950371022653,45.52235729984939],[-73.538285399841,45.519127290537],[-73.53849918831465,45.51357520960463],[-73.5373834989778,45.510255210741775],[-73.53546198639461,45.507421291130406],[-73.53401518250087,45.5062968969434],[-73.53262061097503,45.50674720503854],[-73.53071629341532,45.51152590082271],[-73.52992468376168,45.51505350189001],[-73.53120708316017,45.51952539968357],[-73.53185050709325,45.52559910342517],[-73.53383500529355,45.52605749783627],[-73.53512879069615,45.52719990847742]]]]},"properties":null}
]}