{"type":"FeatureCollection", "features": [
{"type":"Feature","geometry":{"type":"MultiPolygon","coordinates":[[[[-73.90882678195119,45.53110785168845],[-73.90438559130355,45.5318615895512],[-73.90086530020386,45.530146207677326],[-73.89512370711923,45.53112009565634],[-73.89195730206129,45.5305100882037],[-73.8902341835488,45.53128079519473],[-73.88763620206856,45.53328729974534],[-73.88532108341538,45.533646098901336],[-73.88352138970784,45.53446208862723],[-73.88177991294674,45.53632150034997],[-73.88468641112286,45.53819250166735],[-73.88492590143089,45.53952340118562],[-73.88643581376346,45.54122799443981],[-73.88957208564578,45.54293599534292],[-73.89040360785894,45.54467889161377],[-73.89078681355736,45.5482230093728],[-73.89018780427132,45.552346213637854],[-73.88885150450908,45.55359259469746],[-73.8865344435675,45.55976091650377],[-73.88611021484606,45.56101649663368],[-73.88425071240772,45.562579403189936],[-73.87676999847865,45.5645391112524],[-73.87585730573711,45.564092110816816],[-73.87488040853653,45.56550809045767],[-73.87037569690665,45.56816828911316],[-73.86872531363204,45.5685245021507],[-73.86758151088108,45.56797929240643],[-73.86606080993985,45.568560111884885],[-73.86625370284001,45.57064708876063],[-73.86463699288204,45.572254009198915],[-73.86086869168503,45.57402059837292],[-73.85912409609631,45.57368419279514],[-73.85653409962016,45.575428987886966],[-73.85563710043253,45.577429392561605],[-73.8569932892404,45.579134904230386],[-73.85651138968215,45.5799372026805],[-73.85381449760507,45.58101639242422],[-73.85378240520058,45.582051309500144],[-73.84989380887622,45.581100392164494],[-73.84657960565907,45.581875413952716],[-73.8441076872591,45.58207190860434],[-73.84352268478312,45.582811402097875],[-73.84075599330835,45.58301779149576],[-73.84778213422601,45.58918059317297],[-73.84962567514232,45.58769060312228],[-73.85299362485965,45.5900517863814],[-73.85358516640521,45.58978781863991],[-73.86493223942946,45.596775927537465],[-73.86946775221674,45.599206371709904],[-73.8704393167325,45.59851894484763],[-73.8737955664098,45.597592323625854],[-73.87977568144258,45.60174295590069],[-73.87972717640847,45.60625681301339],[-73.88933001884149,45.6125904240888],[-73.89690583751197,45.617407476007024],[-73.89591355222234,45.606488175828645],[-73.89821100746158,45.60649377741652],[-73.89830004141362,45.60712038654967],[-73.90034964968437,45.60708113344717],[-73.90070260870489,45.610269804474335],[-73.90302517017254,45.61031059407466],[-73.90310455975926,45.61150071903233],[-73.90501100267922,45.61147295321375],[-73.90522914795447,45.6129008405017],[-73.91416541470551,45.60587104104404],[-73.91656349767365,45.60578164027985],[-73.93287496141821,45.6165568984249],[-73.93293551732448,45.619932505790125],[-73.93735696685133,45.61958112318526],[-73.9374136501072,45.6191886978537],[-73.94414743892625,45.61865364448268],[-73.94434232558095,45.621721673671004],[-73.9511607342075,45.61653157431021],[-73.95060511853052,45.60241549755163],[-73.95294941942183,45.60539369580606],[-73.95644339839929,45.6046687917475],[-73.95960969419012,45.60622189451135],[-73.9610045385032,45.60613520469347],[-73.96095496854223,45.60513702869856],[-73.98104508827491,45.60204898330269],[-73.98284053422559,45.5998804499153],[-73.97797980105118,45.5815398978064],[-73.97930458781858,45.5805978257734],[-73.98764540673506,45.57235841261636],[-73.98746510918062,45.57337058882662],[-73.98847900573102,45.57504000411145],[-73.99185511089861,45.57723900614799],[-73.99313788887606,45.57740450111297],[-73.99534781604187,45.57662109576065],[-73.99884090004767,45.57607500270714],[-73.99865341004889,45.57803751412541],[-74.00316971356285,45.57727079570709],[-74.00409549729721,45.57907540974921],[-74.00626959945234,45.57860679129157],[-74.00759439580509,45.57914990669181],[-74.01134030165541,45.57962799717145],[-74.01193008402386,45.57824869843931],[-74.00969330522675,45.577439796591165],[-74.00989219738591,45.57677308774296],[-74.01219181043406,45.57602490315716],[-74.01507541405364,45.57609290526841],[-74.02039320135313,45.577517512389356],[-74.02581786096816,45.567481810340276],[-74.02909533985368,45.567787113142806],[-74.03014419428548,45.56707089714696],[-74.03299009388658,45.56779189738039],[-74.03344149113269,45.567007538470435],[-74.0356370797094,45.56742107572254],[-74.03522256459583,45.56818798556692],[-74.04514332235868,45.56094177226922],[-74.04606106274669,45.56160325198235],[-74.0470244548916,45.560954499760506],[-74.04903065091335,45.562398649750726],[-74.0807122791792,45.54120509070383],[-74.08401919456935,45.539031043294315],[-74.06748355441695,45.52653492217461],[-74.07402580623162,45.52193938440332],[-74.09121344983564,45.534577227910695],[-74.11355005050666,45.51821296118804],[-74.11480078338442,45.5191664531634],[-74.12102697158882,45.51474454958602],[-74.13183709404362,45.52262633532866],[-74.13636030656416,45.52622654062039],[-74.12324769075644,45.53499198948307],[-74.1390795552916,45.54651882983184],[-74.14514968508406,45.551170644401125],[-74.14841232845538,45.548943076338084],[-74.15867094182906,45.556347124213154],[-74.17503259658625,45.56841468206461],[-74.18172179398867,45.57277874179115],[-74.18684540035716,45.5764955119659],[-74.19117426537349,45.57927341995149],[-74.19918028004949,45.57408859773473],[-74.21366404634897,45.56439887581767],[-74.23813473288725,45.54874176538343],[-74.24141656770027,45.54930023638757],[-74.2381476184459,45.56589107559529],[-74.2359461660426,45.57416278421145],[-74.23487915713017,45.57634333103293],[-74.23100483333768,45.59154817201991],[-74.22948128555956,45.60052485329723],[-74.2525849499904,45.60228334982364],[-74.27482446518172,45.604737999111705],[-74.27920147517275,45.605353324034084],[-74.28001594960192,45.60433916712878],[-74.2819780934597,45.60472995626101],[-74.28782689498892,45.61656247614527],[-74.29056340079225,45.61754840776789],[-74.29469129845933,45.61838359517596],[-74.29752529527157,45.618390797286786],[-74.30022280779507,45.61782310072569],[-74.30125521344645,45.61828379558769],[-74.30688955917385,45.61929884953663],[-74.31048979372234,45.62580814818357],[-74.31680018545163,45.62195578526256],[-74.32651928816622,45.619621208403764],[-74.33291060097896,45.61791403108448],[-74.34407350504824,45.61939095099746],[-74.34949227100515,45.6197246440053],[-74.36100362251378,45.6213207271321],[-74.35864252756897,45.62608078854092],[-74.36876626784358,45.62758205046796],[-74.37104826952898,45.62467208010462],[-74.37414773446483,45.62226842036258],[-74.37435082389392,45.62043616480134],[-74.3712466924828,45.61699577961573],[-74.37087011215164,45.61600202066859],[-74.37180077612064,45.61477349665933],[-74.37483909701608,45.614124059441565],[-74.37719361702172,45.612309364872594],[-74.38128063256619,45.61010572426722],[-74.38362446438173,45.60584555391937],[-74.3877701366221,45.601802442086],[-74.38829246744848,45.5998346387972],[-74.38582320062729,45.59572073250682],[-74.38600903975808,45.59441299963184],[-74.38905591728589,45.59478735904727],[-74.39048364228883,45.59416685233604],[-74.39097680608694,45.592817828399006],[-74.39041855288174,45.5914309239854],[-74.39085078352602,45.58818079909875],[-74.38937441020747,45.58708872169512],[-74.38456211262657,45.58564250634938],[-74.38455763827896,45.58375254074537],[-74.38688975961058,45.582018903153674],[-74.38526754245318,45.58038604986758],[-74.38991543769941,45.57956900909965],[-74.3930709461443,45.57805720425363],[-74.39738329539875,45.57054461546434],[-74.39147130050425,45.569369106625494],[-74.3840553649729,45.56714922274139],[-74.38151849157524,45.569524704768966],[-74.38061211918611,45.56972959651772],[-74.37948091762016,45.5678485955976],[-74.37657961185522,45.56581940591937],[-74.37562699147382,45.56634849942244],[-74.37451871476232,45.56509719269583],[-74.37134421417143,45.56443770397932],[-74.3647093845171,45.56033080870623],[-74.36250279210134,45.55843089116258],[-74.35861210369818,45.5561295956572],[-74.35532990501626,45.5533826967985],[-74.35346160390768,45.55264980802603],[-74.35127460202567,45.54946280252636],[-74.35032850572226,45.54703120682195],[-74.35130139377307,45.5461511074298],[-74.35019060122914,45.541273310834654],[-74.34636388294463,45.53458889766037],[-74.34537409984479,45.531761812745565],[-74.34252771372249,45.52805740178743],[-74.33925739326092,45.52508509615001],[-74.33858530922805,45.52724061168696],[-74.33732539647329,45.52688990117987],[-74.33806078900741,45.52381600760412],[-74.3373048878664,45.52118510817871],[-74.3354012076174,45.517104691018474],[-74.33563529481988,45.51562729463065],[-74.33485231465617,45.51374329324004],[-74.33292798891483,45.5125785892075],[-74.32964531393031,45.511279699970196],[-74.32468179622323,45.50968699532418],[-74.320946903484,45.50894899753333],[-74.3179488878904,45.50872750627646],[-74.31379591286932,45.50916209149195],[-74.31002988990423,45.51070959450126],[-74.30689958594022,45.512873397881826],[-74.30576501333964,45.51408720579781],[-74.30098980271349,45.51580340485243],[-74.29873091142939,45.517178108940215],[-74.30628189816437,45.51532528851427],[-74.31360350757508,45.512690902803485],[-74.31637799166995,45.51249109745647],[-74.32747259350108,45.5149758118303],[-74.32984449794984,45.51699230994577],[-74.3307811870392,45.518893109926736],[-74.329091606902,45.522378698136386],[-74.32662678454128,45.52365640281051],[-74.3216879822188,45.52381799886658],[-74.32239368484181,45.52481180630488],[-74.32146509261504,45.528741691972435],[-74.322671401311,45.529812905854186],[-74.32212758644313,45.531148609089655],[-74.3184658112606,45.532902496273515],[-74.31453799714997,45.53310159007662],[-74.31010800144657,45.5322063068304],[-74.30735448793048,45.53215370273596],[-74.30631750972265,45.53126120187069],[-74.30573660207999,45.529132695033354],[-74.30745969176313,45.528769710298896],[-74.31048119731955,45.52609369908519],[-74.30979508735791,45.525567687274915],[-74.30737951015688,45.52584570572729],[-74.30442521520459,45.52424690866881],[-74.30080670591803,45.52275159894874],[-74.29709238492896,45.522606503664164],[-74.29278579898812,45.52313139223496],[-74.29224218864893,45.52453000127444],[-74.28971509793813,45.52598720376466],[-74.2873193175644,45.52677759109927],[-74.28244880519372,45.52727900377537],[-74.2736825952298,45.52751869782175],[-74.27312509347375,45.527936406967974],[-74.26578888155595,45.52978550388154],[-74.26277089125067,45.53003958523401],[-74.2584795184926,45.531759895806196],[-74.2539310057787,45.53245589765384],[-74.25208681502835,45.532414092959336],[-74.25068790628123,45.53120850799251],[-74.24839081641343,45.53080060386804],[-74.24717730154775,45.530043687232656],[-74.24666150131176,45.530730988802645],[-74.24330891417264,45.52891710279436],[-74.23990728524245,45.5301899957988],[-74.23610250965183,45.530007590026926],[-74.23528539078833,45.5292029875666],[-74.2334729908113,45.52962860100807],[-74.23247348785111,45.52857319726687],[-74.2329756853598,45.52781409460359],[-74.22801738905945,45.5275128946956],[-74.22733338891581,45.52609550545087],[-74.2282398115525,45.52490200420486],[-74.22415521105123,45.524829005672245],[-74.21835240523886,45.52554039486664],[-74.21719888626754,45.525439692177876],[-74.21356141034929,45.526308295739476],[-74.21129191464053,45.52601651022055],[-74.21052308690166,45.524950492773606],[-74.20784368388729,45.52465219604898],[-74.20075351216919,45.525820795792136],[-74.19727129579675,45.526840800570085],[-74.19217231811446,45.52653889532961],[-74.18935861272583,45.52779770318627],[-74.18574869010975,45.52888130540259],[-74.18373399353064,45.52849739080925],[-74.18147308882457,45.52891590113814],[-74.17931489494532,45.52829889338072],[-74.17683091791834,45.52613589670234],[-74.17442910881273,45.523342696016506],[-74.17231110496486,45.519629810327515],[-74.17089731893584,45.51591279255476],[-74.169649095316,45.511033894348294],[-74.16915003903186,45.50430246686146],[-74.16922109105039,45.50191209376577],[-74.17059160716785,45.500950087875566],[-74.17095239683687,45.499004406366765],[-74.1721846035427,45.49825031153495],[-74.17311148377577,45.49657109704617],[-74.1722716935914,45.49589220246972],[-74.16936220654704,45.49654808889688],[-74.16597488122947,45.4957491089122],[-74.1626341977616,45.496740298872325],[-74.16015448947257,45.49696169105042],[-74.15828181716118,45.497656397391395],[-74.15398889283576,45.49599831014993],[-74.15284442110182,45.49660779225338],[-74.1487698995685,45.49722478813434],[-74.14442389564805,45.49536870621715],[-74.14184498238,45.49361059901575],[-74.13991140190427,45.49346850047184],[-74.13784851097924,45.49206731287112],[-74.13595929236642,45.492455698896116],[-74.13279331382617,45.49079060272478],[-74.13199790897707,45.48830249614536],[-74.13188989614318,45.4855045026053],[-74.1328395963721,45.4835016089566],[-74.13516300228669,45.48307480523704],[-74.13628869704509,45.481934688611375],[-74.13214429380173,45.47966310228836],[-74.13265758884016,45.47867039462751],[-74.12997240231476,45.47415899100993],[-74.12727021679346,45.47153730241529],[-74.12334148759946,45.468994287361184],[-74.11615491695629,45.465550803419504],[-74.11508250727057,45.465718597016014],[-74.10943260502567,45.46475901248932],[-74.10444019276095,45.463075909075116],[-74.10252460688336,45.46211419019585],[-74.09723688841122,45.46150298837887],[-74.09548869683861,45.46063030178175],[-74.08880379834102,45.45842430935722],[-74.08721220807944,45.46031319114308],[-74.08181688474667,45.46161859876397],[-74.07301229265316,45.46471361114699],[-74.07219171450312,45.46450180341871],[-74.0697463143019,45.46549480805099],[-74.06567287980072,45.464804208809376],[-74.06446161392797,45.46643889484292],[-74.06275409129508,45.4670592095755],[-74.06099621013793,45.466464995051545],[-74.06179118913283,45.46539019412135],[-74.05681599405429,45.460123492198534],[-74.05371570685011,45.45822191008508],[-74.04942418138262,45.458710501613595],[-74.04847790872778,45.460019898722265],[-74.04551888788602,45.46212170840897],[-74.04349290033278,45.46287820260561],[-74.03735910582034,45.46600269433693],[-74.03441348836034,45.466907293319665],[-74.02931070350165,45.466886210100675],[-74.02570840490743,45.468693505394086],[-74.02263291247584,45.46940051041785],[-74.02080000561584,45.47034470659805],[-74.0184769845105,45.47085910432416],[-74.01745140598777,45.471988691198355],[-74.01450289621548,45.47403560233726],[-74.01180092000844,45.47508259353292],[-74.00809559080218,45.47551308657723],[-74.00250349792948,45.478075292075445],[-73.99999409432102,45.477807505849995],[-73.9961835888483,45.47794098776235],[-73.99190349639795,45.477023700102144],[-73.98919428694761,45.47879009871343],[-73.98682088168033,45.47945700162437],[-73.98551421933817,45.480704397677485],[-73.98579069163827,45.483114804788904],[-73.98732861324251,45.48196551359341],[-73.98892420282297,45.48158070105036],[-73.99765659312844,45.481084103782585],[-73.99989809616247,45.48142519725954],[-74.00000000872804,45.48255001153562],[-73.99817840645703,45.48222460770712],[-73.99436540588087,45.48358188879509],[-73.99471648680648,45.48423728745552],[-73.9923138860416,45.48449960968123],[-73.99105720848077,45.48562989665037],[-73.98580828889878,45.48516640619995],[-73.98298990565276,45.486195200168275],[-73.98190979804279,45.48703659382092],[-73.97938331838719,45.48781210055045],[-73.97723569160101,45.48951280864497],[-73.9709886893209,45.492139308301844],[-73.97083050911368,45.49310279196648],[-73.96893828785115,45.4948202882223],[-73.96385909998085,45.49641568676217],[-73.96317339613701,45.497057289912995],[-73.95963660964756,45.497962594505466],[-73.95815829034217,45.498715310702536],[-73.9593988019159,45.500204104634946],[-73.95952601577831,45.50167930159108],[-73.95834550442393,45.50284490932018],[-73.95759330925387,45.504773502263795],[-73.9559200970663,45.50675990558245],[-73.95436561155475,45.507611912460206],[-73.95258900497716,45.50949071208185],[-73.9532786889873,45.510900700346234],[-73.95287820840011,45.512027101417885],[-73.95126381107748,45.513401311122145],[-73.95018528936247,45.51299150112404],[-73.94870911940565,45.514059191115656],[-73.95108911724257,45.51557049258488],[-73.95004911667336,45.51676239404327],[-73.94604409337833,45.518559786331714],[-73.94147101517221,45.51974729360512],[-73.93716209332695,45.520366798191944],[-73.93266571667733,45.51991599662469],[-73.9302497006529,45.52034809079033],[-73.92978150352918,45.52106971080409],[-73.92445109727201,45.52205250592028],[-73.92305469201406,45.52362338711636],[-73.92163908337098,45.5243214987645],[-73.91958649628123,45.527172593991864],[-73.91813601367292,45.52838370748743],[-73.91175399174341,45.53101639665659],[-73.90882678195119,45.53110785168845]]],[[[-73.76103527668442,45.71419317955809],[-73.75568843048791,45.71711445217645],[-73.7586011291477,45.7263164809727],[-73.75889076734745,45.72848517069184],[-73.75754561517438,45.729719408121504],[-73.75197537940147,45.73068191092924],[-73.75094648918216,45.73275456632449],[-73.74957954388077,45.73291138799815],[-73.74533549097472,45.73238940251198],[-73.74626985700405,45.73584704581432],[-73.74750494624624,45.73853113776816],[-73.75046075414086,45.750095540986514],[-73.7306997492503,45.75431883562885],[-73.74763544983584,45.766123791363675],[-73.77642031906778,45.78533661199396],[-73.7849066991366,45.79022362927617],[-73.79386514454603,45.796610495200056],[-73.80749391401787,45.805697710859015],[-73.82402252769342,45.81691513098856],[-73.84735266618982,45.81246496593184],[-73.8686810444757,45.808588024595714],[-73.86022588108763,45.80228810329187],[-73.91202087137759,45.766051306920126],[-73.89006978488625,45.751212629589325],[-73.88553771299763,45.74791147619875],[-73.8665024269503,45.734977482280186],[-73.86078478551693,45.731595960529816],[-73.85762161527745,45.72908179305106],[-73.84646376154663,45.72176232759548],[-73.84200883385854,45.72182582995768],[-73.83923250743541,45.722694752575165],[-73.83619417095896,45.72243366699892],[-73.83524390011594,45.72172715793798],[-73.830595219076,45.72129102568395],[-73.82029750115761,45.72000863494939],[-73.81742529129707,45.71952446154719],[-73.81303268386002,45.71970357203068],[-73.80990758327984,45.7194750925533],[-73.80168448803983,45.7195371962262],[-73.79753421840438,45.7164042165102],[-73.79394275312175,45.717371221425495],[-73.7925444455152,45.71580890723544],[-73.78832420535471,45.71537080830047],[-73.78610878773907,45.71576824306976],[-73.77959336646526,45.71435351992793],[-73.77101325866553,45.712858476286996],[-73.76476237694314,45.71277836362565],[-73.76103527668442,45.71419317955809]]],[[[-74.29095969459476,45.51979670158661],[-74.28940311601283,45.52015839169454],[-74.28571730943199,45.522046507745216],[-74.29037141718341,45.52074549914306],[-74.29420108739474,45.52000819648264],[-74.29668018841917,45.518803098556255],[-74.2964759854014,45.517931701728564],[-74.29253628635169,45.51903888905317],[-74.29095969459476,45.51979670158661]]],[[[-74.26121187918905,45.52076360539515],[-74.26650370189328,45.521142199910834],[-74.26996811546668,45.52174880279706],[-74.27373629619524,45.521156402437896],[-74.27394841508763,45.52075910946024],[-74.27964659499068,45.51997349722659],[-74.28277100565103,45.51913319721058],[-74.28453579082114,45.517168395806685],[-74.2871887153419,45.51649330248209],[-74.29310458695377,45.51393279636655],[-74.29756109874549,45.51319990780781],[-74.29881400430723,45.51219239478806],[-74.30534240567692,45.50958199933017],[-74.30580098487852,45.5076439987977],[-74.30366650370547,45.50783010570469],[-74.29818339923898,45.50741849142541],[-74.29345071427804,45.507595506609476],[-74.29109800506764,45.50865559006194],[-74.28913769806438,45.50849819364423],[-74.28054999745078,45.510320902010136],[-74.27649520211678,45.510483598150884],[-74.27085429316976,45.509774903665026],[-74.26775650591816,45.50972370236521],[-74.25963350135147,45.510002987348855],[-74.25577519910958,45.51050560142491],[-74.2533792092166,45.51030539300902],[-74.25081090103822,45.51061930572391],[-74.24734411027782,45.51170379469136],[-74.25177100772574,45.51160279575677],[-74.25467969443179,45.51185350237949],[-74.25608210284742,45.51336499587596],[-74.25900821585087,45.51204979638106],[-74.26418371403024,45.51146639439902],[-74.26354509250861,45.51345041064922],[-74.26469489011568,45.51235390423311],[-74.2668438085047,45.512258511769275],[-74.27152939385607,45.51048120260729],[-74.2713354044364,45.512210306395616],[-74.26821588603022,45.513392096522175],[-74.26923519246473,45.51398810004178],[-74.26308400940738,45.5181596053464],[-74.25997240481604,45.51902619568025],[-74.25777880288038,45.51866288982118],[-74.25295708446241,45.51704809545253],[-74.25137119269544,45.51617660686753],[-74.25261588418708,45.518328009817964],[-74.25669159303392,45.5196779055505],[-74.2588450039081,45.51990649916654],[-74.26121187918905,45.52076360539515]]],[[[-74.20391180364956,45.70507608970981],[-74.19875929197562,45.726943042243946],[-74.19506322718287,45.750083918370166],[-74.19417857708072,45.75372578285911],[-74.18829412154147,45.774883974992825],[-74.18547825492087,45.78434878579784],[-74.18436004320723,45.785779153853206],[-74.18404518769914,45.78943593851312],[-74.18339262410737,45.791653587704076],[-74.23275954518462,45.80436282497103],[-74.23941470387395,45.80592835289454],[-74.25585675236701,45.8102036099081],[-74.27707847850881,45.81562084965284],[-74.3004455361627,45.82183574826462],[-74.31011949487959,45.82405338131652],[-74.31069955582586,45.818103681054374],[-74.31377891529446,45.79308154182312],[-74.32112907350968,45.76420708120412],[-74.32718088055222,45.74133775424082],[-74.32796910175009,45.7387860112947],[-74.31417203406767,45.73541175277968],[-74.28858706160091,45.72844385570259],[-74.28105319735106,45.72630488006701],[-74.27548384736149,45.72496765131663],[-74.27464326367668,45.72353414269706],[-74.20391180364956,45.70507608970981]]],[[[-74.70853984816056,45.93180182963734],[-74.7062179941959,45.94711303402852],[-74.69821608529968,45.971781128675154],[-74.70577797276341,45.97223080066205],[-74.71213053643783,45.97200505330051],[-74.71941577582695,45.97245203009761],[-74.74978236841093,45.97289210990318],[-74.7634046456526,45.972956328473245],[-74.76417375896553,45.945355464457634],[-74.78210200743176,45.944619390114305],[-74.8021806816694,45.944102052049644],[-74.80090658784754,45.95889694957936],[-74.80760971108921,45.95927851443421],[-74.80734811956764,45.97328958347874],[-74.83135521870966,45.973541843883126],[-74.85786896026548,45.97351250263693],[-74.86163077983828,45.97335946715363],[-74.87788732100994,45.97388385417601],[-74.90697020133466,45.973826721150104],[-74.92570141092776,45.97424614926651],[-75.00965897093161,45.97401439089753],[-75.02477791287333,45.974149131709],[-75.02505264104798,45.99581339931543],[-75.02546133109963,45.999391332895044],[-75.02439015873384,46.02419074120196],[-75.023855824166,46.02970487537585],[-75.02421708444002,46.033950773834505],[-75.02485948617212,46.071730165152864],[-75.02765631821926,46.10339401682728],[-75.04317340786326,46.10315513343763],[-75.08990400196652,46.10325026790406],[-75.08892125635394,46.11155410444776],[-75.0863853955959,46.12823556751459],[-75.08434254993988,46.143664307503855],[-75.07840424963769,46.192834039711556],[-75.07729928957244,46.19679028048134],[-75.0755874340488,46.21612289169676],[-75.0928333076931,46.21600972822504],[-75.11746579238529,46.215936681269596],[-75.11807455418341,46.183115553917965],[-75.13828893638133,46.18287754327548],[-75.13842738588133,46.1576330790875],[-75.15538370845883,46.15755385926934],[-75.15635312484062,46.1318046880923],[-75.16803323124665,46.13230339456807],[-75.1784926449467,46.13249749783614],[-75.17978973426757,46.10339345654607],[-75.21120015917049,46.10402921812759],[-75.21122263561628,46.098001115520375],[-75.28828050601314,46.09771313089147],[-75.3374043705185,46.09749562149111],[-75.40765792862652,46.0971387265584],[-75.40760127730407,46.07529680419776],[-75.40837418758507,46.05649058373482],[-75.40743914278954,46.012710156056755],[-75.40733496888424,45.97240370841708],[-75.39232376221646,45.9726907593863],[-75.39231269869354,45.91842285562194],[-75.39229802651356,45.852467447210095],[-75.31129245376144,45.86187112165058],[-75.26472247484531,45.86725353239928],[-75.25170242625128,45.869029055920464],[-75.2506050549805,45.83267954641189],[-75.24986997631906,45.81759223701298],[-75.22200654118349,45.81924338046523],[-75.22066450090114,45.7984157845301],[-75.21915019790299,45.78448450210152],[-75.21919476115116,45.774531542917735],[-75.21869067142674,45.76414099986858],[-75.21782165238061,45.748741906678255],[-75.22109817986293,45.73421688422675],[-75.19365911803771,45.736718286627806],[-75.19300410637229,45.73661931875313],[-75.1816944035403,45.73788451743348],[-75.17986985073836,45.73796260172737],[-75.17874084295492,45.72818724908468],[-75.17851354482193,45.71518309949927],[-75.15091769302668,45.71655984870666],[-75.15092464030816,45.71670530780705],[-75.14202074879029,45.71715931936044],[-75.14138682281181,45.717524919624736],[-75.13640775737908,45.71770437057794],[-75.1108361449324,45.71902550434877],[-75.11683366750464,45.69756622060397],[-75.11922504063072,45.69005626249985],[-75.12962098942643,45.66104072469609],[-75.13358522282022,45.64822617934435],[-75.1348325375241,45.64461108976623],[-75.13705682596405,45.64303940094244],[-75.13719009130129,45.64202435255051],[-75.13379382847454,45.64176441956777],[-75.13377825870448,45.641052150234124],[-75.1407888230372,45.621105261708294],[-75.1486637925809,45.59475832440277],[-75.1517576724407,45.585472048505686],[-75.15351674104234,45.57839966761374],[-75.14670481908665,45.57798293906497],[-75.14160642267717,45.57729321416792],[-75.13260237905604,45.576617793503615],[-75.12276948525597,45.57708561345971],[-75.11855218033497,45.57765693429999],[-75.10888219841338,45.57972930723646],[-75.10316664253199,45.58165985712979],[-75.0874644203745,45.58799787669574],[-75.08095317935322,45.58970810413253],[-75.07510744003602,45.590448295704725],[-75.06858332855465,45.590922355191324],[-75.05274102322258,45.59126973058601],[-75.04543246985108,45.59200414790982],[-75.03546627068243,45.593808188123774],[-75.02190911366121,45.59732568745073],[-75.01621995125767,45.5989144892374],[-75.00631197065285,45.602577024118744],[-74.98897970005711,45.61078484579292],[-74.98266175048767,45.61423965080697],[-74.97819343031836,45.616950687191945],[-74.97197883293381,45.62113101806177],[-74.96724479416217,45.62458103182981],[-74.9631354762398,45.62799059568571],[-74.95519761085072,45.63559449470874],[-74.94921690222758,45.640187758835424],[-74.94301048025974,45.64340540135355],[-74.93677495271037,45.64499471382463],[-74.9328768297251,45.64550088500314],[-74.92830749819436,45.64569308570188],[-74.9163363098577,45.64486220248966],[-74.90223520886562,45.64338968476353],[-74.88982617457951,45.64249438041002],[-74.88361316844527,45.64232263602302],[-74.8784211008146,45.641905903629805],[-74.87071094114013,45.64065758818159],[-74.86410302582163,45.63929566933592],[-74.84812860333552,45.63682578713183],[-74.84178798900786,45.6361564873875],[-74.83518289615482,45.63582156810008],[-74.82992031341206,45.635913180916894],[-74.82116020203335,45.63674853966024],[-74.80131167870738,45.63918331145719],[-74.79333327446953,45.63919002848225],[-74.78635847479518,45.63879796773128],[-74.76967030073233,45.636599407084525],[-74.76067974575217,45.635112690110475],[-74.75277939066301,45.63358475989379],[-74.73613759747664,45.62948476608985],[-74.72934567182415,45.62832608854047],[-74.72408176890784,45.628059437968545],[-74.71676468431333,45.62846170542808],[-74.70958193271296,45.62920341360213],[-74.69147891069242,45.631309569222495],[-74.67831623910853,45.63245738408746],[-74.66983267266745,45.63353998258411],[-74.66122192847368,45.634942500424344],[-74.64780404237091,45.63785798749794],[-74.63806070990464,45.638758152209256],[-74.6358923197465,45.63854914056909],[-74.63026756236918,45.63700497241588],[-74.62553464975284,45.63457356160881],[-74.61920235575627,45.628639752324844],[-74.61399178501273,45.624804098874186],[-74.60989745839152,45.62270329380377],[-74.59821097773926,45.61801672678501],[-74.59012636732236,45.61542711121767],[-74.5790384107262,45.612256150478416],[-74.56867559963574,45.60856386806581],[-74.56278001652664,45.6066413738737],[-74.56001106476059,45.60506010249779],[-74.55571532584686,45.603158332230755],[-74.55432697864462,45.60872768290111],[-74.55435282740056,45.61050978997629],[-74.55117720879535,45.62102876125413],[-74.54721120572545,45.63537964496359],[-74.54330321980635,45.65148567202293],[-74.53529663364318,45.681666482234576],[-74.53279380758599,45.69499770681817],[-74.5271852670036,45.71389131926786],[-74.5258214504703,45.719819935250584],[-74.52034766435294,45.7422236671434],[-74.5165570991356,45.76151745988677],[-74.53645190237428,45.763577069014616],[-74.53444914766503,45.77316312881794],[-74.57163563821312,45.778757294026185],[-74.57305739037227,45.77922503220937],[-74.5927823736275,45.78339784429034],[-74.6119663194426,45.78595128546999],[-74.61967396896272,45.78640130930083],[-74.6448585532874,45.78911875067184],[-74.6613517584674,45.79080066064236],[-74.66921465915539,45.79129648067433],[-74.67672594165214,45.791301996378756],[-74.68507593491773,45.79043311509482],[-74.68851498073,45.791326362038994],[-74.68941189860888,45.79079513750458],[-74.70298715221602,45.79330683818471],[-74.75372111696741,45.801336898612554],[-74.73511101530681,45.852337633486755],[-74.72718517438287,45.85151933117521],[-74.7188117201671,45.88275194595484],[-74.71449241803306,45.89829832905619],[-74.71373602317027,45.899497905961674],[-74.71373174578103,45.90208786133088],[-74.70853984816056,45.93180182963734]]],[[[-73.85055991900207,45.57695919463963],[-73.85014408993901,45.58013689627215],[-73.8512555083854,45.579593600539326],[-73.85307389970635,45.57735640516487],[-73.85118348753534,45.57626440626064],[-73.85055991900207,45.57695919463963]]],[[[-73.85306949791276,45.58073970648851],[-73.85511489620832,45.57997750860041],[-73.85410099988603,45.577677108179714],[-73.85226710049082,45.57947350405171],[-73.85306949791276,45.58073970648851]]],[[[-73.84656998120754,45.58030970722029],[-73.84874900403227,45.580402105635734],[-73.84770268925551,45.579037503053996],[-73.84656998120754,45.58030970722029]]],[[[-73.84676380468991,45.57848249820013],[-73.84350499885215,45.57990500424776],[-73.84425291681397,45.58067669698241],[-73.84637401116092,45.579671391281565],[-73.84676380468991,45.57848249820013]]]]},"properties":null}
]}