{"type":"FeatureCollection", "features": [
{"type":"Feature","geometry":{"type":"MultiPolygon","coordinates":[[[[-73.62066349576142,45.629876642620474],[-73.62359229539871,45.62718169919327],[-73.63105649036358,45.62178339752145],[-73.63341098919867,45.61966611112518],[-73.63573661664657,45.616234996876386],[-73.63740661428233,45.61228279972782],[-73.64033019665521,45.60822255249532],[-73.6415327848468,45.6062759002489],[-73.6434295040915,45.60095560758843],[-73.64603350626112,45.596687105365035],[-73.64910341056186,45.59430760178054],[-73.65054519823323,45.59184018806065],[-73.6523988005669,45.59007408758322],[-73.65319511462374,45.58596979460238],[-73.65432893329968,45.58358410252842],[-73.65421235234727,45.58336033404252],[-73.63621199077495,45.57591916712333],[-73.6329514875579,45.57981192077861],[-73.62882724152065,45.583150836566844],[-73.62650565185797,45.586290634721514],[-73.62283618840677,45.58467078534846],[-73.62335373078724,45.58407250965441],[-73.61203050336924,45.57887582721329],[-73.60043123060369,45.57396871728968],[-73.60153847912774,45.57273789756746],[-73.59864439178801,45.57146562940529],[-73.59580757008678,45.570201398973005],[-73.58715033837571,45.56641527167165],[-73.5790699347537,45.57558480195324],[-73.5772412401393,45.576553840400464],[-73.57530429751051,45.57881165736079],[-73.5767240561897,45.579308537749256],[-73.5739922148601,45.58192516665389],[-73.57333973558593,45.58170770967291],[-73.56889202432929,45.58741492081022],[-73.56922995928751,45.58880817739313],[-73.5713012365572,45.59123046062306],[-73.5749182187876,45.592032049231584],[-73.5781621151494,45.59347776615604],[-73.57392829152445,45.59639464223887],[-73.57253269256151,45.59768886305257],[-73.57980764455112,45.60112190251151],[-73.59343400606883,45.60687875865689],[-73.60252647924169,45.611097354700846],[-73.6034247235824,45.61130771612159],[-73.60171417109207,45.61191882076865],[-73.60256803332376,45.612786188479355],[-73.6000131034085,45.61331781845997],[-73.59667297200214,45.614970940270474],[-73.59384366030181,45.61684540827961],[-73.60148103990281,45.62400739893624],[-73.6028748000949,45.62328999751775],[-73.61041689093798,45.6303766889294],[-73.6162953657173,45.62633217504666],[-73.62066349576142,45.629876642620474]]],[[[-73.65654340054557,45.58853605933481],[-73.6548258011961,45.587155289513646],[-73.65595018726917,45.58588499585244],[-73.65595849295605,45.58427429757567],[-73.65432588881349,45.58710199746846],[-73.65625678394319,45.588909673356724],[-73.65654340054557,45.58853605933481]]],[[[-73.64781945844166,45.49201901576447],[-73.65302621988941,45.49441941824059],[-73.65554410041707,45.496001869936435],[-73.65701906416417,45.494845721933295],[-73.65622702414042,45.494352555930874],[-73.66468957378966,45.48775252619855],[-73.66711904316878,45.48607601635568],[-73.66946560080063,45.487920303468556],[-73.67526045687679,45.491338161508686],[-73.67728480102598,45.483862812203974],[-73.67793734176678,45.48160279428127],[-73.67570148345452,45.48307971619113],[-73.67441226218756,45.48211087986206],[-73.66972683571338,45.48363140296789],[-73.6618681185583,45.480247407081826],[-73.66078293690177,45.481317824700845],[-73.65607334754434,45.479156118124564],[-73.65621408455635,45.4842163322667],[-73.65567109716258,45.4867614452507],[-73.6545087838396,45.488504229260435],[-73.65058602128865,45.49281452057252],[-73.64781945844166,45.49201901576447]]]]},"properties":null}
]}