{"type":"FeatureCollection", "features": [
{"type":"Feature","geometry":{"type":"MultiPolygon","coordinates":[[[[-73.65432893329968,45.58358410252842],[-73.65522150859772,45.581917704142164],[-73.65710259833823,45.580934302746876],[-73.65968519017045,45.578870195620006],[-73.66073200912328,45.5775100085151],[-73.66060049201286,45.576295405899494],[-73.66171178744055,45.57513300895564],[-73.66137389811684,45.57795900446064],[-73.65967689137207,45.58044491131157],[-73.65759050095296,45.5812846017781],[-73.65714418096807,45.58209510440912],[-73.66042069713033,45.58065980504927],[-73.66236028427886,45.57785859448312],[-73.66395879252394,45.57676751053032],[-73.66597508683438,45.573984105169394],[-73.66343213359563,45.57142372558601],[-73.6625442006071,45.57054270957241],[-73.66264199819081,45.56893189154845],[-73.66358729035359,45.5679497059791],[-73.6631985970553,45.56642950159347],[-73.66434549233998,45.564340300609544],[-73.66736601100992,45.56340911227558],[-73.6720059046051,45.56007271000507],[-73.67373980637268,45.55738860073096],[-73.67399060421263,45.555651608490884],[-73.67694842676802,45.55216008876593],[-73.67904529334602,45.55019980057941],[-73.67943750297927,45.54864250703027],[-73.68014439278662,45.549424192039396],[-73.68389468729937,45.548788293552064],[-73.68574081377446,45.549343299747015],[-73.68939087855104,45.5476547380398],[-73.6926491109028,45.54718121117279],[-73.69467338532962,45.54742980730053],[-73.70199360136803,45.54594129276075],[-73.7050470900917,45.543992187183186],[-73.70691568613411,45.543709900482426],[-73.70794749854811,45.54221430617233],[-73.71076406655136,45.539522332304536],[-73.71375669671181,45.53765038817493],[-73.71557308938624,45.53716999153861],[-73.71615370792499,45.53497331292777],[-73.71684089761425,45.53721260892248],[-73.72120510078767,45.53668241102491],[-73.72302009150843,45.53588700331801],[-73.72562480955243,45.53405519526592],[-73.72698680278987,45.53210082310515],[-73.7283646042294,45.53082830957459],[-73.73123940038748,45.529427791753406],[-73.73255930698735,45.5297221078764],[-73.73490409464571,45.52710780654582],[-73.73757350155007,45.5256444934024],[-73.7386504063941,45.52602020469898],[-73.73985060083058,45.52525281076504],[-73.7401134906222,45.52384849056044],[-73.74164709943366,45.523269291161476],[-73.74332131352769,45.51967541083129],[-73.74665219840978,45.51739170231222],[-73.74838070486386,45.51749588969617],[-73.75036978395586,45.51576389422405],[-73.75124120484698,45.513116488487974],[-73.75752670478234,45.51059189185457],[-73.75765269765242,45.51015069189303],[-73.75942331782818,45.50914824345851],[-73.75893099266962,45.508874227490246],[-73.75627530412926,45.508390090234776],[-73.75744595479802,45.507811568595166],[-73.75568305275483,45.50640605060665],[-73.75220173656109,45.50408265675296],[-73.75499583484255,45.50323896371665],[-73.75803090186675,45.501359378565574],[-73.75903935055817,45.5020921964935],[-73.76060341350926,45.5008901057547],[-73.76382401891904,45.502761908229495],[-73.7653906023877,45.50300088989327],[-73.76652046239465,45.50208289346148],[-73.76833035155697,45.50350661504662],[-73.77167119121512,45.50310420758678],[-73.77264218685133,45.50257745298922],[-73.7703782135143,45.501115085374195],[-73.7720201835693,45.50002773866161],[-73.77081504603582,45.49916211914256],[-73.7729101497182,45.4977323819531],[-73.77340362832615,45.49759355373455],[-73.76792367156386,45.49451221657068],[-73.76486148894952,45.49096069416104],[-73.7667694564849,45.4887071986032],[-73.76596591677192,45.486450361363126],[-73.7671626979122,45.48604017021621],[-73.76797544418774,45.48461203223907],[-73.77230284846843,45.482518646560806],[-73.77385672785974,45.48213642544426],[-73.77223754785976,45.48070298948112],[-73.76620111571773,45.476931672307956],[-73.76824889661007,45.47505420260549],[-73.76214953800776,45.46859027581662],[-73.7502018500415,45.461208124817034],[-73.74080186464515,45.46841662744058],[-73.72404633158621,45.4819217006788],[-73.72030265714527,45.4805986637392],[-73.70836118955722,45.47320688329506],[-73.7081632101691,45.473080809978654],[-73.70209733048638,45.469549710793224],[-73.69367517805652,45.46374726634172],[-73.69234359462558,45.470355556781065],[-73.68314691957123,45.46481944023652],[-73.68159171830627,45.46814673327572],[-73.67793734176678,45.48160279428127],[-73.67728480102598,45.483862812203974],[-73.68344891640534,45.487996856625735],[-73.68619735410202,45.489507142697924],[-73.68149434477009,45.49125951519144],[-73.67386581850553,45.49718098770605],[-73.66759841550714,45.50214836618564],[-73.66588921345438,45.50257729923964],[-73.6650604555205,45.503621238023484],[-73.66277748667484,45.50782101539846],[-73.65847267655194,45.51464075869011],[-73.6551251279268,45.51965941233764],[-73.65186519775288,45.52496342592938],[-73.65012356929304,45.52887521468334],[-73.64901903069985,45.53013950543461],[-73.64572419875965,45.5350846341829],[-73.64104705219812,45.54237373412106],[-73.63674543847105,45.54765818844014],[-73.63522329414415,45.54893612589459],[-73.63284818343207,45.54985200765671],[-73.63009320145837,45.550360277964906],[-73.62656514290637,45.551914901412424],[-73.62098446765228,45.55475279538594],[-73.62291100031973,45.55512651785891],[-73.64533369916374,45.56481888801849],[-73.64447139395176,45.56604964763765],[-73.63621199077495,45.57591916712333],[-73.65421235234727,45.58336033404252],[-73.65432893329968,45.58358410252842]]],[[[-73.69898768240903,45.54695430438805],[-73.69598080208384,45.54773350125462],[-73.69616161151679,45.5481470118],[-73.69904149604947,45.54771911079311],[-73.69898768240903,45.54695430438805]]],[[[-73.7597535024253,45.50933200097624],[-73.7578959139972,45.51016809334496],[-73.75825639011114,45.51064420683108],[-73.75678920274188,45.51162839449675],[-73.75488421182028,45.5120916062917],[-73.75736929156375,45.51257189153821],[-73.76159796242935,45.51035842568671],[-73.7597535024253,45.50933200097624]]],[[[-73.75247859948685,45.517918899321096],[-73.75531690473628,45.51721068831681],[-73.75696310051336,45.51610919300206],[-73.7564815130682,45.514355500523116],[-73.75418919202222,45.51408168942506],[-73.75293849131496,45.51488538734597],[-73.75206850390587,45.517811803863886],[-73.75247859948685,45.517918899321096]]]]},"properties":null}
]}