{"type":"FeatureCollection","features":[{"type":"Feature","geometry":{"type":"Polygon","coordinates":[[[-73.61471,45.580134],[-73.623354,45.584073],[-73.622836,45.584671],[-73.626506,45.586291],[-73.628827,45.583151],[-73.632951,45.579812],[-73.64046,45.570844],[-73.645334,45.564819],[-73.622911,45.555127],[-73.620984,45.554753],[-73.626565,45.551915],[-73.630093,45.55036],[-73.634953,45.549081],[-73.638766,45.545313],[-73.641047,45.542374],[-73.646559,45.533786],[-73.649019,45.53014],[-73.646786,45.530304],[-73.622753,45.523376],[-73.622056,45.524098],[-73.620537,45.523549],[-73.618562,45.525753],[-73.617039,45.527692],[-73.617383,45.529695],[-73.619252,45.530744],[-73.621483,45.531099],[-73.618246,45.534739],[-73.614433,45.538299],[-73.612336,45.542117],[-73.607051,45.547945],[-73.603546,45.546348],[-73.600973,45.549213],[-73.587284,45.56501],[-73.58715,45.566415],[-73.601538,45.572738],[-73.600431,45.573969],[-73.608601,45.577402],[-73.61471,45.580134]]]},"properties":{"id":"andree-ferretti","name":"Andr\u00e9e-Ferretti"},"bbox":[-73.649019,45.523376,-73.58715,45.586291]},{"type":"Feature","geometry":{"type":"MultiPolygon","coordinates":[[[[-73.55924,45.539871],[-73.573496,45.541279],[-73.573655,45.541131],[-73.574281,45.541357],[-73.579552,45.541405],[-73.581954,45.540843],[-73.584935,45.539398],[-73.596197,45.530051],[-73.599711,45.528686],[-73.60427,45.528324],[-73.606771,45.528281],[-73.60901,45.527507],[-73.612309,45.525666],[-73.595933,45.518314],[-73.591479,45.516161],[-73.590263,45.515779],[-73.591462,45.5147],[-73.596695,45.514674],[-73.599194,45.513002],[-73.597487,45.51325],[-73.596219,45.511072],[-73.593607,45.510619],[-73.594167,45.509759],[-73.591665,45.508222],[-73.595071,45.503652],[-73.595888,45.502404],[-73.598655,45.501087],[-73.604505,45.495755],[-73.606498,45.495378],[-73.606724,45.495432],[-73.608102,45.493566],[-73.609238,45.494044],[-73.61144,45.491648],[-73.614819,45.493017],[-73.617994,45.489414],[-73.618409,45.488229],[-73.615319,45.486802],[-73.617201,45.484785],[-73.612406,45.482702],[-73.614072,45.480463],[-73.605943,45.476819],[-73.604939,45.477092],[-73.600768,45.475123],[-73.597362,45.473792],[-73.595765,45.474849],[-73.593829,45.47736],[-73.586118,45.482719],[-73.585124,45.482232],[-73.580593,45.485633],[-73.581111,45.486311],[-73.577175,45.489063],[-73.572563,45.492662],[-73.572284,45.492534],[-73.563294,45.499772],[-73.561632,45.501723],[-73.55286,45.49878],[-73.552659,45.495801],[-73.55366,45.493165],[-73.55351,45.492832],[-73.553071,45.493098],[-73.551962,45.498147],[-73.552772,45.501971],[-73.548268,45.502296],[-73.548013,45.50325],[-73.552798,45.502897],[-73.552441,45.504364],[-73.547502,45.504672],[-73.547285,45.505599],[-73.552135,45.505282],[-73.551241,45.506749],[-73.546826,45.50694],[-73.545589,45.512376],[-73.546268,45.512844],[-73.547878,45.510152],[-73.549222,45.510134],[-73.546678,45.514364],[-73.544763,45.520178],[-73.545045,45.520241],[-73.541242,45.532832],[-73.544176,45.533544],[-73.54797,45.538165],[-73.54881,45.538663],[-73.552561,45.539215],[-73.55924,45.539871]]],[[[-73.55196,45.49533],[-73.550927,45.499713],[-73.551682,45.499046],[-73.55196,45.49533]]],[[[-73.52684,45.507544],[-73.52575,45.510438],[-73.526992,45.511203],[-73.528602,45.506145],[-73.527258,45.505147],[-73.52684,45.507544]]],[[[-73.539066,45.488262],[-73.541055,45.491114],[-73.542878,45.498573],[-73.542782,45.507725],[-73.543307,45.507886],[-73.544392,45.503594],[-73.545434,45.494766],[-73.546573,45.494828],[-73.545988,45.499904],[-73.547933,45.500047],[-73.548911,45.491651],[-73.549999,45.491714],[-73.549302,45.499147],[-73.550543,45.499677],[-73.550886,45.496761],[-73.551653,45.495213],[-73.552254,45.495006],[-73.552929,45.492315],[-73.552249,45.491379],[-73.550646,45.490459],[-73.539066,45.488262]]],[[[-73.535129,45.5272],[-73.535718,45.527812],[-73.53417,45.528757],[-73.53216,45.528973],[-73.532699,45.53125],[-73.534107,45.531402],[-73.536947,45.52818],[-73.538674,45.525606],[-73.539504,45.522357],[-73.538285,45.519127],[-73.538499,45.513575],[-73.537383,45.510255],[-73.535462,45.507421],[-73.534015,45.506297],[-73.532621,45.506747],[-73.530716,45.511526],[-73.529925,45.515054],[-73.531207,45.519525],[-73.531851,45.525599],[-73.533835,45.526057],[-73.535129,45.5272]]],[[[-73.51852,45.49696],[-73.52123,45.504554],[-73.527703,45.52551],[-73.527087,45.522154],[-73.529058,45.521695],[-73.528145,45.513407],[-73.528233,45.511554],[-73.530201,45.505902],[-73.52947,45.502033],[-73.528305,45.500342],[-73.525847,45.498102],[-73.52362,45.496887],[-73.519883,45.49574],[-73.51852,45.49696]],[[-73.525251,45.511185],[-73.526995,45.517052],[-73.52574,45.517241],[-73.519948,45.498049],[-73.521292,45.49786],[-73.525251,45.511185]],[[-73.523737,45.500298],[-73.523582,45.498489],[-73.52563,45.499334],[-73.526027,45.501476],[-73.527128,45.50234],[-73.527308,45.504202],[-73.528818,45.504202],[-73.528717,45.506379],[-73.527081,45.511392],[-73.525635,45.510438],[-73.526977,45.506407],[-73.526962,45.502798],[-73.526003,45.503024],[-73.525364,45.505066],[-73.524045,45.504986],[-73.523737,45.500298]]]]},"properties":{"id":"chevalier-de-lorimier","name":"Chevalier-de-Lorimier"},"bbox":[-73.618409,45.473792,-73.51852,45.541405]},{"type":"Feature","geometry":{"type":"Polygon","coordinates":[[[-73.516531,45.612312],[-73.537244,45.615885],[-73.537946,45.614024],[-73.544111,45.615081],[-73.546533,45.612761],[-73.544862,45.612312],[-73.545401,45.610813],[-73.54121,45.609504],[-73.541537,45.60856],[-73.54126,45.606787],[-73.537678,45.605254],[-73.536948,45.60248],[-73.539686,45.603007],[-73.542188,45.604129],[-73.542947,45.602801],[-73.540225,45.602037],[-73.540675,45.600797],[-73.544485,45.601851],[-73.545091,45.600251],[-73.543939,45.598247],[-73.545371,45.595696],[-73.547388,45.595529],[-73.547995,45.594567],[-73.546743,45.593751],[-73.548934,45.590048],[-73.551835,45.590887],[-73.557523,45.593162],[-73.569568,45.597159],[-73.569851,45.596708],[-73.567603,45.590431],[-73.566343,45.588388],[-73.564387,45.587388],[-73.564149,45.585296],[-73.565607,45.584193],[-73.564966,45.583586],[-73.567631,45.58122],[-73.559892,45.578643],[-73.558047,45.577878],[-73.555598,45.575731],[-73.548871,45.573497],[-73.554306,45.565376],[-73.554541,45.56437],[-73.554181,45.556933],[-73.554846,45.551741],[-73.555688,45.546598],[-73.55924,45.539871],[-73.552561,45.539215],[-73.54881,45.538663],[-73.54797,45.538165],[-73.544176,45.533544],[-73.541242,45.532832],[-73.540243,45.535603],[-73.5346,45.54113],[-73.531386,45.541904],[-73.532373,45.543668],[-73.529326,45.544244],[-73.529044,45.545099],[-73.532309,45.544451],[-73.531234,45.545801],[-73.528838,45.546264],[-73.528956,45.546899],[-73.524115,45.552725],[-73.518625,45.558626],[-73.520814,45.557213],[-73.521481,45.559093],[-73.523581,45.556808],[-73.525272,45.557482],[-73.518038,45.566167],[-73.515502,45.567508],[-73.517513,45.569064],[-73.514119,45.5709],[-73.509187,45.575769],[-73.50592,45.580529],[-73.504652,45.584003],[-73.505511,45.584934],[-73.504127,45.587773],[-73.505562,45.592065],[-73.506882,45.59184],[-73.509152,45.598427],[-73.509307,45.603538],[-73.50841,45.607236],[-73.507077,45.610287],[-73.507415,45.61074],[-73.516531,45.612312]]]},"properties":{"id":"chomedey-de-maisonneuve-jeanne-mance","name":"Chomedey-de-Maisonneuve-Jeanne-Mance"},"bbox":[-73.569851,45.532832,-73.504127,45.615885]},{"type":"Feature","geometry":{"type":"MultiPolygon","coordinates":[[[[-73.386652,45.4132],[-73.388325,45.414403],[-73.420637,45.415878],[-73.438383,45.417015],[-73.437871,45.421868],[-73.44936,45.422057],[-73.455497,45.422327],[-73.456411,45.421177],[-73.464268,45.42174],[-73.464674,45.423239],[-73.466869,45.423525],[-73.470841,45.425198],[-73.472231,45.426761],[-73.474382,45.426708],[-73.477179,45.429396],[-73.479232,45.430505],[-73.482367,45.430047],[-73.484333,45.43207],[-73.487005,45.431037],[-73.491109,45.431611],[-73.491425,45.429841],[-73.495144,45.424398],[-73.499374,45.420933],[-73.49931,45.419098],[-73.501022,45.415327],[-73.503373,45.412772],[-73.506541,45.411242],[-73.509581,45.408758],[-73.511702,45.406544],[-73.513721,45.405591],[-73.518063,45.404284],[-73.519481,45.404311],[-73.522609,45.402133],[-73.526914,45.400449],[-73.531538,45.401024],[-73.535677,45.401941],[-73.538092,45.402903],[-73.540033,45.402533],[-73.544388,45.401443],[-73.54974,45.400901],[-73.553138,45.401673],[-73.555055,45.402563],[-73.557125,45.402598],[-73.561712,45.403747],[-73.564026,45.405258],[-73.566722,45.406219],[-73.576047,45.405925],[-73.577397,45.402658],[-73.578841,45.402828],[-73.581232,45.404752],[-73.584773,45.40663],[-73.585196,45.407512],[-73.59295,45.4072],[-73.6225,45.40198],[-73.627353,45.401524],[-73.635988,45.401721],[-73.641151,45.402444],[-73.646366,45.403724],[-73.649741,45.404917],[-73.66252,45.410946],[-73.669966,45.414328],[-73.676219,45.41601],[-73.684615,45.416618],[-73.685841,45.416454],[-73.684941,45.414772],[-73.686138,45.413448],[-73.69418,45.411239],[-73.695859,45.409202],[-73.69872,45.409179],[-73.7026,45.407904],[-73.704408,45.406263],[-73.705789,45.406746],[-73.708598,45.406354],[-73.711653,45.406726],[-73.714677,45.405902],[-73.718017,45.400658],[-73.719975,45.398495],[-73.722992,45.398957],[-73.724918,45.398341],[-73.727043,45.396258],[-73.726959,45.397779],[-73.729332,45.400177],[-73.732641,45.400324],[-73.737046,45.402906],[-73.739778,45.402469],[-73.74471,45.399866],[-73.749756,45.400045],[-73.752487,45.399807],[-73.754125,45.400116],[-73.755166,45.398701],[-73.755186,45.400393],[-73.753708,45.401278],[-73.755399,45.402246],[-73.758617,45.399233],[-73.761953,45.399657],[-73.763168,45.397288],[-73.765039,45.395961],[-73.764775,45.394027],[-73.766197,45.392359],[-73.767245,45.389711],[-73.771904,45.386442],[-73.772174,45.384381],[-73.769312,45.383839],[-73.768413,45.382788],[-73.769574,45.379932],[-73.77309,45.378188],[-73.775671,45.375932],[-73.776615,45.373194],[-73.775599,45.371666],[-73.772059,45.370982],[-73.768714,45.370837],[-73.765337,45.369504],[-73.764925,45.36883],[-73.769709,45.370727],[-73.772415,45.370585],[-73.772512,45.369613],[-73.772977,45.370737],[-73.775482,45.371334],[-73.780923,45.369125],[-73.781489,45.367414],[-73.783127,45.365592],[-73.787949,45.362412],[-73.789152,45.362994],[-73.79028,45.361578],[-73.793542,45.360355],[-73.794482,45.359525],[-73.790493,45.358239],[-73.788349,45.358218],[-73.788253,45.357048],[-73.789964,45.357053],[-73.792916,45.355363],[-73.793699,45.356198],[-73.795008,45.355069],[-73.794072,45.354334],[-73.796915,45.353652],[-73.798057,45.352479],[-73.80321,45.349469],[-73.808076,45.345496],[-73.809001,45.344171],[-73.813092,45.343242],[-73.811912,45.34221],[-73.812221,45.340392],[-73.814286,45.34008],[-73.816473,45.338562],[-73.816428,45.33733],[-73.821223,45.332511],[-73.824141,45.33181],[-73.826005,45.329915],[-73.828945,45.328683],[-73.83273,45.330138],[-73.829244,45.327071],[-73.811289,45.313736],[-73.798381,45.303759],[-73.78468,45.293732],[-73.703628,45.232856],[-73.698212,45.229005],[-73.677483,45.247408],[-73.686268,45.250066],[-73.681802,45.259551],[-73.678224,45.26677],[-73.665682,45.282682],[-73.660579,45.289018],[-73.650904,45.301639],[-73.645551,45.297837],[-73.633996,45.314696],[-73.631811,45.314002],[-73.594236,45.303397],[-73.593039,45.302638],[-73.568124,45.29578],[-73.558391,45.292715],[-73.547488,45.28993],[-73.546475,45.291377],[-73.538668,45.289353],[-73.536564,45.291086],[-73.53656,45.29294],[-73.533674,45.291689],[-73.533714,45.294048],[-73.530722,45.29268],[-73.515377,45.28661],[-73.517876,45.281883],[-73.516584,45.281299],[-73.517412,45.280301],[-73.510013,45.277647],[-73.507585,45.279967],[-73.509434,45.280881],[-73.508429,45.283524],[-73.50544,45.285826],[-73.502495,45.285286],[-73.493639,45.296839],[-73.49263,45.296923],[-73.492156,45.294052],[-73.492839,45.292579],[-73.491341,45.2928],[-73.488431,45.294237],[-73.486312,45.291573],[-73.480224,45.294627],[-73.479715,45.293526],[-73.478626,45.294065],[-73.477104,45.291793],[-73.480056,45.29031],[-73.478685,45.288051],[-73.47705,45.286893],[-73.479308,45.285781],[-73.477833,45.284475],[-73.475982,45.280792],[-73.460741,45.288972],[-73.464031,45.29399],[-73.463827,45.29425],[-73.44379,45.30373],[-73.44403,45.304823],[-73.442231,45.308067],[-73.443769,45.310679],[-73.426021,45.318757],[-73.424758,45.319215],[-73.421214,45.317737],[-73.417191,45.321351],[-73.411852,45.325631],[-73.408428,45.328904],[-73.40961,45.332117],[-73.406079,45.33772],[-73.406363,45.339523],[-73.405058,45.342118],[-73.405008,45.345886],[-73.40405,45.347174],[-73.401622,45.348406],[-73.394904,45.349742],[-73.387651,45.35853],[-73.392222,45.360149],[-73.394516,45.372346],[-73.397957,45.373664],[-73.393782,45.378135],[-73.390162,45.381649],[-73.388002,45.38415],[-73.387058,45.387522],[-73.385781,45.395694],[-73.385561,45.398367],[-73.386108,45.399909],[-73.383154,45.399752],[-73.38043,45.401149],[-73.393727,45.410473],[-73.385189,45.410125],[-73.386652,45.4132]]],[[[-73.499962,45.43327],[-73.500064,45.43229],[-73.498201,45.432687],[-73.499962,45.43327]]],[[[-73.522904,45.409721],[-73.518359,45.411222],[-73.517899,45.411735],[-73.523092,45.409806],[-73.522904,45.409721]]],[[[-73.5,45.431786],[-73.501163,45.427943],[-73.500524,45.428771],[-73.5,45.431786]]],[[[-73.502198,45.433913],[-73.502978,45.430139],[-73.505508,45.424515],[-73.508574,45.420492],[-73.513314,45.41646],[-73.518142,45.413715],[-73.52269,45.411761],[-73.525767,45.410983],[-73.532619,45.409601],[-73.535145,45.409203],[-73.545697,45.409127],[-73.554717,45.409231],[-73.562292,45.408912],[-73.571555,45.409114],[-73.574215,45.411704],[-73.575991,45.411478],[-73.57765,45.410136],[-73.58032,45.410071],[-73.585559,45.410733],[-73.593772,45.410006],[-73.597299,45.410427],[-73.600287,45.409343],[-73.608078,45.408455],[-73.609279,45.408535],[-73.617732,45.406718],[-73.625129,45.4068],[-73.628666,45.405842],[-73.630719,45.404517],[-73.634143,45.404432],[-73.637002,45.403754],[-73.642663,45.404521],[-73.64967,45.406824],[-73.651247,45.409009],[-73.654266,45.410463],[-73.656463,45.410226],[-73.654591,45.412721],[-73.656102,45.413853],[-73.661267,45.415042],[-73.665869,45.415774],[-73.667443,45.416518],[-73.669804,45.415651],[-73.676209,45.41709],[-73.682702,45.417755],[-73.687736,45.417558],[-73.691784,45.416795],[-73.719148,45.409151],[-73.719083,45.408899],[-73.691017,45.416769],[-73.687863,45.417386],[-73.684325,45.417599],[-73.675391,45.416785],[-73.671248,45.415874],[-73.668178,45.414682],[-73.652009,45.407217],[-73.644644,45.404698],[-73.636975,45.402926],[-73.630842,45.402474],[-73.626551,45.402569],[-73.620663,45.403286],[-73.595378,45.407855],[-73.588839,45.408436],[-73.574735,45.408725],[-73.57582,45.408355],[-73.568487,45.408144],[-73.555265,45.408349],[-73.556313,45.408609],[-73.537406,45.408635],[-73.532856,45.408954],[-73.524812,45.410579],[-73.52016,45.412113],[-73.515268,45.414534],[-73.512176,45.416469],[-73.507066,45.421158],[-73.504677,45.424371],[-73.502147,45.430085],[-73.501534,45.433786],[-73.502198,45.433913]]],[[[-73.533311,45.407754],[-73.537776,45.407474],[-73.544993,45.407444],[-73.542617,45.406977],[-73.53348,45.407307],[-73.533311,45.407754]]],[[[-73.563823,45.407076],[-73.561525,45.407842],[-73.569573,45.407837],[-73.568077,45.407118],[-73.57601,45.406888],[-73.575473,45.406394],[-73.565266,45.406589],[-73.563823,45.407076]]],[[[-73.553346,45.404876],[-73.554497,45.406505],[-73.557589,45.406836],[-73.562737,45.406824],[-73.562148,45.405475],[-73.558327,45.404163],[-73.555056,45.403652],[-73.552564,45.402573],[-73.549345,45.401918],[-73.552693,45.403293],[-73.553346,45.404876]]],[[[-73.741969,45.407251],[-73.740466,45.408127],[-73.741147,45.40898],[-73.742523,45.408132],[-73.741969,45.407251]]],[[[-73.694898,45.412074],[-73.689422,45.413442],[-73.687393,45.414256],[-73.686353,45.416525],[-73.691077,45.415689],[-73.71012,45.410356],[-73.707564,45.410144],[-73.706679,45.409129],[-73.700541,45.410886],[-73.698877,45.409989],[-73.69874,45.411204],[-73.694898,45.412074]]],[[[-73.846036,45.339919],[-73.846907,45.340756],[-73.846357,45.34021],[-73.846036,45.339919]]],[[[-73.821463,45.359074],[-73.822855,45.359169],[-73.824547,45.358202],[-73.821463,45.359074]]],[[[-73.828908,45.355247],[-73.827025,45.356251],[-73.828026,45.357319],[-73.829498,45.355722],[-73.828908,45.355247]]],[[[-73.829326,45.354679],[-73.83118,45.355402],[-73.833566,45.35311],[-73.832163,45.353213],[-73.830743,45.354855],[-73.829326,45.354679]]],[[[-73.832991,45.352931],[-73.834051,45.352982],[-73.835605,45.350296],[-73.838671,45.348784],[-73.839808,45.346801],[-73.843865,45.344467],[-73.846318,45.340888],[-73.844217,45.339427],[-73.84389,45.340247],[-73.841821,45.339857],[-73.843924,45.341633],[-73.842329,45.341637],[-73.844417,45.342999],[-73.841485,45.343386],[-73.840701,45.344648],[-73.83803,45.346131],[-73.835645,45.348568],[-73.833969,45.35211],[-73.832991,45.352931]]]]},"properties":{"id":"doris-lussier","name":"Doris-Lussier"},"bbox":[-73.846907,45.229005,-73.38043,45.433913]},{"type":"Feature","geometry":{"type":"MultiPolygon","coordinates":[[[[-73.585241,45.603467],[-73.593434,45.606879],[-73.602526,45.611097],[-73.603425,45.611308],[-73.601714,45.611919],[-73.602568,45.612786],[-73.606364,45.617375],[-73.616412,45.626436],[-73.619728,45.62894],[-73.620663,45.629877],[-73.623592,45.627182],[-73.631056,45.621783],[-73.633486,45.619581],[-73.635737,45.616235],[-73.637118,45.612999],[-73.641533,45.606276],[-73.64343,45.600956],[-73.645251,45.598169],[-73.646034,45.596687],[-73.649103,45.594308],[-73.650545,45.59184],[-73.652399,45.590074],[-73.653195,45.58597],[-73.654329,45.583584],[-73.654212,45.58336],[-73.636212,45.575919],[-73.632951,45.579812],[-73.628827,45.583151],[-73.626506,45.586291],[-73.622836,45.584671],[-73.623354,45.584073],[-73.608601,45.577402],[-73.600431,45.573969],[-73.601538,45.572738],[-73.58715,45.566415],[-73.577243,45.577678],[-73.57809,45.577954],[-73.573992,45.581925],[-73.570609,45.580787],[-73.569863,45.581957],[-73.567631,45.58122],[-73.564966,45.583586],[-73.565607,45.584193],[-73.564149,45.585296],[-73.564387,45.587388],[-73.566343,45.588388],[-73.567603,45.590431],[-73.569851,45.596708],[-73.572533,45.597689],[-73.577195,45.59989],[-73.585241,45.603467]]],[[[-73.656374,45.588756],[-73.656543,45.588536],[-73.654826,45.587155],[-73.65595,45.585885],[-73.655958,45.584274],[-73.654326,45.587102],[-73.656257,45.58891],[-73.656374,45.588756]]]]},"properties":{"id":"henri-bourassa","name":"Henri-Bourassa"},"bbox":[-73.656543,45.566415,-73.564149,45.629877]},{"type":"Feature","geometry":{"type":"Polygon","coordinates":[[[-73.617039,45.527692],[-73.618562,45.525753],[-73.620537,45.523549],[-73.622056,45.524098],[-73.622753,45.523376],[-73.646786,45.530304],[-73.649019,45.53014],[-73.650893,45.527243],[-73.651865,45.524963],[-73.655125,45.519659],[-73.662777,45.507821],[-73.66506,45.503621],[-73.667598,45.502148],[-73.681494,45.49126],[-73.686197,45.489507],[-73.683449,45.487997],[-73.677285,45.483863],[-73.681592,45.468147],[-73.683147,45.464819],[-73.685363,45.460802],[-73.686348,45.454802],[-73.678009,45.45244],[-73.674969,45.452566],[-73.671879,45.452551],[-73.66824,45.456607],[-73.658688,45.452871],[-73.648369,45.449077],[-73.643947,45.447837],[-73.641137,45.447823],[-73.639503,45.446962],[-73.636938,45.448368],[-73.632576,45.449729],[-73.635084,45.450695],[-73.630824,45.453016],[-73.628113,45.455481],[-73.62116,45.46031],[-73.612496,45.463898],[-73.607477,45.466249],[-73.602715,45.468938],[-73.599397,45.471724],[-73.596493,45.473177],[-73.595765,45.474849],[-73.597362,45.473792],[-73.600768,45.475123],[-73.604939,45.477092],[-73.605943,45.476819],[-73.614072,45.480463],[-73.612406,45.482702],[-73.617201,45.484785],[-73.615319,45.486802],[-73.618409,45.488229],[-73.617994,45.489414],[-73.614819,45.493017],[-73.61144,45.491648],[-73.609238,45.494044],[-73.608102,45.493566],[-73.606724,45.495432],[-73.606498,45.495378],[-73.604505,45.495755],[-73.598655,45.501087],[-73.595888,45.502404],[-73.595071,45.503652],[-73.591665,45.508222],[-73.594167,45.509759],[-73.593607,45.510619],[-73.596219,45.511072],[-73.597487,45.51325],[-73.599194,45.513002],[-73.596695,45.514674],[-73.591462,45.5147],[-73.590263,45.515779],[-73.591479,45.516161],[-73.595933,45.518314],[-73.612309,45.525666],[-73.617039,45.527692]]]},"properties":{"id":"jacques-viger","name":"Jacques-Viger"},"bbox":[-73.686348,45.446962,-73.590263,45.530304]},{"type":"Feature","geometry":{"type":"MultiPolygon","coordinates":[[[[-73.84657,45.58031],[-73.848749,45.580402],[-73.847703,45.579038],[-73.84657,45.58031]]],[[[-73.846764,45.578482],[-73.843505,45.579905],[-73.844253,45.580677],[-73.846374,45.579671],[-73.846764,45.578482]]],[[[-73.853069,45.58074],[-73.855115,45.579978],[-73.854101,45.577677],[-73.852267,45.579474],[-73.853069,45.58074]]],[[[-73.85056,45.576959],[-73.850144,45.580137],[-73.851256,45.579594],[-73.853074,45.577356],[-73.851183,45.576264],[-73.85056,45.576959]]],[[[-73.824023,45.816915],[-73.847353,45.812465],[-73.868681,45.808588],[-73.860226,45.802288],[-73.912021,45.766051],[-73.920734,45.771394],[-73.94755,45.789406],[-73.960428,45.779858],[-73.959793,45.779414],[-73.965179,45.77564],[-73.96783,45.772561],[-73.972565,45.768153],[-73.968488,45.765466],[-73.971999,45.765609],[-73.973227,45.76484],[-73.976501,45.76434],[-73.968209,45.758749],[-73.978643,45.750583],[-73.977192,45.749485],[-73.981689,45.745691],[-73.994606,45.75298],[-73.997954,45.755155],[-74.000515,45.752605],[-74.000456,45.749419],[-74.002647,45.748525],[-74.005107,45.749066],[-74.009519,45.751988],[-74.015035,45.753336],[-74.019163,45.749799],[-74.024145,45.747473],[-74.027593,45.743485],[-74.030774,45.743637],[-74.034237,45.746086],[-74.05211,45.757823],[-74.068974,45.750391],[-74.073625,45.748218],[-74.056964,45.737103],[-74.057971,45.735265],[-74.057458,45.731197],[-74.059269,45.730682],[-74.062767,45.730942],[-74.065706,45.73244],[-74.069225,45.730544],[-74.07082,45.72907],[-74.075996,45.726227],[-74.079311,45.72588],[-74.080451,45.723906],[-74.085053,45.722707],[-74.086601,45.720477],[-74.090408,45.718123],[-74.091173,45.71349],[-74.091839,45.711865],[-74.094297,45.710683],[-74.099812,45.707164],[-74.104093,45.705647],[-74.106831,45.703427],[-74.111424,45.70129],[-74.113467,45.699978],[-74.117262,45.699122],[-74.119474,45.699848],[-74.122571,45.699883],[-74.127192,45.697802],[-74.128672,45.697721],[-74.128816,45.700106],[-74.131501,45.700539],[-74.139335,45.698527],[-74.143345,45.697013],[-74.14713,45.696342],[-74.1502,45.694543],[-74.152886,45.693308],[-74.159932,45.691626],[-74.16693,45.688519],[-74.173379,45.689349],[-74.17921,45.690849],[-74.181209,45.690919],[-74.185026,45.689295],[-74.186248,45.687204],[-74.185389,45.685542],[-74.186954,45.684841],[-74.188311,45.686423],[-74.190472,45.687635],[-74.192885,45.687777],[-74.197426,45.685667],[-74.198772,45.684066],[-74.197205,45.682141],[-74.198454,45.681201],[-74.200171,45.681834],[-74.205346,45.682659],[-74.206354,45.682337],[-74.205971,45.680993],[-74.203161,45.679671],[-74.202098,45.677113],[-74.20364,45.674809],[-74.205215,45.674216],[-74.208674,45.671668],[-74.211827,45.670661],[-74.212013,45.671173],[-74.208559,45.685377],[-74.208419,45.686962],[-74.210318,45.686919],[-74.210202,45.687818],[-74.214552,45.686849],[-74.212119,45.698177],[-74.211779,45.700527],[-74.223479,45.699373],[-74.223718,45.697659],[-74.22626,45.687322],[-74.235232,45.696921],[-74.24188,45.696266],[-74.239564,45.691963],[-74.242316,45.690396],[-74.240091,45.687136],[-74.249148,45.683272],[-74.253751,45.688202],[-74.261648,45.68408],[-74.261472,45.683667],[-74.265567,45.68174],[-74.257551,45.672433],[-74.255633,45.670865],[-74.251846,45.664133],[-74.249288,45.663871],[-74.248858,45.663228],[-74.245362,45.646931],[-74.26297,45.649411],[-74.264444,45.643078],[-74.266832,45.635228],[-74.26752,45.632304],[-74.26574,45.631794],[-74.245221,45.628897],[-74.225805,45.626503],[-74.222828,45.625985],[-74.229495,45.600526],[-74.231005,45.591548],[-74.234879,45.576343],[-74.235946,45.574163],[-74.238148,45.565891],[-74.2409,45.551826],[-74.247257,45.554114],[-74.251135,45.553565],[-74.255934,45.55211],[-74.260646,45.551416],[-74.262944,45.551486],[-74.267155,45.549291],[-74.267352,45.545516],[-74.2748,45.5449],[-74.278576,45.527339],[-74.276098,45.527178],[-74.265789,45.529786],[-74.262771,45.53004],[-74.25848,45.53176],[-74.253931,45.532456],[-74.252087,45.532414],[-74.250688,45.531209],[-74.246662,45.530731],[-74.243309,45.528917],[-74.239907,45.53019],[-74.236103,45.530008],[-74.235285,45.529203],[-74.233473,45.529629],[-74.232976,45.527814],[-74.228017,45.527513],[-74.227333,45.526096],[-74.22824,45.524902],[-74.224155,45.524829],[-74.213561,45.526308],[-74.211292,45.526017],[-74.210523,45.52495],[-74.207844,45.524652],[-74.200754,45.525821],[-74.197271,45.526841],[-74.192172,45.526539],[-74.189359,45.527798],[-74.185749,45.528881],[-74.183734,45.528497],[-74.181473,45.528916],[-74.179315,45.528299],[-74.176831,45.526136],[-74.174429,45.523343],[-74.172311,45.51963],[-74.170897,45.515913],[-74.169649,45.511034],[-74.16915,45.504302],[-74.169221,45.501912],[-74.170592,45.50095],[-74.170952,45.499004],[-74.173111,45.496571],[-74.172272,45.495892],[-74.169362,45.496548],[-74.165975,45.495749],[-74.158282,45.497656],[-74.156537,45.496791],[-74.153989,45.495998],[-74.152844,45.496608],[-74.14877,45.497225],[-74.143327,45.494638],[-74.142306,45.494029],[-74.142062,45.493546],[-74.139911,45.493469],[-74.138215,45.492499],[-74.138077,45.491886],[-74.135959,45.492456],[-74.132793,45.490791],[-74.131998,45.488302],[-74.13189,45.485505],[-74.13284,45.483502],[-74.135546,45.482778],[-74.136289,45.481935],[-74.132144,45.479663],[-74.132658,45.47867],[-74.129972,45.474159],[-74.12727,45.471537],[-74.123341,45.468994],[-74.117654,45.466529],[-74.116862,45.465943],[-74.109433,45.464759],[-74.107008,45.463928],[-74.102525,45.462114],[-74.097237,45.461503],[-74.09369,45.460014],[-74.088804,45.458424],[-74.087212,45.460313],[-74.084239,45.461262],[-74.081817,45.461619],[-74.073012,45.464714],[-74.069746,45.465495],[-74.065673,45.464804],[-74.064462,45.466439],[-74.062754,45.467059],[-74.060996,45.466465],[-74.061791,45.46539],[-74.056816,45.460123],[-74.053716,45.458222],[-74.049424,45.458711],[-74.048478,45.46002],[-74.045519,45.462122],[-74.043493,45.462878],[-74.037359,45.466003],[-74.034413,45.466907],[-74.029311,45.466886],[-74.025708,45.468694],[-74.022633,45.469401],[-74.018477,45.470859],[-74.014503,45.474036],[-74.011801,45.475083],[-74.008096,45.475513],[-74.002503,45.478075],[-73.996184,45.477941],[-73.991903,45.477024],[-73.989194,45.47879],[-73.986821,45.479457],[-73.985514,45.480704],[-73.985791,45.483115],[-73.988924,45.481581],[-73.997657,45.481084],[-73.999898,45.481425],[-74,45.48255],[-73.998178,45.482225],[-73.994365,45.483582],[-73.994716,45.484237],[-73.992314,45.4845],[-73.991057,45.48563],[-73.987952,45.485506],[-73.986456,45.486108],[-73.985808,45.485166],[-73.98191,45.487037],[-73.979383,45.487812],[-73.977236,45.489513],[-73.970989,45.492139],[-73.970831,45.493103],[-73.968938,45.49482],[-73.963859,45.496416],[-73.963173,45.497057],[-73.958158,45.498715],[-73.959399,45.500204],[-73.959526,45.501679],[-73.95592,45.50676],[-73.952589,45.509491],[-73.953279,45.510901],[-73.951264,45.513401],[-73.950185,45.512992],[-73.948709,45.514059],[-73.951089,45.51557],[-73.949747,45.516927],[-73.946044,45.51856],[-73.941471,45.519747],[-73.937162,45.520367],[-73.932666,45.519916],[-73.93025,45.520348],[-73.929782,45.52107],[-73.924451,45.522053],[-73.921639,45.524321],[-73.919586,45.527173],[-73.918136,45.528384],[-73.911754,45.531016],[-73.908827,45.531108],[-73.904386,45.531862],[-73.900865,45.530146],[-73.895124,45.53112],[-73.891957,45.53051],[-73.887636,45.533287],[-73.883521,45.534462],[-73.88178,45.536322],[-73.884686,45.538193],[-73.884926,45.539523],[-73.886436,45.541228],[-73.889572,45.542936],[-73.890404,45.544679],[-73.890737,45.548415],[-73.890188,45.552346],[-73.888852,45.553593],[-73.88611,45.561016],[-73.884251,45.562579],[-73.87677,45.564539],[-73.875857,45.564092],[-73.87488,45.565508],[-73.870376,45.568168],[-73.867401,45.568036],[-73.866061,45.56856],[-73.866254,45.570647],[-73.864637,45.572254],[-73.860869,45.574021],[-73.859124,45.573684],[-73.856534,45.575429],[-73.855637,45.577429],[-73.856993,45.579135],[-73.856511,45.579937],[-73.853814,45.581016],[-73.853782,45.582051],[-73.849894,45.5811],[-73.844108,45.582072],[-73.843523,45.582811],[-73.840756,45.583018],[-73.840198,45.584054],[-73.837111,45.586421],[-73.83431,45.587266],[-73.833472,45.588591],[-73.834684,45.589865],[-73.834076,45.591091],[-73.835307,45.593247],[-73.836796,45.593747],[-73.835134,45.596613],[-73.833574,45.597202],[-73.833401,45.59831],[-73.828954,45.600554],[-73.829805,45.603647],[-73.829315,45.605367],[-73.831349,45.606882],[-73.831596,45.605243],[-73.832203,45.608076],[-73.831607,45.609311],[-73.829236,45.609389],[-73.827287,45.611555],[-73.825484,45.610084],[-73.821554,45.61347],[-73.818575,45.615026],[-73.815793,45.614961],[-73.813885,45.61548],[-73.810441,45.618552],[-73.809047,45.619416],[-73.805572,45.619317],[-73.804472,45.619905],[-73.802391,45.619326],[-73.801931,45.621883],[-73.80034,45.621788],[-73.800827,45.619231],[-73.795508,45.622295],[-73.794352,45.624386],[-73.792614,45.625515],[-73.790827,45.629659],[-73.792689,45.630077],[-73.791094,45.631602],[-73.788373,45.631267],[-73.786026,45.633747],[-73.782695,45.634574],[-73.780295,45.636884],[-73.780485,45.638908],[-73.781586,45.638374],[-73.780161,45.640888],[-73.782292,45.641108],[-73.779867,45.643633],[-73.77586,45.64538],[-73.774321,45.64542],[-73.770606,45.649298],[-73.770561,45.65041],[-73.77095,45.651402],[-73.770099,45.653078],[-73.771173,45.654938],[-73.772784,45.656428],[-73.774496,45.655056],[-73.778852,45.655049],[-73.778947,45.655109],[-73.774408,45.655263],[-73.773002,45.656554],[-73.772037,45.656025],[-73.771083,45.655046],[-73.769868,45.653142],[-73.770394,45.650495],[-73.767848,45.653812],[-73.767399,45.654668],[-73.763529,45.658402],[-73.759484,45.660634],[-73.755689,45.661426],[-73.754142,45.662743],[-73.752154,45.662981],[-73.750608,45.664397],[-73.750849,45.666736],[-73.749266,45.668521],[-73.746413,45.669999],[-73.755333,45.679634],[-73.756611,45.680716],[-73.758232,45.679782],[-73.761243,45.681677],[-73.767067,45.685805],[-73.772341,45.681819],[-73.777596,45.685573],[-73.777287,45.68308],[-73.778629,45.681525],[-73.780707,45.680733],[-73.781662,45.681597],[-73.783381,45.680327],[-73.806214,45.695511],[-73.846464,45.721762],[-73.842009,45.721826],[-73.839233,45.722695],[-73.836194,45.722434],[-73.835244,45.721727],[-73.830595,45.721291],[-73.817425,45.719524],[-73.813033,45.719704],[-73.809908,45.719475],[-73.801684,45.719537],[-73.797534,45.716404],[-73.793943,45.717371],[-73.792544,45.715809],[-73.788324,45.715371],[-73.786109,45.715768],[-73.779593,45.714354],[-73.771013,45.712858],[-73.764762,45.712778],[-73.761035,45.714193],[-73.755688,45.717114],[-73.758601,45.726316],[-73.758891,45.728485],[-73.757546,45.729719],[-73.751975,45.730682],[-73.750946,45.732755],[-73.745335,45.732389],[-73.74627,45.735847],[-73.747505,45.738531],[-73.750461,45.750096],[-73.7307,45.754319],[-73.747635,45.766124],[-73.77642,45.785337],[-73.784907,45.790224],[-73.793865,45.79661],[-73.807494,45.805698],[-73.824023,45.816915]]],[[[-73.756731,45.659138],[-73.758401,45.659602],[-73.763611,45.656845],[-73.765681,45.654897],[-73.76634,45.653321],[-73.763713,45.653894],[-73.756731,45.659138]]],[[[-73.801186,45.6169],[-73.802598,45.617148],[-73.804221,45.616145],[-73.801186,45.6169]]],[[[-73.802658,45.611731],[-73.801042,45.614029],[-73.802438,45.613585],[-73.802658,45.611731]]],[[[-73.80362,45.618774],[-73.808338,45.618806],[-73.808302,45.616826],[-73.805862,45.616239],[-73.80362,45.618774]]],[[[-73.803802,45.612159],[-73.803462,45.613366],[-73.800575,45.615308],[-73.801588,45.615351],[-73.804761,45.61401],[-73.80662,45.614087],[-73.806632,45.611567],[-73.805013,45.610923],[-73.803802,45.612159]]],[[[-73.793322,45.621086],[-73.791912,45.623753],[-73.792646,45.624282],[-73.794389,45.621488],[-73.797947,45.620345],[-73.79894,45.618966],[-73.797915,45.616737],[-73.794956,45.617303],[-73.794283,45.618519],[-73.795775,45.619289],[-73.794263,45.6195],[-73.793322,45.621086]]],[[[-73.842517,45.579737],[-73.841863,45.581683],[-73.843063,45.581031],[-73.842517,45.579737]]],[[[-73.809324,45.613737],[-73.810085,45.61468],[-73.811921,45.612686],[-73.810216,45.612736],[-73.809324,45.613737]]],[[[-73.837306,45.582443],[-73.838895,45.582492],[-73.840745,45.581227],[-73.84024,45.580266],[-73.838551,45.580685],[-73.837306,45.582443]]],[[[-73.815623,45.60986],[-73.813626,45.610324],[-73.812388,45.613648],[-73.815452,45.611426],[-73.814551,45.610763],[-73.815623,45.60986]]],[[[-73.826455,45.609622],[-73.82715,45.609998],[-73.82882,45.608356],[-73.828522,45.605693],[-73.827863,45.604831],[-73.828404,45.602976],[-73.828231,45.599818],[-73.826576,45.599472],[-73.826039,45.601885],[-73.826848,45.604429],[-73.825621,45.609481],[-73.826455,45.609622]]],[[[-73.815317,45.612479],[-73.814183,45.613778],[-73.820985,45.612625],[-73.821475,45.610815],[-73.821016,45.60908],[-73.81951,45.608049],[-73.816801,45.609605],[-73.815317,45.612479]]]]},"properties":{"id":"joseph-olivier-chenier","name":"Joseph-Olivier Ch\u00eanier"},"bbox":[-74.278576,45.458222,-73.7307,45.816915]},{"type":"Feature","geometry":{"type":"MultiPolygon","coordinates":[[[[-73.567264,45.668108],[-73.568226,45.668188],[-73.569777,45.666504],[-73.567006,45.667514],[-73.567264,45.668108]]],[[[-73.685751,45.688519],[-73.687899,45.689631],[-73.690247,45.689133],[-73.687535,45.688219],[-73.685751,45.688519]]],[[[-73.537123,45.696969],[-73.531807,45.698438],[-73.533644,45.698635],[-73.540731,45.697571],[-73.537123,45.696969]]],[[[-73.543147,45.682426],[-73.540593,45.684254],[-73.540108,45.687286],[-73.542443,45.686377],[-73.543802,45.683659],[-73.543147,45.682426]]],[[[-73.536484,45.683086],[-73.532148,45.687091],[-73.531559,45.69042],[-73.533626,45.68979],[-73.534754,45.688188],[-73.535099,45.685623],[-73.536484,45.683086]]],[[[-73.65467,45.688889],[-73.657379,45.688949],[-73.658979,45.687102],[-73.658393,45.68434],[-73.655865,45.684758],[-73.653123,45.686669],[-73.652178,45.688308],[-73.65467,45.688889]]],[[[-73.537088,45.6834],[-73.535677,45.68556],[-73.535179,45.688962],[-73.536616,45.688466],[-73.538964,45.686594],[-73.540772,45.683021],[-73.543852,45.681652],[-73.544595,45.6796],[-73.541232,45.68024],[-73.537536,45.682167],[-73.537088,45.6834]]],[[[-73.667261,45.691976],[-73.669717,45.693106],[-73.67515,45.693539],[-73.679283,45.693406],[-73.682093,45.692709],[-73.685612,45.692901],[-73.688993,45.690403],[-73.684417,45.688836],[-73.683566,45.687488],[-73.681533,45.686348],[-73.677038,45.685735],[-73.67547,45.685152],[-73.671798,45.685194],[-73.670003,45.685691],[-73.666966,45.687603],[-73.664157,45.688678],[-73.661293,45.688475],[-73.658864,45.687606],[-73.657471,45.689848],[-73.658655,45.690584],[-73.663884,45.691882],[-73.667261,45.691976]]],[[[-73.690734,45.68264],[-73.692815,45.681669],[-73.697919,45.680292],[-73.702001,45.680195],[-73.706952,45.679125],[-73.707827,45.679636],[-73.711355,45.678982],[-73.713743,45.679184],[-73.715345,45.678632],[-73.722945,45.678744],[-73.726015,45.679179],[-73.731382,45.676423],[-73.734547,45.675103],[-73.734759,45.673672],[-73.733525,45.673117],[-73.736324,45.670277],[-73.739753,45.667849],[-73.742178,45.667745],[-73.744677,45.66692],[-73.746914,45.664801],[-73.748235,45.664555],[-73.748856,45.662808],[-73.75083,45.661861],[-73.752144,45.660759],[-73.753878,45.658109],[-73.759352,45.654156],[-73.759564,45.653012],[-73.764211,45.650698],[-73.7683,45.647278],[-73.766527,45.646761],[-73.767505,45.64468],[-73.769164,45.64554],[-73.771286,45.643888],[-73.77192,45.644984],[-73.774058,45.641524],[-73.772057,45.638856],[-73.775728,45.636679],[-73.775973,45.634456],[-73.778164,45.63383],[-73.778556,45.632794],[-73.781903,45.632588],[-73.783936,45.631359],[-73.785603,45.631247],[-73.786324,45.629247],[-73.784453,45.626993],[-73.78411,45.625195],[-73.785543,45.624561],[-73.784505,45.622215],[-73.785133,45.619676],[-73.787598,45.617609],[-73.787451,45.616413],[-73.788942,45.614609],[-73.795545,45.612109],[-73.797065,45.60874],[-73.798105,45.608872],[-73.796291,45.61271],[-73.797265,45.612528],[-73.800097,45.609821],[-73.799341,45.607636],[-73.803165,45.608121],[-73.807058,45.607436],[-73.806848,45.606518],[-73.809968,45.608349],[-73.80804,45.606371],[-73.809753,45.605629],[-73.810604,45.604043],[-73.810439,45.602046],[-73.81415,45.600992],[-73.816266,45.601049],[-73.819876,45.60246],[-73.820511,45.603754],[-73.822085,45.603264],[-73.823135,45.605169],[-73.822881,45.607896],[-73.824187,45.607577],[-73.825519,45.605072],[-73.824668,45.604319],[-73.824989,45.599864],[-73.823586,45.596628],[-73.82632,45.595235],[-73.825983,45.592293],[-73.827962,45.593178],[-73.830032,45.592074],[-73.830869,45.59056],[-73.829852,45.589771],[-73.830585,45.588069],[-73.828557,45.585285],[-73.830396,45.584209],[-73.829224,45.581],[-73.829665,45.579838],[-73.832183,45.57876],[-73.833214,45.57963],[-73.835142,45.578621],[-73.840111,45.578079],[-73.841056,45.577537],[-73.845219,45.577174],[-73.847988,45.575491],[-73.849312,45.57609],[-73.849643,45.573777],[-73.851428,45.572385],[-73.850268,45.571138],[-73.850856,45.568905],[-73.85017,45.567863],[-73.851857,45.567093],[-73.853446,45.567232],[-73.858277,45.565399],[-73.859046,45.563417],[-73.864757,45.561069],[-73.865656,45.559536],[-73.868385,45.558474],[-73.870281,45.557641],[-73.872631,45.558506],[-73.876153,45.558539],[-73.878203,45.556706],[-73.879768,45.556962],[-73.880919,45.558649],[-73.883183,45.556203],[-73.8815,45.555543],[-73.878145,45.555671],[-73.878606,45.553672],[-73.879781,45.553191],[-73.879728,45.55105],[-73.881257,45.547967],[-73.879536,45.547226],[-73.878502,45.543918],[-73.879886,45.542123],[-73.8812,45.541507],[-73.880463,45.540474],[-73.881576,45.538419],[-73.878418,45.535298],[-73.879452,45.532937],[-73.882582,45.531847],[-73.885042,45.528401],[-73.88573,45.52605],[-73.88267,45.52409],[-73.880503,45.523494],[-73.880405,45.522352],[-73.878427,45.521359],[-73.87334,45.520575],[-73.87027,45.52081],[-73.863062,45.520707],[-73.859331,45.521745],[-73.854288,45.521878],[-73.851579,45.522624],[-73.847839,45.522177],[-73.846456,45.522154],[-73.843499,45.520129],[-73.832925,45.519953],[-73.828512,45.52047],[-73.826063,45.519802],[-73.822021,45.517969],[-73.817253,45.518213],[-73.81047,45.519279],[-73.805069,45.517062],[-73.802509,45.517086],[-73.796381,45.515258],[-73.79112,45.515208],[-73.789345,45.516023],[-73.786582,45.516228],[-73.783834,45.514561],[-73.781451,45.514054],[-73.779164,45.514788],[-73.776528,45.514966],[-73.772195,45.513554],[-73.767199,45.512621],[-73.766316,45.513276],[-73.761389,45.515559],[-73.757028,45.519177],[-73.755393,45.519874],[-73.756027,45.521267],[-73.757716,45.521263],[-73.758591,45.522152],[-73.757184,45.523073],[-73.755479,45.524778],[-73.752091,45.525739],[-73.748658,45.525297],[-73.746437,45.526796],[-73.743314,45.529898],[-73.738154,45.532734],[-73.729694,45.533561],[-73.72899,45.533827],[-73.725813,45.536169],[-73.7245,45.537819],[-73.721651,45.538777],[-73.720678,45.539293],[-73.716581,45.539598],[-73.715407,45.540608],[-73.713079,45.541233],[-73.707247,45.546832],[-73.699802,45.548996],[-73.69726,45.551025],[-73.690051,45.551487],[-73.68634,45.552456],[-73.679128,45.556148],[-73.677364,45.557858],[-73.676129,45.559716],[-73.672707,45.563149],[-73.671026,45.566292],[-73.671692,45.566237],[-73.67541,45.563118],[-73.675238,45.565368],[-73.672771,45.56745],[-73.669753,45.573178],[-73.670272,45.575382],[-73.668316,45.577612],[-73.667135,45.580461],[-73.660161,45.588651],[-73.657749,45.589993],[-73.656543,45.588536],[-73.656257,45.58891],[-73.657551,45.590202],[-73.655992,45.591887],[-73.653658,45.596056],[-73.651191,45.598435],[-73.648376,45.600229],[-73.645576,45.603094],[-73.643739,45.60684],[-73.643207,45.609324],[-73.641677,45.612539],[-73.641963,45.619359],[-73.640558,45.621574],[-73.638524,45.623475],[-73.639155,45.624501],[-73.638966,45.626039],[-73.635643,45.630767],[-73.631252,45.634309],[-73.626873,45.637481],[-73.625156,45.638203],[-73.621327,45.641041],[-73.619302,45.642042],[-73.618355,45.643312],[-73.614115,45.64643],[-73.609436,45.648243],[-73.606282,45.648912],[-73.6015,45.651076],[-73.599911,45.652508],[-73.595424,45.654698],[-73.593336,45.656392],[-73.591283,45.656672],[-73.586031,45.659453],[-73.583794,45.659503],[-73.581883,45.660558],[-73.578074,45.661523],[-73.57147,45.665432],[-73.568766,45.668566],[-73.565032,45.669261],[-73.560377,45.672836],[-73.556952,45.675051],[-73.55463,45.675799],[-73.550152,45.678626],[-73.549037,45.679823],[-73.546321,45.686879],[-73.54473,45.688175],[-73.5407,45.689698],[-73.532524,45.694991],[-73.529264,45.697611],[-73.531268,45.698114],[-73.535055,45.697015],[-73.53788,45.696654],[-73.541309,45.697481],[-73.547114,45.698171],[-73.551134,45.699429],[-73.553548,45.699581],[-73.559557,45.698777],[-73.564191,45.697299],[-73.570135,45.695955],[-73.575974,45.694017],[-73.576886,45.694025],[-73.582264,45.69242],[-73.588784,45.690768],[-73.595225,45.688522],[-73.600167,45.687564],[-73.603415,45.687885],[-73.613,45.691539],[-73.616186,45.692165],[-73.624326,45.69204],[-73.626044,45.691039],[-73.628169,45.68849],[-73.633535,45.688007],[-73.641383,45.689357],[-73.645735,45.689351],[-73.64934,45.688402],[-73.652312,45.685851],[-73.655324,45.68402],[-73.658121,45.683306],[-73.660383,45.68422],[-73.663447,45.68732],[-73.666163,45.685508],[-73.668345,45.685352],[-73.670229,45.684323],[-73.67734,45.68397],[-73.681452,45.68499],[-73.685369,45.68537],[-73.687382,45.684818],[-73.690734,45.68264]]],[[[-73.716291,45.680943],[-73.717627,45.681156],[-73.72095,45.68052],[-73.721421,45.67961],[-73.716015,45.679261],[-73.714066,45.679696],[-73.716291,45.680943]]],[[[-73.686605,45.686592],[-73.692078,45.687663],[-73.694155,45.686688],[-73.695485,45.685164],[-73.69938,45.683025],[-73.700983,45.682779],[-73.703147,45.681165],[-73.700347,45.680756],[-73.698243,45.680985],[-73.692473,45.683082],[-73.686605,45.686592]]],[[[-73.792594,45.61676],[-73.790565,45.618538],[-73.790085,45.620086],[-73.792343,45.617867],[-73.792594,45.61676]]],[[[-73.836651,45.580008],[-73.834776,45.581614],[-73.83726,45.580568],[-73.836651,45.580008]]],[[[-73.820201,45.605537],[-73.81896,45.6059],[-73.819518,45.607078],[-73.821241,45.605849],[-73.820201,45.605537]]],[[[-73.818415,45.602573],[-73.817657,45.604563],[-73.819825,45.604773],[-73.819624,45.603289],[-73.818415,45.602573]]],[[[-73.812784,45.601913],[-73.811213,45.602898],[-73.812146,45.604704],[-73.815015,45.601979],[-73.812784,45.601913]]],[[[-73.811179,45.608315],[-73.812295,45.608555],[-73.816569,45.60705],[-73.816794,45.603738],[-73.815755,45.603651],[-73.813204,45.605925],[-73.811179,45.608315]]],[[[-73.753917,45.524682],[-73.755081,45.52459],[-73.757538,45.521507],[-73.755644,45.521673],[-73.755138,45.520127],[-73.753795,45.520454],[-73.754281,45.523143],[-73.753917,45.524682]]],[[[-73.746283,45.523682],[-73.746572,45.52531],[-73.750204,45.524493],[-73.752037,45.525137],[-73.753541,45.523684],[-73.752824,45.520843],[-73.751262,45.520612],[-73.749178,45.521336],[-73.746283,45.523682]]],[[[-73.853063,45.512208],[-73.851499,45.513806],[-73.852282,45.514145],[-73.853873,45.512836],[-73.853063,45.512208]]],[[[-73.881118,45.533183],[-73.879748,45.535014],[-73.880853,45.53565],[-73.881755,45.534585],[-73.881118,45.533183]]],[[[-73.886567,45.526785],[-73.889412,45.525228],[-73.888736,45.523871],[-73.887286,45.52339],[-73.885438,45.524503],[-73.886567,45.526785]]],[[[-73.850722,45.516499],[-73.851293,45.517703],[-73.852749,45.517284],[-73.854975,45.515109],[-73.854149,45.513951],[-73.852124,45.515532],[-73.850111,45.514971],[-73.848468,45.516236],[-73.850722,45.516499]]],[[[-73.850346,45.521944],[-73.852902,45.521207],[-73.85641,45.521322],[-73.857763,45.520751],[-73.861128,45.520525],[-73.861808,45.518768],[-73.859225,45.517102],[-73.856607,45.516102],[-73.853659,45.517372],[-73.851837,45.518808],[-73.848306,45.517046],[-73.84706,45.518382],[-73.847035,45.520478],[-73.850346,45.521944]]]]},"properties":{"id":"laval","name":"Laval"},"bbox":[-73.889412,45.512208,-73.529264,45.699581]},{"type":"Feature","geometry":{"type":"MultiPolygon","coordinates":[[[[-73.483516,45.701674],[-73.488584,45.700511],[-73.495287,45.698136],[-73.501605,45.696876],[-73.502774,45.698649],[-73.50235,45.699315],[-73.506395,45.699603],[-73.516975,45.696866],[-73.520634,45.694967],[-73.527141,45.687209],[-73.527859,45.685517],[-73.530631,45.683321],[-73.534043,45.680063],[-73.536493,45.676427],[-73.545487,45.671106],[-73.550492,45.670789],[-73.552519,45.669942],[-73.555686,45.667106],[-73.566729,45.661323],[-73.571387,45.660862],[-73.573106,45.660582],[-73.57381,45.659303],[-73.579067,45.655952],[-73.581978,45.654925],[-73.583608,45.653521],[-73.589451,45.650366],[-73.599131,45.643314],[-73.600764,45.641565],[-73.606571,45.637756],[-73.611897,45.633942],[-73.616753,45.631724],[-73.619138,45.631398],[-73.620663,45.629877],[-73.619728,45.62894],[-73.616412,45.626436],[-73.606364,45.617375],[-73.602568,45.612786],[-73.601714,45.611919],[-73.603425,45.611308],[-73.602526,45.611097],[-73.593434,45.606879],[-73.585241,45.603467],[-73.577195,45.59989],[-73.572533,45.597689],[-73.569851,45.596708],[-73.569568,45.597159],[-73.557523,45.593162],[-73.551835,45.590887],[-73.548934,45.590048],[-73.546743,45.593751],[-73.547995,45.594567],[-73.547388,45.595529],[-73.545371,45.595696],[-73.543939,45.598247],[-73.545091,45.600251],[-73.544485,45.601851],[-73.540675,45.600797],[-73.540225,45.602037],[-73.542947,45.602801],[-73.542188,45.604129],[-73.539686,45.603007],[-73.536948,45.60248],[-73.537678,45.605254],[-73.54126,45.606787],[-73.541537,45.60856],[-73.54121,45.609504],[-73.545401,45.610813],[-73.544862,45.612312],[-73.546533,45.612761],[-73.544111,45.615081],[-73.537946,45.614024],[-73.537244,45.615885],[-73.507415,45.61074],[-73.506449,45.610953],[-73.504295,45.616532],[-73.50177,45.620275],[-73.49982,45.622255],[-73.501,45.622965],[-73.498653,45.625521],[-73.496602,45.62598],[-73.49478,45.627635],[-73.496255,45.62741],[-73.494896,45.629831],[-73.49251,45.630641],[-73.490462,45.632559],[-73.490648,45.632594],[-73.491766,45.631558],[-73.491921,45.632833],[-73.491701,45.634429],[-73.490021,45.63675],[-73.487308,45.639508],[-73.488032,45.641213],[-73.488262,45.644479],[-73.487209,45.647467],[-73.487205,45.648979],[-73.486426,45.649185],[-73.488472,45.655465],[-73.489478,45.65912],[-73.49144,45.663592],[-73.491966,45.666094],[-73.491289,45.67028],[-73.491439,45.671681],[-73.490784,45.676081],[-73.490116,45.678106],[-73.489718,45.682432],[-73.489203,45.684683],[-73.487701,45.687518],[-73.485736,45.688903],[-73.482012,45.692439],[-73.480521,45.694958],[-73.479737,45.697739],[-73.47709,45.702858],[-73.481649,45.701734],[-73.483516,45.701674]]],[[[-73.500732,45.697632],[-73.501528,45.699225],[-73.502568,45.698748],[-73.501605,45.697038],[-73.500732,45.697632]]],[[[-73.492654,45.703625],[-73.499037,45.702338],[-73.499949,45.701592],[-73.499923,45.699864],[-73.498125,45.699468],[-73.494504,45.701762],[-73.492333,45.702482],[-73.492654,45.703625]]],[[[-73.484181,45.648402],[-73.485388,45.645514],[-73.48431,45.646072],[-73.483668,45.648304],[-73.484181,45.648402]]],[[[-73.604539,45.643407],[-73.602645,45.64582],[-73.607142,45.642936],[-73.609229,45.640415],[-73.608099,45.640047],[-73.604856,45.641472],[-73.607421,45.641136],[-73.606962,45.642405],[-73.604191,45.642309],[-73.600693,45.644481],[-73.603027,45.64429],[-73.604539,45.643407]]],[[[-73.612098,45.638603],[-73.616058,45.636701],[-73.616324,45.634955],[-73.611752,45.638343],[-73.612098,45.638603]]],[[[-73.611194,45.635374],[-73.60848,45.637851],[-73.611544,45.637326],[-73.614068,45.635695],[-73.613861,45.634876],[-73.611194,45.635374]]]]},"properties":{"id":"louis-riel","name":"Louis-Riel"},"bbox":[-73.620663,45.590048,-73.47709,45.703625]},{"type":"Feature","geometry":{"type":"MultiPolygon","coordinates":[[[[-73.55366,45.493165],[-73.552659,45.495801],[-73.55286,45.49878],[-73.561632,45.501723],[-73.563294,45.499772],[-73.572284,45.492534],[-73.572563,45.492662],[-73.577175,45.489063],[-73.581111,45.486311],[-73.580593,45.485633],[-73.585124,45.482232],[-73.586118,45.482719],[-73.593829,45.47736],[-73.595765,45.474849],[-73.596493,45.473177],[-73.599397,45.471724],[-73.602715,45.468938],[-73.607477,45.466249],[-73.612496,45.463898],[-73.62116,45.46031],[-73.628113,45.455481],[-73.630824,45.453016],[-73.635084,45.450695],[-73.632576,45.449729],[-73.636938,45.448368],[-73.639503,45.446962],[-73.641137,45.447823],[-73.643947,45.447837],[-73.648369,45.449077],[-73.658688,45.452871],[-73.66824,45.456607],[-73.671879,45.452551],[-73.674969,45.452566],[-73.678009,45.45244],[-73.686348,45.454802],[-73.685363,45.460802],[-73.683147,45.464819],[-73.692344,45.470356],[-73.693675,45.463747],[-73.702097,45.46955],[-73.708361,45.473207],[-73.717342,45.466453],[-73.724891,45.460948],[-73.724205,45.459731],[-73.720824,45.448894],[-73.722324,45.448779],[-73.720876,45.44443],[-73.719405,45.439239],[-73.719943,45.438367],[-73.714068,45.437236],[-73.713221,45.436473],[-73.707992,45.436014],[-73.70533,45.435011],[-73.703617,45.435167],[-73.699372,45.434617],[-73.694984,45.433275],[-73.694201,45.432484],[-73.691979,45.432848],[-73.691514,45.432255],[-73.691371,45.432876],[-73.686652,45.433793],[-73.684388,45.433149],[-73.680386,45.432714],[-73.677456,45.431774],[-73.66916,45.430994],[-73.662814,45.433181],[-73.65933,45.43486],[-73.653278,45.437334],[-73.647432,45.440554],[-73.633423,45.446087],[-73.629238,45.448345],[-73.626761,45.450756],[-73.622395,45.453856],[-73.620147,45.455101],[-73.613965,45.457806],[-73.604393,45.461019],[-73.59927,45.463192],[-73.59548,45.465443],[-73.593035,45.466554],[-73.590478,45.467114],[-73.5852,45.469494],[-73.581144,45.472777],[-73.577319,45.476878],[-73.568375,45.484199],[-73.560896,45.488721],[-73.557101,45.490692],[-73.55351,45.492832],[-73.55366,45.493165]]],[[[-73.552249,45.491379],[-73.552301,45.490876],[-73.555448,45.490883],[-73.559323,45.488911],[-73.565948,45.485134],[-73.570712,45.481534],[-73.572412,45.48057],[-73.574542,45.478328],[-73.576641,45.476518],[-73.580894,45.472025],[-73.584381,45.469035],[-73.589864,45.466781],[-73.592408,45.46633],[-73.595773,45.464965],[-73.598604,45.462968],[-73.603268,45.46093],[-73.6135,45.457498],[-73.621321,45.453974],[-73.6257,45.450919],[-73.629681,45.447405],[-73.632285,45.446053],[-73.645809,45.440754],[-73.650028,45.438717],[-73.655976,45.435694],[-73.658333,45.434816],[-73.665097,45.431441],[-73.665175,45.432026],[-73.673372,45.429323],[-73.678807,45.430431],[-73.683434,45.430792],[-73.682909,45.430253],[-73.678845,45.430215],[-73.677167,45.429272],[-73.673959,45.429044],[-73.669439,45.430481],[-73.666284,45.431008],[-73.673076,45.42864],[-73.675644,45.42842],[-73.680247,45.429232],[-73.685627,45.429034],[-73.688222,45.429282],[-73.687772,45.428536],[-73.677392,45.427688],[-73.67301,45.428028],[-73.668847,45.429168],[-73.66562,45.428186],[-73.66378,45.426836],[-73.659468,45.424952],[-73.653119,45.420957],[-73.649704,45.419953],[-73.64446,45.416772],[-73.639854,45.415458],[-73.632674,45.415806],[-73.63349,45.41479],[-73.629593,45.414588],[-73.628265,45.415057],[-73.62019,45.414949],[-73.615797,45.415907],[-73.611108,45.415903],[-73.607078,45.417925],[-73.604596,45.418591],[-73.602299,45.419898],[-73.599505,45.422591],[-73.596966,45.424491],[-73.594341,45.427461],[-73.591844,45.426359],[-73.592714,45.425477],[-73.59262,45.425209],[-73.58966,45.427242],[-73.588232,45.428863],[-73.591257,45.426782],[-73.593112,45.42777],[-73.591735,45.429589],[-73.588952,45.43176],[-73.583763,45.435044],[-73.577959,45.440002],[-73.575405,45.441893],[-73.56911,45.447199],[-73.566518,45.449979],[-73.563531,45.454408],[-73.560557,45.458567],[-73.560062,45.462455],[-73.559518,45.468043],[-73.556943,45.469209],[-73.553727,45.470448],[-73.5452,45.474466],[-73.541352,45.476824],[-73.540137,45.477167],[-73.539153,45.478832],[-73.537188,45.484772],[-73.537547,45.486427],[-73.539066,45.488262],[-73.550646,45.490459],[-73.552249,45.491379]]],[[[-73.586342,45.421369],[-73.588451,45.421853],[-73.588795,45.421169],[-73.586289,45.420505],[-73.586342,45.421369]]],[[[-73.574069,45.427181],[-73.577392,45.427314],[-73.584226,45.425051],[-73.58075,45.424963],[-73.573736,45.426381],[-73.571372,45.426382],[-73.574069,45.427181]]],[[[-73.571563,45.425959],[-73.573416,45.426165],[-73.578424,45.424821],[-73.582832,45.42426],[-73.584302,45.424529],[-73.586561,45.422619],[-73.584066,45.420461],[-73.579364,45.420861],[-73.573948,45.421962],[-73.570564,45.424412],[-73.570451,45.425726],[-73.571563,45.425959]]],[[[-73.673952,45.430933],[-73.671371,45.431099],[-73.678019,45.431755],[-73.680859,45.432713],[-73.682098,45.432396],[-73.677378,45.431279],[-73.673952,45.430933]]],[[[-73.590407,45.414644],[-73.594688,45.415171],[-73.595389,45.41409],[-73.59351,45.413426],[-73.590407,45.414644]]],[[[-73.557944,45.458275],[-73.559352,45.455715],[-73.559759,45.45333],[-73.562017,45.448983],[-73.561107,45.446599],[-73.559226,45.445241],[-73.554612,45.446071],[-73.552901,45.447872],[-73.550485,45.448566],[-73.547762,45.448603],[-73.54651,45.450187],[-73.546805,45.451177],[-73.545144,45.452266],[-73.542819,45.45494],[-73.539907,45.45926],[-73.539066,45.462968],[-73.533505,45.466731],[-73.532022,45.466776],[-73.533302,45.469422],[-73.534787,45.470492],[-73.537897,45.474621],[-73.539189,45.475062],[-73.542118,45.474395],[-73.544763,45.471955],[-73.547167,45.471099],[-73.548355,45.469614],[-73.551372,45.467732],[-73.554786,45.467353],[-73.556294,45.466146],[-73.55685,45.460153],[-73.557944,45.458275]]]]},"properties":{"id":"marguerite-bourgeoys","name":"Marguerite-Bourgeoys"},"bbox":[-73.724891,45.413426,-73.532022,45.501723]},{"type":"Feature","geometry":{"type":"MultiPolygon","coordinates":[[[[-73.654212,45.58336],[-73.654329,45.583584],[-73.654734,45.582987],[-73.655222,45.581918],[-73.657103,45.580934],[-73.659835,45.57872],[-73.6606,45.576295],[-73.661712,45.575133],[-73.661374,45.577959],[-73.659677,45.580445],[-73.657144,45.582095],[-73.660421,45.58066],[-73.66236,45.577859],[-73.663959,45.576768],[-73.665975,45.573984],[-73.662544,45.570543],[-73.663587,45.56795],[-73.663199,45.56643],[-73.664345,45.56434],[-73.667366,45.563409],[-73.672257,45.559762],[-73.67374,45.557389],[-73.673991,45.555652],[-73.677117,45.551922],[-73.680144,45.549424],[-73.683895,45.548788],[-73.685741,45.549343],[-73.689391,45.547655],[-73.692649,45.547181],[-73.694673,45.54743],[-73.701994,45.545941],[-73.704359,45.544217],[-73.706916,45.54371],[-73.710764,45.539522],[-73.713757,45.53765],[-73.715573,45.53717],[-73.716154,45.534973],[-73.716841,45.537213],[-73.721205,45.536682],[-73.723897,45.535276],[-73.726288,45.533397],[-73.726987,45.532101],[-73.728365,45.530828],[-73.731239,45.529428],[-73.732559,45.529722],[-73.734904,45.527108],[-73.737574,45.525644],[-73.739851,45.525253],[-73.740113,45.523848],[-73.741647,45.523269],[-73.743321,45.519675],[-73.746652,45.517392],[-73.748381,45.517496],[-73.75037,45.515764],[-73.751241,45.513116],[-73.757527,45.510592],[-73.757653,45.510151],[-73.759423,45.509148],[-73.758931,45.508874],[-73.756275,45.50839],[-73.757446,45.507812],[-73.755683,45.506406],[-73.752202,45.504083],[-73.754996,45.503239],[-73.758031,45.501359],[-73.759039,45.502092],[-73.760603,45.50089],[-73.763824,45.502762],[-73.765391,45.503001],[-73.76652,45.502083],[-73.76833,45.503507],[-73.772642,45.502577],[-73.770378,45.501115],[-73.77202,45.500028],[-73.770815,45.499162],[-73.77291,45.497732],[-73.773404,45.497594],[-73.767924,45.494512],[-73.764861,45.490961],[-73.766769,45.488707],[-73.765966,45.48645],[-73.767975,45.484612],[-73.772303,45.482519],[-73.773857,45.482136],[-73.772238,45.480703],[-73.766201,45.476932],[-73.768249,45.475054],[-73.76215,45.46859],[-73.750202,45.461208],[-73.740802,45.468417],[-73.724046,45.481922],[-73.720303,45.480599],[-73.708361,45.473207],[-73.702097,45.46955],[-73.693675,45.463747],[-73.692344,45.470356],[-73.683147,45.464819],[-73.681592,45.468147],[-73.677285,45.483863],[-73.683449,45.487997],[-73.686197,45.489507],[-73.681494,45.49126],[-73.667598,45.502148],[-73.66506,45.503621],[-73.662777,45.507821],[-73.655125,45.519659],[-73.651865,45.524963],[-73.650893,45.527243],[-73.646559,45.533786],[-73.641047,45.542374],[-73.638766,45.545313],[-73.634953,45.549081],[-73.630093,45.55036],[-73.626565,45.551915],[-73.620984,45.554753],[-73.622911,45.555127],[-73.645334,45.564819],[-73.64046,45.570844],[-73.636212,45.575919],[-73.647289,45.580482],[-73.654212,45.58336]]],[[[-73.698988,45.546954],[-73.695981,45.547734],[-73.699041,45.547719],[-73.698988,45.546954]]],[[[-73.759754,45.509332],[-73.757896,45.510168],[-73.758256,45.510644],[-73.756789,45.511628],[-73.754884,45.512092],[-73.757369,45.512572],[-73.761598,45.510358],[-73.759754,45.509332]]],[[[-73.752479,45.517919],[-73.755317,45.517211],[-73.756963,45.516109],[-73.756482,45.514356],[-73.754189,45.514082],[-73.752938,45.514885],[-73.752479,45.517919]]]]},"properties":{"id":"nicolas-viel","name":"Nicolas-Viel"},"bbox":[-73.773857,45.461208,-73.620984,45.583584]},{"type":"Feature","geometry":{"type":"MultiPolygon","coordinates":[[[[-73.758726,45.50876],[-73.759718,45.508436],[-73.759754,45.509332],[-73.761598,45.510358],[-73.767311,45.509319],[-73.76977,45.509511],[-73.771788,45.508741],[-73.776957,45.508468],[-73.780683,45.5089],[-73.782977,45.509587],[-73.787021,45.50946],[-73.790589,45.508866],[-73.796965,45.50938],[-73.799211,45.510715],[-73.800167,45.514807],[-73.805709,45.514792],[-73.808469,45.516225],[-73.81229,45.51576],[-73.816055,45.51543],[-73.818375,45.512901],[-73.821366,45.512966],[-73.824963,45.515495],[-73.826871,45.515652],[-73.829746,45.516966],[-73.832123,45.516356],[-73.836258,45.516506],[-73.841612,45.517102],[-73.84591,45.51654],[-73.848644,45.513752],[-73.848763,45.512221],[-73.850972,45.511378],[-73.855608,45.507773],[-73.85709,45.50533],[-73.858015,45.502025],[-73.859148,45.501085],[-73.857922,45.499406],[-73.855557,45.499711],[-73.853154,45.495993],[-73.853776,45.494872],[-73.857557,45.490202],[-73.859798,45.48889],[-73.864754,45.487291],[-73.865856,45.487665],[-73.869055,45.485846],[-73.868818,45.484776],[-73.870662,45.483114],[-73.871483,45.481492],[-73.874563,45.479187],[-73.87759,45.472726],[-73.879541,45.472189],[-73.882892,45.471862],[-73.884795,45.469633],[-73.885564,45.469828],[-73.88736,45.468778],[-73.890095,45.46858],[-73.892178,45.46653],[-73.893627,45.466966],[-73.89739,45.465694],[-73.899773,45.462671],[-73.901718,45.462889],[-73.902082,45.461862],[-73.903965,45.460595],[-73.907574,45.460987],[-73.908219,45.461795],[-73.91006,45.461734],[-73.911151,45.460561],[-73.912735,45.460339],[-73.914882,45.461915],[-73.917825,45.462192],[-73.919587,45.463563],[-73.921633,45.466884],[-73.921546,45.468945],[-73.922657,45.468833],[-73.922287,45.47058],[-73.924805,45.47211],[-73.925933,45.474157],[-73.928847,45.473912],[-73.932738,45.472566],[-73.934406,45.473244],[-73.938267,45.471411],[-73.94033,45.468659],[-73.939202,45.46662],[-73.941871,45.466187],[-73.942829,45.46442],[-73.945591,45.464409],[-73.945871,45.462572],[-73.943404,45.462753],[-73.941832,45.461229],[-73.943876,45.459349],[-73.946364,45.458656],[-73.947532,45.459164],[-73.94656,45.457476],[-73.944865,45.458185],[-73.943263,45.456157],[-73.940783,45.456176],[-73.938495,45.454655],[-73.938796,45.453826],[-73.936326,45.45361],[-73.937322,45.45169],[-73.937135,45.450556],[-73.940074,45.44889],[-73.943335,45.448994],[-73.948116,45.450514],[-73.951871,45.448556],[-73.950052,45.448041],[-73.950018,45.446953],[-73.95211,45.446395],[-73.952612,45.445277],[-73.955246,45.445276],[-73.956648,45.446422],[-73.960021,45.446184],[-73.960451,45.445534],[-73.957835,45.444546],[-73.958552,45.44313],[-73.964641,45.442134],[-73.965861,45.441283],[-73.968182,45.442128],[-73.967205,45.439874],[-73.968152,45.438556],[-73.970515,45.438303],[-73.97146,45.436671],[-73.972395,45.436892],[-73.973423,45.432919],[-73.97438,45.431313],[-73.974291,45.429739],[-73.975189,45.428682],[-73.975275,45.426747],[-73.974255,45.425438],[-73.970724,45.424967],[-73.970048,45.42362],[-73.970732,45.42134],[-73.968645,45.419333],[-73.966308,45.417849],[-73.965056,45.417971],[-73.963882,45.416509],[-73.965425,45.414577],[-73.961804,45.412369],[-73.959161,45.409473],[-73.957654,45.408531],[-73.956822,45.4078],[-73.957778,45.405888],[-73.956684,45.404885],[-73.951278,45.402954],[-73.948002,45.402201],[-73.943838,45.402299],[-73.939246,45.403072],[-73.936126,45.404407],[-73.931835,45.404531],[-73.930027,45.403575],[-73.927443,45.403135],[-73.925622,45.403835],[-73.923662,45.403203],[-73.92344,45.40414],[-73.9212,45.403581],[-73.91997,45.404792],[-73.918853,45.407531],[-73.916719,45.407458],[-73.914302,45.408844],[-73.908645,45.411015],[-73.905928,45.411573],[-73.900547,45.411241],[-73.897043,45.41263],[-73.895436,45.414184],[-73.892084,45.414177],[-73.888895,45.414908],[-73.886591,45.414286],[-73.882219,45.415848],[-73.880484,45.414235],[-73.878342,45.415024],[-73.878646,45.416454],[-73.876582,45.417289],[-73.875556,45.418777],[-73.87287,45.420217],[-73.870468,45.420216],[-73.868124,45.421357],[-73.86451,45.421728],[-73.86093,45.423413],[-73.861356,45.424033],[-73.858971,45.424724],[-73.856223,45.424616],[-73.8515,45.427537],[-73.845852,45.429678],[-73.840142,45.428031],[-73.839894,45.427249],[-73.835222,45.425868],[-73.833355,45.42797],[-73.831333,45.428447],[-73.826748,45.427908],[-73.826324,45.425254],[-73.823611,45.426864],[-73.821718,45.426545],[-73.820715,45.427682],[-73.822114,45.428857],[-73.818302,45.430352],[-73.818286,45.432152],[-73.815978,45.433094],[-73.811453,45.432909],[-73.81,45.433785],[-73.807203,45.433991],[-73.806185,45.434885],[-73.803599,45.434055],[-73.802674,45.435533],[-73.803961,45.437167],[-73.803617,45.439796],[-73.802464,45.441661],[-73.802776,45.442623],[-73.801094,45.44369],[-73.798732,45.444308],[-73.798113,45.445695],[-73.79563,45.447501],[-73.792757,45.448139],[-73.785583,45.447698],[-73.781947,45.446717],[-73.778618,45.44499],[-73.775793,45.443034],[-73.773896,45.439277],[-73.772176,45.44046],[-73.769583,45.440844],[-73.766098,45.439115],[-73.765263,45.438253],[-73.764222,45.439795],[-73.76063,45.439407],[-73.756967,45.4382],[-73.754798,45.436235],[-73.753093,45.437867],[-73.750599,45.437495],[-73.748942,45.435609],[-73.747299,45.436998],[-73.745015,45.437876],[-73.739634,45.43804],[-73.73917,45.437515],[-73.738176,45.437872],[-73.735604,45.437167],[-73.733714,45.437594],[-73.730974,45.436429],[-73.727973,45.43693],[-73.726941,45.43785],[-73.72348,45.438523],[-73.719943,45.438367],[-73.719405,45.439239],[-73.720876,45.44443],[-73.722324,45.448779],[-73.720824,45.448894],[-73.724205,45.459731],[-73.724891,45.460948],[-73.717342,45.466453],[-73.708361,45.473207],[-73.720303,45.480599],[-73.724046,45.481922],[-73.740802,45.468417],[-73.750202,45.461208],[-73.76215,45.46859],[-73.768249,45.475054],[-73.766201,45.476932],[-73.772238,45.480703],[-73.773857,45.482136],[-73.772303,45.482519],[-73.767975,45.484612],[-73.765966,45.48645],[-73.766769,45.488707],[-73.764861,45.490961],[-73.767924,45.494512],[-73.773404,45.497594],[-73.77291,45.497732],[-73.770815,45.499162],[-73.77202,45.500028],[-73.770378,45.501115],[-73.772642,45.502577],[-73.76833,45.503507],[-73.76652,45.502083],[-73.765391,45.503001],[-73.763824,45.502762],[-73.760603,45.50089],[-73.759039,45.502092],[-73.758031,45.501359],[-73.754996,45.503239],[-73.752202,45.504083],[-73.755683,45.506406],[-73.758131,45.508358],[-73.758726,45.50876]]],[[[-73.818181,45.513453],[-73.818171,45.514002],[-73.821178,45.513868],[-73.821058,45.512987],[-73.818181,45.513453]]],[[[-73.856018,45.507871],[-73.858393,45.507045],[-73.857054,45.505807],[-73.856018,45.507871]]],[[[-73.8917,45.518749],[-73.893239,45.517899],[-73.896511,45.517258],[-73.898346,45.5161],[-73.899967,45.51721],[-73.902346,45.516949],[-73.901177,45.516387],[-73.902708,45.515625],[-73.902004,45.513909],[-73.902903,45.510676],[-73.906469,45.508215],[-73.909477,45.508366],[-73.912405,45.506214],[-73.912767,45.503253],[-73.91453,45.501096],[-73.917489,45.501445],[-73.922657,45.499527],[-73.924414,45.496677],[-73.92704,45.493644],[-73.928949,45.494015],[-73.931259,45.493313],[-73.934982,45.493281],[-73.93541,45.492307],[-73.940042,45.48914],[-73.94093,45.486581],[-73.941215,45.48371],[-73.943389,45.483611],[-73.943702,45.482809],[-73.941046,45.483422],[-73.940787,45.481318],[-73.938523,45.481353],[-73.938751,45.479355],[-73.941617,45.479425],[-73.942839,45.478691],[-73.944326,45.475887],[-73.942916,45.475478],[-73.940631,45.476117],[-73.935046,45.476651],[-73.933508,45.476225],[-73.931424,45.477997],[-73.929419,45.476763],[-73.927748,45.477399],[-73.926605,45.476746],[-73.924743,45.477482],[-73.921827,45.474109],[-73.919716,45.474036],[-73.917773,45.470732],[-73.915906,45.470685],[-73.912567,45.468888],[-73.914005,45.467884],[-73.90844,45.469335],[-73.90435,45.469611],[-73.901599,45.467766],[-73.89895,45.469296],[-73.899698,45.470095],[-73.904188,45.47025],[-73.899788,45.472047],[-73.896297,45.47214],[-73.892021,45.47148],[-73.889615,45.473045],[-73.887445,45.475626],[-73.884747,45.477615],[-73.878442,45.481496],[-73.878547,45.483773],[-73.877415,45.485598],[-73.876185,45.486471],[-73.872379,45.48553],[-73.870995,45.487055],[-73.868599,45.488385],[-73.866182,45.490472],[-73.864254,45.491153],[-73.864306,45.493294],[-73.86314,45.494981],[-73.861495,45.495832],[-73.861071,45.497543],[-73.863208,45.499615],[-73.863396,45.502899],[-73.860356,45.503844],[-73.859595,45.504872],[-73.859799,45.506824],[-73.858354,45.509006],[-73.855535,45.510518],[-73.855029,45.511392],[-73.857564,45.513526],[-73.857302,45.514589],[-73.861291,45.516007],[-73.864287,45.518175],[-73.86368,45.519275],[-73.867952,45.518739],[-73.869378,45.519517],[-73.871259,45.51943],[-73.879967,45.520076],[-73.882815,45.520985],[-73.886024,45.520398],[-73.887533,45.518296],[-73.8917,45.518749]]],[[[-73.874868,45.484549],[-73.877054,45.48447],[-73.877178,45.481923],[-73.875337,45.4821],[-73.874868,45.484549]]],[[[-73.859622,45.491032],[-73.861304,45.490046],[-73.860063,45.489897],[-73.859622,45.491032]]],[[[-73.722789,45.431865],[-73.724835,45.432077],[-73.723783,45.431053],[-73.722789,45.431865]]],[[[-73.737007,45.43333],[-73.739463,45.433838],[-73.741954,45.433518],[-73.744154,45.433855],[-73.746358,45.432159],[-73.744474,45.431182],[-73.740229,45.430534],[-73.738684,45.431023],[-73.737007,45.43333]]],[[[-73.959691,45.405466],[-73.956011,45.403853],[-73.951799,45.402672],[-73.95731,45.404945],[-73.959691,45.405466]]],[[[-73.973405,45.421644],[-73.974487,45.422656],[-73.975689,45.421257],[-73.975386,45.42016],[-73.971329,45.420933],[-73.973405,45.421644]]]]},"properties":{"id":"ouest-de-l-ile","name":"Ouest-de-l'\u00eele"},"bbox":[-73.975689,45.402201,-73.708361,45.520985]},{"type":"Feature","geometry":{"type":"MultiPolygon","coordinates":[[[[-73.325247,45.809425],[-73.32223,45.811238],[-73.323711,45.811078],[-73.327784,45.808583],[-73.325247,45.809425]]],[[[-73.346764,45.812614],[-73.342762,45.817126],[-73.345284,45.817093],[-73.348903,45.816207],[-73.356751,45.811719],[-73.359098,45.809706],[-73.361992,45.804761],[-73.360539,45.80466],[-73.354653,45.807028],[-73.351236,45.809912],[-73.346764,45.812614]]],[[[-73.28528,45.843702],[-73.288736,45.842332],[-73.291511,45.840268],[-73.297568,45.838578],[-73.300566,45.838934],[-73.304061,45.83723],[-73.308125,45.834673],[-73.309898,45.831743],[-73.311759,45.829703],[-73.317989,45.825421],[-73.321342,45.823573],[-73.32643,45.822114],[-73.327745,45.821126],[-73.334265,45.81841],[-73.336247,45.818529],[-73.342364,45.816792],[-73.34447,45.813853],[-73.347669,45.811104],[-73.351341,45.809147],[-73.352154,45.808204],[-73.356715,45.805672],[-73.360141,45.804398],[-73.362289,45.804266],[-73.363798,45.802774],[-73.363788,45.801649],[-73.366976,45.797343],[-73.369243,45.796086],[-73.371206,45.792849],[-73.375471,45.789272],[-73.3769,45.788635],[-73.376157,45.787357],[-73.370977,45.785929],[-73.365702,45.786733],[-73.363643,45.787468],[-73.360988,45.789436],[-73.354911,45.791687],[-73.35182,45.7935],[-73.3508,45.794894],[-73.344435,45.798853],[-73.341006,45.801359],[-73.337644,45.802686],[-73.33299,45.805874],[-73.327364,45.811381],[-73.32413,45.812627],[-73.326086,45.812711],[-73.321461,45.81426],[-73.316248,45.818715],[-73.311401,45.821298],[-73.306034,45.825006],[-73.30407,45.827315],[-73.300237,45.830187],[-73.299022,45.831634],[-73.292759,45.837012],[-73.292431,45.838739],[-73.291088,45.839826],[-73.287929,45.841143],[-73.28528,45.843702]]],[[[-73.344834,45.871344],[-73.357983,45.880604],[-73.373488,45.891301],[-73.381932,45.897544],[-73.392043,45.905235],[-73.402033,45.912516],[-73.421258,45.926197],[-73.424905,45.928387],[-73.425256,45.926246],[-73.42838,45.924034],[-73.429917,45.924422],[-73.450542,45.939641],[-73.45637,45.94376],[-73.45746,45.937906],[-73.457729,45.935003],[-73.45966,45.925756],[-73.460839,45.915943],[-73.461124,45.915274],[-73.462801,45.904686],[-73.465484,45.904733],[-73.469932,45.90307],[-73.472395,45.89984],[-73.474625,45.899661],[-73.478582,45.898384],[-73.478415,45.897502],[-73.481632,45.896376],[-73.480568,45.892949],[-73.482063,45.891654],[-73.484963,45.891259],[-73.486509,45.892383],[-73.490078,45.893553],[-73.489536,45.895722],[-73.488273,45.897063],[-73.488634,45.898493],[-73.487164,45.900032],[-73.488839,45.901058],[-73.490064,45.900653],[-73.491443,45.901904],[-73.493505,45.902021],[-73.492731,45.901031],[-73.495644,45.899097],[-73.497771,45.89943],[-73.500747,45.900941],[-73.5004,45.899367],[-73.501356,45.898054],[-73.510742,45.891659],[-73.513933,45.889653],[-73.532513,45.876576],[-73.524698,45.87105],[-73.526887,45.870895],[-73.52833,45.869594],[-73.528587,45.871252],[-73.531819,45.872505],[-73.533481,45.871955],[-73.528623,45.868901],[-73.53094,45.867246],[-73.537073,45.871536],[-73.538014,45.870817],[-73.535426,45.868958],[-73.536691,45.867947],[-73.535629,45.867257],[-73.538456,45.866365],[-73.531846,45.861872],[-73.53538,45.860795],[-73.538712,45.842073],[-73.542516,45.843485],[-73.546026,45.843368],[-73.549018,45.840417],[-73.553813,45.837856],[-73.554525,45.83664],[-73.557113,45.836351],[-73.557658,45.832936],[-73.55942,45.824923],[-73.562704,45.825385],[-73.562543,45.826353],[-73.577038,45.827697],[-73.57857,45.821285],[-73.557165,45.817731],[-73.549467,45.816325],[-73.550476,45.793408],[-73.544143,45.793167],[-73.529729,45.79379],[-73.52612,45.793748],[-73.526061,45.777368],[-73.52948,45.754235],[-73.520121,45.749016],[-73.51919,45.746719],[-73.516741,45.745478],[-73.516801,45.744177],[-73.515681,45.743433],[-73.501869,45.736476],[-73.500424,45.729024],[-73.499355,45.727471],[-73.496987,45.725713],[-73.497334,45.721542],[-73.49304,45.718487],[-73.492548,45.720464],[-73.488439,45.717557],[-73.487555,45.7139],[-73.479859,45.714727],[-73.47794,45.712941],[-73.475789,45.712297],[-73.471537,45.713114],[-73.467438,45.716065],[-73.463517,45.719888],[-73.460317,45.721947],[-73.456216,45.725671],[-73.453826,45.727083],[-73.452604,45.728423],[-73.453323,45.728855],[-73.450237,45.731607],[-73.447898,45.731957],[-73.443707,45.734654],[-73.445159,45.734538],[-73.441392,45.736885],[-73.440375,45.738621],[-73.438613,45.739385],[-73.437905,45.74122],[-73.43919,45.741059],[-73.443742,45.737903],[-73.443863,45.738422],[-73.439061,45.741689],[-73.437017,45.742245],[-73.436346,45.744189],[-73.434689,45.744035],[-73.432254,45.748919],[-73.429321,45.750915],[-73.424995,45.756545],[-73.421879,45.760124],[-73.420598,45.760329],[-73.420295,45.762004],[-73.418017,45.763775],[-73.417139,45.766257],[-73.41347,45.76971],[-73.414039,45.767569],[-73.409456,45.771228],[-73.40827,45.77281],[-73.411268,45.771499],[-73.410752,45.772578],[-73.406274,45.775112],[-73.40411,45.777099],[-73.400102,45.782134],[-73.399311,45.783758],[-73.394557,45.789841],[-73.388632,45.794046],[-73.38218,45.797567],[-73.379448,45.799858],[-73.377497,45.803869],[-73.374038,45.808815],[-73.371654,45.810503],[-73.369857,45.814092],[-73.367196,45.818551],[-73.36601,45.819243],[-73.363468,45.822137],[-73.36276,45.822038],[-73.359962,45.82432],[-73.355568,45.826249],[-73.349513,45.828553],[-73.346048,45.829539],[-73.337987,45.830796],[-73.331314,45.83264],[-73.325849,45.835106],[-73.322196,45.838052],[-73.321446,45.839292],[-73.317909,45.842085],[-73.316474,45.844044],[-73.312007,45.847724],[-73.314922,45.84959],[-73.328522,45.860012],[-73.344834,45.871344]]],[[[-73.42917,45.738192],[-73.427896,45.74],[-73.428782,45.739955],[-73.42917,45.738192]]],[[[-73.4527,45.721431],[-73.45009,45.72377],[-73.450231,45.724598],[-73.452712,45.722457],[-73.4527,45.721431]]],[[[-73.462932,45.712446],[-73.460798,45.714254],[-73.461568,45.715046],[-73.463881,45.713823],[-73.466027,45.711889],[-73.464332,45.711484],[-73.462932,45.712446]]],[[[-73.452317,45.718309],[-73.450184,45.718947],[-73.44684,45.723075],[-73.444643,45.724019],[-73.444114,45.725594],[-73.445707,45.726458],[-73.447558,45.72555],[-73.451544,45.720954],[-73.454179,45.71876],[-73.452317,45.718309]]],[[[-73.459426,45.710555],[-73.458013,45.710843],[-73.455546,45.712444],[-73.453553,45.715358],[-73.45395,45.716843],[-73.457971,45.715738],[-73.461853,45.711762],[-73.46238,45.710664],[-73.459426,45.710555]]],[[[-73.4598,45.708756],[-73.461906,45.709279],[-73.464757,45.709081],[-73.468457,45.707805],[-73.471412,45.705826],[-73.473109,45.702821],[-73.472737,45.701633],[-73.46995,45.703045],[-73.467818,45.703378],[-73.464439,45.7046],[-73.461113,45.704734],[-73.460675,45.705976],[-73.459095,45.707082],[-73.4598,45.708756]]],[[[-73.482275,45.712118],[-73.490226,45.710265],[-73.495094,45.707017],[-73.490715,45.706414],[-73.488801,45.704731],[-73.484987,45.705325],[-73.480825,45.707961],[-73.478551,45.710461],[-73.480027,45.711766],[-73.482275,45.712118]]]]},"properties":{"id":"pierre-le-gardeur","name":"Pierre-Le-Gardeur"},"bbox":[-73.57857,45.701633,-73.28528,45.94376]},{"type":"Feature","geometry":{"type":"MultiPolygon","coordinates":[[[[-73.292594,45.553168],[-73.312047,45.567823],[-73.312529,45.566435],[-73.312732,45.56263],[-73.314481,45.55716],[-73.318731,45.557446],[-73.321993,45.559988],[-73.323683,45.558916],[-73.32806,45.56238],[-73.327797,45.562567],[-73.333304,45.566984],[-73.338534,45.563508],[-73.348855,45.571144],[-73.349193,45.567187],[-73.355541,45.572627],[-73.355383,45.571593],[-73.361728,45.573477],[-73.361802,45.57542],[-73.359735,45.5864],[-73.36016,45.589979],[-73.383439,45.608449],[-73.415935,45.633971],[-73.435224,45.649307],[-73.441598,45.654042],[-73.444978,45.657253],[-73.445621,45.655373],[-73.445869,45.651468],[-73.444781,45.648174],[-73.445629,45.647797],[-73.445157,45.644836],[-73.447562,45.638475],[-73.449951,45.635156],[-73.45194,45.633366],[-73.453418,45.630325],[-73.457287,45.618935],[-73.456638,45.612096],[-73.456831,45.606828],[-73.457516,45.603872],[-73.459315,45.598699],[-73.46038,45.59734],[-73.462677,45.592662],[-73.469602,45.586527],[-73.470755,45.584963],[-73.472834,45.581768],[-73.475051,45.580113],[-73.48683,45.569911],[-73.489482,45.567077],[-73.491289,45.564539],[-73.495875,45.56094],[-73.497797,45.558403],[-73.498027,45.556558],[-73.499078,45.55483],[-73.502416,45.550876],[-73.50438,45.549737],[-73.504905,45.547865],[-73.506685,45.545949],[-73.508683,45.546264],[-73.511525,45.544752],[-73.513229,45.543205],[-73.512638,45.542947],[-73.512012,45.54189],[-73.516006,45.539514],[-73.518285,45.539514],[-73.518784,45.53694],[-73.520397,45.536157],[-73.518988,45.535113],[-73.521319,45.535743],[-73.521741,45.534006],[-73.523238,45.533286],[-73.5269,45.533636],[-73.526809,45.530982],[-73.525338,45.521471],[-73.524171,45.51848],[-73.520335,45.506048],[-73.517313,45.50163],[-73.515521,45.497311],[-73.517836,45.496204],[-73.516223,45.491156],[-73.514291,45.491589],[-73.51561,45.495611],[-73.514944,45.495512],[-73.513869,45.49239],[-73.512359,45.49086],[-73.509719,45.486789],[-73.508161,45.481628],[-73.508033,45.480161],[-73.504587,45.477654],[-73.501522,45.475923],[-73.499488,45.473197],[-73.49743,45.466846],[-73.496343,45.466088],[-73.49665,45.464558],[-73.496586,45.455101],[-73.495986,45.448009],[-73.495784,45.443469],[-73.49412,45.440874],[-73.495475,45.440487],[-73.49536,45.437976],[-73.494261,45.436672],[-73.49384,45.433756],[-73.492881,45.432253],[-73.491109,45.431611],[-73.487005,45.431037],[-73.484333,45.43207],[-73.482367,45.430047],[-73.479232,45.430505],[-73.477179,45.429396],[-73.474382,45.426708],[-73.472231,45.426761],[-73.470841,45.425198],[-73.466869,45.423525],[-73.464674,45.423239],[-73.464268,45.42174],[-73.456411,45.421177],[-73.455497,45.422327],[-73.44936,45.422057],[-73.437871,45.421868],[-73.438383,45.417015],[-73.420637,45.415878],[-73.388325,45.414403],[-73.386652,45.4132],[-73.386807,45.413552],[-73.383373,45.415728],[-73.384355,45.418617],[-73.380771,45.422589],[-73.387011,45.427554],[-73.383622,45.429843],[-73.377941,45.427509],[-73.376367,45.428924],[-73.380998,45.432063],[-73.37807,45.434731],[-73.378993,45.435443],[-73.37747,45.436595],[-73.379202,45.437859],[-73.373352,45.438367],[-73.375603,45.442008],[-73.37371,45.443339],[-73.371204,45.443794],[-73.366635,45.447012],[-73.363123,45.444717],[-73.360415,45.448791],[-73.346627,45.467071],[-73.34626,45.466984],[-73.338829,45.481952],[-73.335252,45.479328],[-73.331775,45.487634],[-73.326445,45.504337],[-73.332117,45.508555],[-73.326753,45.511781],[-73.322343,45.513628],[-73.318397,45.515079],[-73.316604,45.515562],[-73.312874,45.519719],[-73.311921,45.521823],[-73.309764,45.522674],[-73.305186,45.528578],[-73.299967,45.535736],[-73.297757,45.537936],[-73.29459,45.540362],[-73.292594,45.553168]]],[[[-73.489378,45.573483],[-73.489212,45.574221],[-73.492556,45.572638],[-73.494785,45.570577],[-73.497848,45.565844],[-73.500538,45.563433],[-73.500641,45.561786],[-73.497335,45.563622],[-73.493722,45.568796],[-73.489378,45.573483]]],[[[-73.47687,45.588321],[-73.472445,45.590568],[-73.471098,45.59235],[-73.477827,45.59164],[-73.470239,45.592727],[-73.466341,45.596262],[-73.463621,45.600023],[-73.462055,45.60373],[-73.462272,45.604549],[-73.470248,45.600547],[-73.472761,45.598082],[-73.47912,45.595474],[-73.481979,45.595303],[-73.485376,45.593351],[-73.485556,45.591839],[-73.487274,45.589311],[-73.487441,45.587368],[-73.489223,45.586287],[-73.490978,45.583777],[-73.489735,45.583265],[-73.490287,45.582266],[-73.491671,45.582626],[-73.49358,45.581366],[-73.490236,45.580826],[-73.490864,45.57998],[-73.490185,45.578243],[-73.487212,45.577478],[-73.484496,45.57863],[-73.482996,45.578522],[-73.47892,45.582183],[-73.474458,45.588121],[-73.474355,45.588841],[-73.47687,45.588321]]],[[[-73.512295,45.486685],[-73.513804,45.490527],[-73.514546,45.490059],[-73.513037,45.486656],[-73.512295,45.486685]]],[[[-73.516386,45.486521],[-73.515479,45.484228],[-73.507124,45.471019],[-73.505512,45.467995],[-73.505773,45.467519],[-73.505806,45.464792],[-73.504335,45.464135],[-73.5039,45.462452],[-73.503242,45.452767],[-73.502198,45.433913],[-73.501534,45.433786],[-73.501994,45.443612],[-73.502673,45.452749],[-73.502634,45.454327],[-73.503363,45.463622],[-73.504591,45.467426],[-73.505512,45.469642],[-73.510703,45.477887],[-73.515441,45.485658],[-73.515524,45.486556],[-73.516824,45.491822],[-73.51852,45.49696],[-73.519883,45.49574],[-73.518872,45.494369],[-73.516386,45.486521]]],[[[-73.508836,45.477816],[-73.507239,45.475311],[-73.503811,45.470902],[-73.503287,45.471874],[-73.504553,45.473989],[-73.508229,45.477793],[-73.508836,45.477816]]],[[[-73.512332,45.485992],[-73.512524,45.485434],[-73.510361,45.48053],[-73.510464,45.482914],[-73.511501,45.485605],[-73.512332,45.485992]]],[[[-73.500818,45.453274],[-73.500486,45.45547],[-73.501112,45.455974],[-73.500818,45.453274]]],[[[-73.499425,45.443553],[-73.500511,45.445166],[-73.500396,45.443575],[-73.499425,45.443553]]],[[[-73.498201,45.432687],[-73.498594,45.435439],[-73.499898,45.435511],[-73.499962,45.43327],[-73.498201,45.432687]]],[[[-73.486375,45.596735],[-73.487041,45.597941],[-73.488015,45.59624],[-73.487657,45.594611],[-73.486375,45.596735]]],[[[-73.474526,45.635524],[-73.474925,45.632879],[-73.478017,45.630846],[-73.478467,45.629199],[-73.480339,45.628237],[-73.479212,45.625672],[-73.480969,45.625339],[-73.482444,45.623351],[-73.482996,45.620732],[-73.483855,45.620292],[-73.485639,45.61663],[-73.488178,45.614245],[-73.48955,45.613787],[-73.491525,45.611825],[-73.492179,45.610395],[-73.490987,45.608631],[-73.491488,45.605068],[-73.493514,45.601198],[-73.493694,45.59517],[-73.491951,45.594072],[-73.491502,45.592101],[-73.490144,45.59202],[-73.48808,45.594422],[-73.488464,45.597059],[-73.49031,45.597014],[-73.488963,45.59875],[-73.487783,45.603268],[-73.486334,45.607236],[-73.481522,45.618213],[-73.478599,45.61904],[-73.477624,45.618734],[-73.474444,45.619741],[-73.473827,45.622548],[-73.477303,45.61976],[-73.479714,45.619355],[-73.475173,45.623386],[-73.473324,45.629018],[-73.473002,45.631447],[-73.473835,45.632536],[-73.473398,45.635038],[-73.474526,45.635524]]],[[[-73.455614,45.643212],[-73.456883,45.643914],[-73.461002,45.643088],[-73.463825,45.642009],[-73.466494,45.63985],[-73.468973,45.63357],[-73.470052,45.632086],[-73.473662,45.619597],[-73.467071,45.617904],[-73.465045,45.617705],[-73.46216,45.618883],[-73.461516,45.622545],[-73.459847,45.626081],[-73.459331,45.629383],[-73.458072,45.632982],[-73.454128,45.640008],[-73.454665,45.642618],[-73.455614,45.643212]]],[[[-73.461905,45.616795],[-73.462019,45.618451],[-73.46543,45.617309],[-73.468187,45.617616],[-73.471572,45.618868],[-73.472982,45.618319],[-73.474213,45.619138],[-73.478522,45.61814],[-73.480215,45.616215],[-73.480935,45.611905],[-73.483091,45.605391],[-73.484296,45.604716],[-73.484245,45.603258],[-73.48563,45.600046],[-73.486042,45.595061],[-73.481876,45.596311],[-73.479799,45.596158],[-73.473415,45.598667],[-73.471812,45.600493],[-73.475004,45.599774],[-73.47976,45.597957],[-73.482554,45.598723],[-73.478978,45.598677],[-73.481208,45.599676],[-73.484067,45.599434],[-73.482067,45.600702],[-73.479093,45.599361],[-73.47067,45.601852],[-73.463515,45.605278],[-73.465002,45.605018],[-73.471117,45.606387],[-73.474719,45.606766],[-73.479449,45.606344],[-73.474911,45.607126],[-73.470693,45.606675],[-73.464938,45.605548],[-73.463348,45.605755],[-73.462142,45.607185],[-73.46151,45.612287],[-73.461905,45.616795]]]]},"properties":{"id":"pierre-lemoyne-d-iberville","name":"Pierre-Lemoyne-D'Iberville"},"bbox":[-73.5269,45.4132,-73.292594,45.657253]},{"type":"Feature","geometry":{"type":"Polygon","coordinates":[[[-73.567631,45.58122],[-73.569863,45.581957],[-73.570609,45.580787],[-73.573992,45.581925],[-73.57809,45.577954],[-73.577243,45.577678],[-73.58715,45.566415],[-73.587284,45.56501],[-73.600973,45.549213],[-73.603546,45.546348],[-73.607051,45.547945],[-73.612336,45.542117],[-73.614433,45.538299],[-73.618246,45.534739],[-73.621483,45.531099],[-73.619252,45.530744],[-73.617383,45.529695],[-73.617039,45.527692],[-73.612309,45.525666],[-73.60901,45.527507],[-73.606771,45.528281],[-73.60427,45.528324],[-73.599711,45.528686],[-73.596197,45.530051],[-73.584935,45.539398],[-73.581954,45.540843],[-73.579552,45.541405],[-73.574281,45.541357],[-73.573655,45.541131],[-73.573496,45.541279],[-73.55924,45.539871],[-73.555688,45.546598],[-73.554846,45.551741],[-73.554181,45.556933],[-73.554541,45.56437],[-73.554306,45.565376],[-73.548871,45.573497],[-73.555598,45.575731],[-73.558047,45.577878],[-73.559892,45.578643],[-73.567631,45.58122]]]},"properties":{"id":"rene-levesque","name":"Ren\u00e9-L\u00e9vesque"},"bbox":[-73.621483,45.525666,-73.548871,45.581957]},{"type":"Feature","geometry":{"type":"MultiPolygon","coordinates":[[[[-73.57857,45.821285],[-73.580358,45.816051],[-73.590863,45.817139],[-73.59128,45.812194],[-73.593825,45.812475],[-73.594484,45.813276],[-73.609071,45.803295],[-73.618304,45.796386],[-73.644895,45.814164],[-73.645572,45.812729],[-73.651154,45.80568],[-73.651458,45.798485],[-73.653435,45.796712],[-73.658011,45.794034],[-73.660992,45.792569],[-73.660481,45.792023],[-73.670525,45.78674],[-73.670766,45.787644],[-73.677522,45.790292],[-73.685563,45.792901],[-73.687319,45.794766],[-73.690024,45.794414],[-73.700886,45.797424],[-73.698533,45.804537],[-73.741925,45.806036],[-73.746527,45.808153],[-73.748276,45.810003],[-73.755636,45.81077],[-73.755378,45.813429],[-73.756903,45.813938],[-73.76896,45.81659],[-73.770624,45.809891],[-73.776637,45.809824],[-73.78044,45.8157],[-73.797273,45.826807],[-73.797588,45.826395],[-73.806775,45.82084],[-73.824023,45.816915],[-73.807494,45.805698],[-73.793865,45.79661],[-73.784907,45.790224],[-73.77642,45.785337],[-73.747635,45.766124],[-73.7307,45.754319],[-73.750461,45.750096],[-73.747505,45.738531],[-73.74627,45.735847],[-73.745335,45.732389],[-73.750946,45.732755],[-73.751975,45.730682],[-73.757546,45.729719],[-73.758891,45.728485],[-73.758601,45.726316],[-73.755688,45.717114],[-73.761035,45.714193],[-73.764762,45.712778],[-73.771013,45.712858],[-73.779593,45.714354],[-73.786109,45.715768],[-73.788324,45.715371],[-73.792544,45.715809],[-73.793943,45.717371],[-73.797534,45.716404],[-73.801684,45.719537],[-73.809908,45.719475],[-73.813033,45.719704],[-73.817425,45.719524],[-73.830595,45.721291],[-73.835244,45.721727],[-73.836194,45.722434],[-73.839233,45.722695],[-73.842009,45.721826],[-73.846464,45.721762],[-73.806214,45.695511],[-73.783381,45.680327],[-73.781662,45.681597],[-73.780707,45.680733],[-73.778629,45.681525],[-73.777287,45.68308],[-73.777596,45.685573],[-73.772341,45.681819],[-73.767067,45.685805],[-73.761243,45.681677],[-73.758232,45.679782],[-73.756611,45.680716],[-73.755333,45.679634],[-73.746413,45.669999],[-73.742523,45.673206],[-73.741159,45.675494],[-73.737532,45.676798],[-73.735177,45.678503],[-73.727696,45.682271],[-73.725683,45.682823],[-73.71861,45.683026],[-73.714265,45.681424],[-73.711554,45.680862],[-73.707847,45.681742],[-73.705426,45.683024],[-73.703732,45.683135],[-73.698271,45.685457],[-73.696238,45.687836],[-73.695798,45.690437],[-73.691938,45.691721],[-73.687902,45.694409],[-73.68545,45.694566],[-73.678734,45.694208],[-73.671826,45.694102],[-73.668255,45.693702],[-73.665697,45.692734],[-73.658812,45.691943],[-73.656337,45.692792],[-73.653614,45.69537],[-73.648826,45.697868],[-73.645681,45.698106],[-73.641801,45.697301],[-73.641103,45.69553],[-73.637684,45.693941],[-73.63714,45.692115],[-73.632218,45.690366],[-73.629869,45.690603],[-73.627151,45.692541],[-73.623867,45.693633],[-73.619177,45.693516],[-73.617833,45.694044],[-73.612328,45.694521],[-73.611334,45.693079],[-73.605784,45.691393],[-73.601148,45.690866],[-73.595603,45.691465],[-73.587877,45.693612],[-73.581652,45.695641],[-73.575721,45.69668],[-73.568649,45.698583],[-73.563911,45.699549],[-73.560214,45.70091],[-73.555168,45.701659],[-73.54456,45.69981],[-73.541401,45.699883],[-73.532143,45.701569],[-73.528483,45.70112],[-73.525029,45.701661],[-73.516537,45.703914],[-73.509529,45.704965],[-73.504598,45.706153],[-73.498741,45.708601],[-73.50429,45.70699],[-73.499255,45.708916],[-73.495787,45.711075],[-73.492178,45.712785],[-73.487555,45.7139],[-73.488439,45.717557],[-73.492548,45.720464],[-73.49304,45.718487],[-73.497334,45.721542],[-73.496987,45.725713],[-73.499355,45.727471],[-73.500424,45.729024],[-73.501869,45.736476],[-73.515681,45.743433],[-73.516801,45.744177],[-73.516741,45.745478],[-73.51919,45.746719],[-73.520121,45.749016],[-73.52948,45.754235],[-73.526061,45.777368],[-73.52612,45.793748],[-73.529729,45.79379],[-73.544143,45.793167],[-73.550476,45.793408],[-73.549467,45.816325],[-73.557165,45.817731],[-73.57857,45.821285]]],[[[-73.640805,45.694648],[-73.64133,45.69382],[-73.639644,45.692508],[-73.637628,45.692186],[-73.638647,45.694138],[-73.640805,45.694648]]],[[[-73.645407,45.69655],[-73.650516,45.695797],[-73.652721,45.69457],[-73.656718,45.691307],[-73.655584,45.689788],[-73.651369,45.688606],[-73.646278,45.690754],[-73.639783,45.691275],[-73.643576,45.693538],[-73.643618,45.695014],[-73.645407,45.69655]]],[[[-73.693642,45.690837],[-73.695464,45.690356],[-73.694844,45.689314],[-73.692204,45.690812],[-73.693642,45.690837]]],[[[-73.741841,45.672829],[-73.739483,45.673725],[-73.738657,45.675697],[-73.740887,45.674802],[-73.741841,45.672829]]]]},"properties":{"id":"yves-blais","name":"Yves-Blais"},"bbox":[-73.846464,45.669999,-73.487555,45.826807]}],"bbox":[-74.278576,45.229005,-73.28528,45.94376]}