{"type":"FeatureCollection", "features": [
{"type":"Feature","geometry":{"type":"MultiPolygon","coordinates":[[[[-73.5519597039685,45.49533000037601],[-73.55092729127178,45.4997127970762],[-73.55168158991606,45.499046487022156],[-73.5519597039685,45.49533000037601]]],[[[-73.55224894280842,45.49137871637325],[-73.55230111577465,45.49087570122508],[-73.5554483155123,45.4908831935032],[-73.5593227114957,45.48891060915404],[-73.56595808965226,45.48512758861827],[-73.57071241422851,45.481534391348724],[-73.57241249024848,45.480570490730685],[-73.57454157868817,45.478328367515935],[-73.57664098231226,45.47651840171564],[-73.58089380180623,45.47202521265843],[-73.58438078966229,45.46903520795634],[-73.58986368741425,45.46678140783791],[-73.59240778152282,45.466329509263424],[-73.59509169717856,45.465310408464184],[-73.5986043953609,45.462967808816906],[-73.60326801363283,45.460930011514414],[-73.61350003616656,45.45749751695069],[-73.62132121501195,45.45397440243335],[-73.6256998158226,45.45091919899559],[-73.62968051281239,45.44740541230879],[-73.63228539907625,45.44605258748956],[-73.64580914141894,45.44075411324308],[-73.64805680525187,45.439770303498804],[-73.65448947784569,45.43627930836778],[-73.65833258939547,45.43481630181541],[-73.66509670379205,45.43144118936201],[-73.66507997578505,45.43166706764522],[-73.66517511911566,45.432026096606236],[-73.67337198883531,45.42932329316013],[-73.67880678431179,45.43043079402445],[-73.68343449833078,45.4307923889616],[-73.68290871690631,45.43025329719033],[-73.67884450550636,45.430214790135274],[-73.67716749007589,45.429272495405925],[-73.6739588836003,45.429043505815464],[-73.66943911347208,45.430481109461496],[-73.66628401168728,45.43100759867118],[-73.67307588980131,45.42863990244458],[-73.67564398626374,45.42842000228825],[-73.68024731309103,45.429231711879936],[-73.68562691173042,45.42903410013708],[-73.68822199629363,45.429281894473554],[-73.68777230746967,45.428535708615804],[-73.67739249593991,45.42768839819448],[-73.67301018858807,45.428028106878806],[-73.66884741086481,45.42916810730044],[-73.66561977655512,45.428185727236716],[-73.66377979143536,45.42683589146738],[-73.65946788293924,45.42495230611335],[-73.65311870520104,45.42095660575486],[-73.64970439134848,45.4199532901534],[-73.64425250713306,45.41660380848511],[-73.63985430282357,45.41545751189297],[-73.63632788802165,45.41545280174378],[-73.63267397480345,45.41580574959657],[-73.63349001466415,45.41479020053299],[-73.62959271015121,45.41458769829799],[-73.62826499266575,45.41505718852755],[-73.62018989758404,45.41494890289612],[-73.61901551278328,45.415499207469715],[-73.61579661129322,45.415907310695324],[-73.61110750990557,45.415903091578144],[-73.60895060699588,45.41715591038909],[-73.60459631174699,45.418590698441726],[-73.60229881125704,45.4198975932464],[-73.59950519327809,45.422590709291335],[-73.59696551165898,45.42449149188994],[-73.59417208779851,45.427616408866385],[-73.59184429376474,45.42635850581503],[-73.59577458130065,45.4230618052139],[-73.59102609833576,45.4261702023945],[-73.58823158605009,45.428862897215545],[-73.59125708985599,45.42678190947739],[-73.59311171199184,45.42777020974101],[-73.59173451632373,45.42958909824938],[-73.58895179455365,45.43175988812731],[-73.5865000037307,45.43306658741367],[-73.58376340602764,45.43504394219293],[-73.57795920289834,45.440001589569455],[-73.57226398947387,45.44446860548913],[-73.56651801037107,45.44997919050007],[-73.56353139881283,45.45440810563595],[-73.56055678766164,45.45856710559201],[-73.56028930072293,45.459431110719706],[-73.55951830566976,45.46804310467173],[-73.55694321985561,45.46920900629276],[-73.55372738905707,45.47044849546725],[-73.54520010129596,45.474465505447206],[-73.54135209778818,45.47682449058654],[-73.54013720318775,45.47716689318286],[-73.53915348810952,45.47883200452107],[-73.53718751445436,45.48477160403873],[-73.53754689829842,45.48642729475576],[-73.53906633571388,45.48826163219667],[-73.54105549353412,45.49111421052204],[-73.54287780160026,45.498573192692064],[-73.54278238808465,45.50772470661316],[-73.54330730171598,45.50788640378074],[-73.54439171607746,45.503593894030615],[-73.54543390424325,45.49476590113661],[-73.54657259768797,45.494828492482355],[-73.54598821108874,45.499903803187316],[-73.54793339861618,45.50004699934484],[-73.54891139037451,45.49165108525567],[-73.54999891653925,45.49171350012679],[-73.54930168883658,45.49914660278105],[-73.55054340774477,45.49967689560422],[-73.55088629279922,45.49676130871901],[-73.55165251156092,45.49521321389469],[-73.55225358061996,45.49500600422646],[-73.55292927991302,45.4923151059746],[-73.55224894280842,45.49137871637325]]],[[[-73.526840417931,45.50754383934412],[-73.52575009869625,45.51043841241443],[-73.52699191463734,45.511202894598775],[-73.52860180260258,45.50614539216164],[-73.52863970121476,45.505137606776806],[-73.5272576048885,45.50514688803721],[-73.526840417931,45.50754383934412]]],[[[-73.55080077986493,45.5096255868155],[-73.55336762724838,45.504972050912535],[-73.55388503953101,45.503312756672806],[-73.5530550030882,45.49878559023245],[-73.56163236969574,45.50172346063466],[-73.565142374953,45.498216894099855],[-73.56912930910916,45.49506758797893],[-73.57228394343093,45.4925338171355],[-73.57256273286794,45.49266225743221],[-73.57760928546031,45.488722118098806],[-73.58111137262742,45.486310728812434],[-73.58059332202647,45.485632878829506],[-73.58512428772089,45.48223249778234],[-73.58611803061,45.48271923650433],[-73.59382882804354,45.477359988140556],[-73.59576542930391,45.47484870714292],[-73.59660543075597,45.473199172291565],[-73.59939682033415,45.471723865910725],[-73.6024445802837,45.46915617855458],[-73.60747686282504,45.46624851696358],[-73.6124961774332,45.46389759173885],[-73.61879187651941,45.46145828316134],[-73.62115956911741,45.460309759725],[-73.62811257724475,45.45548146401059],[-73.63082441310208,45.45301595426396],[-73.6350837473046,45.450694988108495],[-73.63257647687162,45.44972911732343],[-73.6369379009788,45.44836844081763],[-73.63950300669856,45.44696223007738],[-73.6411370720352,45.44782322052346],[-73.64394704579925,45.447836952207666],[-73.64836948366155,45.44907690853324],[-73.6586878807512,45.45287135357603],[-73.66824019836253,45.45660720438294],[-73.6693755515152,45.45573317773037],[-73.67187888041775,45.4525508596915],[-73.67496947791786,45.45256567470502],[-73.67800863666348,45.45243970276189],[-73.68634835753232,45.45480243834166],[-73.68536309089284,45.46080213982046],[-73.68314691957123,45.46481944023652],[-73.69234359462558,45.470355556781065],[-73.69367517805652,45.46374726634172],[-73.70209733048638,45.469549710793224],[-73.7081632101691,45.473080809978654],[-73.70836118955722,45.47320688329506],[-73.71734215630671,45.466452933450164],[-73.72489108710612,45.46094795519065],[-73.72420527095852,45.45973086941798],[-73.7208242823919,45.448894356643564],[-73.7223241555874,45.44877943131721],[-73.71940505135571,45.43923947417859],[-73.71994259961643,45.43836683033309],[-73.71406751487933,45.437236007988666],[-73.71322099215239,45.436472702493],[-73.70799170765099,45.43601440303265],[-73.70532950626973,45.43501149778357],[-73.70361730784606,45.43516749879809],[-73.69937208808041,45.434617086331926],[-73.69498360764186,45.433274813164154],[-73.69420119891664,45.43248430379468],[-73.69197859928295,45.43284800542449],[-73.69151398973862,45.43225537632916],[-73.69145012512361,45.43246187724743],[-73.69137082099904,45.4328759507843],[-73.68938461679183,45.43297829403677],[-73.68665220052844,45.43379269635406],[-73.68438791048173,45.433148503924656],[-73.68038610502812,45.43271391033848],[-73.67745640809453,45.43177370776826],[-73.67262411271058,45.43135820930798],[-73.66936530626613,45.43142600976004],[-73.669159598959,45.43099439824216],[-73.66281409235285,45.433181293899025],[-73.65932970139112,45.43485990672207],[-73.65327799153754,45.43733380270298],[-73.65114504497302,45.43856399433355],[-73.64743238895213,45.44055398908153],[-73.63342320429682,45.446087194379515],[-73.62923808713589,45.448345225731885],[-73.6267606063916,45.45075609876523],[-73.62239491212513,45.453856304507475],[-73.62014728273753,45.45510050864896],[-73.613964507101,45.45780640589358],[-73.60439348672446,45.46101900971412],[-73.59926960414366,45.46319219930052],[-73.5948111864821,45.465832487134065],[-73.59047798842197,45.46711388971873],[-73.58519998468024,45.469493606577224],[-73.58158490743588,45.4722945982739],[-73.57731931038563,45.4768777962762],[-73.5750259294727,45.47881444901704],[-73.5683747047809,45.484199396966716],[-73.5618046443206,45.48815037407699],[-73.55710119839033,45.49069249647028],[-73.55350982769667,45.492832480707],[-73.55307081749297,45.49309790266209],[-73.55196228821337,45.49814659006314],[-73.55277198567062,45.501970606837816],[-73.54826800200857,45.50229648837055],[-73.54801279372826,45.50325040333183],[-73.55279838879463,45.50289728842639],[-73.55244148438649,45.50436429835826],[-73.54750219116673,45.50467239052531],[-73.54728538459538,45.50559929304198],[-73.55213530025182,45.50528229708404],[-73.5512407098213,45.506749402671865],[-73.54682580124584,45.50694029532384],[-73.54558878918267,45.51237579165247],[-73.54626761391106,45.51284350717093],[-73.5478779134652,45.510152296068384],[-73.54922168241485,45.510133708398584],[-73.54632708672713,45.515409453123674],[-73.54726928710971,45.5155798859947],[-73.55026989142593,45.50968775326847],[-73.55080077986493,45.5096255868155]]],[[[-73.5185198130903,45.49696002883631],[-73.52123000856375,45.50455430754062],[-73.52770279348431,45.5255101986376],[-73.5280740180485,45.525375094785566],[-73.52708671125488,45.522154006468206],[-73.52905780778309,45.52169458890904],[-73.52814479085636,45.513407298131085],[-73.52823339587394,45.51155360466367],[-73.52963949452321,45.50817881149426],[-73.53020140413413,45.505902103240494],[-73.52946998804349,45.502032890432375],[-73.52830460078721,45.50034150525765],[-73.5258468064036,45.4981015067988],[-73.52361978721234,45.49688719017663],[-73.5198833414008,45.49573984696955],[-73.5185198130903,45.49696002883631]],[[-73.52373651310879,45.50029759049796],[-73.52358219308208,45.498488901137016],[-73.52562989844267,45.499334302507094],[-73.52602740266647,45.50147588833597],[-73.52712838401669,45.502339505997526],[-73.52730840881274,45.50420210351477],[-73.52881840939406,45.50420169556799],[-73.52871710900082,45.50637929608641],[-73.52708149620484,45.511391892601075],[-73.52563490169902,45.51043840186489],[-73.52697668568068,45.50640679413694],[-73.52696229696286,45.50279838894617],[-73.52600261624904,45.50302359607063],[-73.52536368555332,45.505066408554846],[-73.52404549350325,45.50498570264186],[-73.52373651310879,45.50029759049796]]],[[[-73.53512879069615,45.52719990847742],[-73.53571810621445,45.527811614350234],[-73.53416961125193,45.52875679967026],[-73.53215970600168,45.52897341301184],[-73.53269870703882,45.531249903487605],[-73.53410711606388,45.5314024945265],[-73.53694732213413,45.52818009230132],[-73.53867380444694,45.52560601351387],[-73.53950371022653,45.52235729984939],[-73.538285399841,45.519127290537],[-73.53849918831465,45.51357520960463],[-73.5373834989778,45.510255210741775],[-73.53546198639461,45.507421291130406],[-73.53401518250087,45.5062968969434],[-73.53262061097503,45.50674720503854],[-73.53071629341532,45.51152590082271],[-73.52992468376168,45.51505350189001],[-73.53120708316017,45.51952539968357],[-73.53185050709325,45.52559910342517],[-73.53383500529355,45.52605749783627],[-73.53512879069615,45.52719990847742]]],[[[-73.53826829698554,45.47494491138826],[-73.54211770276018,45.47439470180721],[-73.54476338045774,45.47195510811473],[-73.54716699575067,45.47109931040845],[-73.54835510524231,45.46961409888954],[-73.5513717104943,45.46773209880814],[-73.554785811477,45.46735260804597],[-73.55629360862851,45.46614601474918],[-73.55685032159946,45.460152693097314],[-73.55954309362119,45.455184207340146],[-73.55975850138826,45.453330403402425],[-73.56201678712286,45.44898289437769],[-73.5611065214414,45.44659879398628],[-73.5592258020724,45.44524089994881],[-73.55461181000618,45.44607110762194],[-73.55290051655889,45.447871692823256],[-73.55048498815668,45.44856570690415],[-73.54776190662841,45.4486027884957],[-73.5465103940479,45.450186992280834],[-73.54680518693088,45.451176800429856],[-73.54508021280945,45.452311193594035],[-73.54281920549137,45.4549397114603],[-73.53990709350677,45.45925998893824],[-73.53906580489955,45.462967696803446],[-73.53350538525059,45.466730805508114],[-73.53202209554145,45.46677619267542],[-73.53330241209208,45.469421513413515],[-73.53478660497645,45.470491900666026],[-73.53565731766103,45.47207529846991],[-73.53826829698554,45.47494491138826]]],[[[-73.59040700940967,45.41464350114074],[-73.59468809598226,45.41517090136987],[-73.59538889594617,45.41409049463116],[-73.59350971228167,45.41342619065221],[-73.59040700940967,45.41464350114074]]],[[[-73.58634160797338,45.42136860913977],[-73.58845071760486,45.42185290289563],[-73.58879461790002,45.421168702414974],[-73.58628921761598,45.420504796605904],[-73.58634160797338,45.42136860913977]]],[[[-73.5715632213215,45.42595899347113],[-73.57341629220318,45.42616490403873],[-73.57842389438356,45.42482070853684],[-73.58283181622275,45.424259703278736],[-73.5843017864009,45.4245285967635],[-73.5860638791371,45.42366340708856],[-73.5865605893195,45.422619200130065],[-73.5850628055258,45.42079360711733],[-73.58406568927731,45.42046139353457],[-73.57936400661971,45.420860687956655],[-73.57394759134382,45.421962198749185],[-73.57056439067324,45.42441188650627],[-73.57045101029937,45.42572579029384],[-73.5715632213215,45.42595899347113]]],[[[-73.57406941547447,45.42718129877084],[-73.57739218866628,45.42731410291694],[-73.58422589785215,45.42505060964201],[-73.58074990632664,45.424963112260784],[-73.57373609816275,45.426380609931144],[-73.57137188751399,45.42638210381859],[-73.57406941547447,45.42718129877084]]],[[[-73.67395199003674,45.43093318979442],[-73.67137089666052,45.43109900127032],[-73.67801868843503,45.43175480635759],[-73.68085901505695,45.432713093846786],[-73.68209758436109,45.43239619866321],[-73.67737821491465,45.43127890777836],[-73.67395199003674,45.43093318979442]]],[[[-73.67120260238376,45.430379411264845],[-73.66938970343429,45.43103010242662],[-73.67063018454431,45.4312891047761],[-73.67120260238376,45.430379411264845]]]]},"properties":null}
]}