{"type":"FeatureCollection", "features": [
{"type":"Feature","geometry":{"type":"Polygon","coordinates":[[[-73.52510219076824,45.61377258173108],[-73.52792232338442,45.60826532975138],[-73.53684620443792,45.59327862625797],[-73.54166128440218,45.59423897347545],[-73.54998667643717,45.59766915317269],[-73.56175935031015,45.60299371167061],[-73.56527509901565,45.60509825962176],[-73.56924374550252,45.601471721763],[-73.57253269256151,45.59768886305257],[-73.56985095803209,45.59670774897963],[-73.56760259565816,45.59043134431588],[-73.5663433637981,45.588388168758655],[-73.56438655607013,45.58738814882876],[-73.56414916245646,45.58529634348611],[-73.56560656599463,45.58419335920628],[-73.56496604520355,45.583585904196525],[-73.56778779981691,45.58146474654833],[-73.56521543557986,45.580424002690116],[-73.5628048781006,45.584442975584956],[-73.56194890932886,45.58414939714202],[-73.56312757315689,45.58237658506884],[-73.56097681726807,45.58161666235777],[-73.5613741784031,45.581022059388225],[-73.55889244573743,45.580175067698725],[-73.56258784562822,45.574437272224074],[-73.5599075551669,45.57346779342169],[-73.56071165797995,45.57193191087874],[-73.55949646494275,45.57150683512032],[-73.55929126442435,45.57011410338611],[-73.5575640310151,45.5726713129708],[-73.55088306399635,45.57051838826819],[-73.55262648081033,45.567921250557916],[-73.55430571119571,45.56537577000915],[-73.56615717499895,45.569256689520365],[-73.57373563399916,45.56079753229422],[-73.55446971744072,45.55463813646544],[-73.55484615572675,45.55174065283745],[-73.55646422826067,45.552248258627536],[-73.55964022479279,45.547018643604304],[-73.56177256734603,45.54323382945153],[-73.5614527468825,45.54007890018839],[-73.54946875463013,45.538889736199714],[-73.54754687713321,45.53775344307494],[-73.54417555624742,45.53354393165352],[-73.54124176879078,45.53283248783507],[-73.540242804296,45.53560269709253],[-73.534599605275,45.5411295046943],[-73.53138590326898,45.541904390701944],[-73.5323729869712,45.54366769187656],[-73.5293255077375,45.544244495853064],[-73.52904418595338,45.545099405044866],[-73.53230940601686,45.54445059750764],[-73.53123449659327,45.54580069970014],[-73.52883839373754,45.5462636587253],[-73.52895559775261,45.546899090491806],[-73.52238889863533,45.55480110687198],[-73.5186245039648,45.55862610318008],[-73.51909850367129,45.55893189498419],[-73.52081440241616,45.557212891167346],[-73.52171120024863,45.55776169084419],[-73.52148121350046,45.5590933957044],[-73.52358097959879,45.55680750594605],[-73.52527189147196,45.55748198716991],[-73.52404279200546,45.55895778739823],[-73.51803772135248,45.56616669427259],[-73.51550159040217,45.56750790912702],[-73.51560420459805,45.568299702120164],[-73.51751339308696,45.569064299033435],[-73.51411881221648,45.57090039954515],[-73.50918699725136,45.575769009162585],[-73.50592021337556,45.580529294193234],[-73.5046519067267,45.584002791814804],[-73.50551139253966,45.58493382615374],[-73.50412670860294,45.58777299007242],[-73.50556248426055,45.592065203935356],[-73.5068824942719,45.59184021183156],[-73.5091522078076,45.598426713424224],[-73.50930690712786,45.60353780027432],[-73.5084100912735,45.607236109480226],[-73.50707720104849,45.610286591457566],[-73.50741528496921,45.610740315390004],[-73.5104297330309,45.61125562314114],[-73.50797958844812,45.617489629016745],[-73.50453961323805,45.623496160942864],[-73.50143921824618,45.62639815562089],[-73.50323989304306,45.626713038212436],[-73.49944853385925,45.63080285115561],[-73.50171019897387,45.62894469407085],[-73.50315990906343,45.62882920519771],[-73.50774142349111,45.62959302089121],[-73.5066939478683,45.63201292626353],[-73.51568121519256,45.633468152153846],[-73.5189880902357,45.62691822485551],[-73.52081817747592,45.62171724877051],[-73.52510219076824,45.61377258173108]]]},"properties":null}
]}