{"type":"FeatureCollection", "features": [
{"type":"Feature","geometry":{"type":"Polygon","coordinates":[[[-73.59580757008678,45.570201398973005],[-73.59685033240059,45.569029809020535],[-73.59991772529268,45.57047730066374],[-73.60200850581802,45.56830078655801],[-73.60453057649703,45.56939629512308],[-73.60826722638939,45.56522209406166],[-73.60513612628456,45.563836784541444],[-73.60610226808207,45.56255696680616],[-73.6037326201292,45.5612782237794],[-73.60444188623111,45.560523737071165],[-73.6069873843063,45.56165062325975],[-73.60881356242598,45.55999175669743],[-73.60682463858346,45.55910917449746],[-73.60841358338878,45.55731575750109],[-73.61071845345649,45.55833106910634],[-73.61020323469583,45.55891243736898],[-73.61286715658557,45.560093646806735],[-73.61378148249479,45.559082010176425],[-73.61234734120718,45.55834632797576],[-73.62098446765228,45.55475279538594],[-73.62656514290637,45.551914901412424],[-73.63009320145837,45.550360277964906],[-73.63284818343207,45.54985200765671],[-73.63522329414415,45.54893612589459],[-73.63674543847105,45.54765818844014],[-73.64104705219812,45.54237373412106],[-73.64572419875965,45.5350846341829],[-73.64901903069985,45.53013950543461],[-73.64678593653085,45.530303622316694],[-73.62275313719375,45.52337604896268],[-73.62205622962631,45.52409823002549],[-73.62053728746501,45.52354921801292],[-73.61746448105902,45.52698604555037],[-73.61690608382193,45.52819525467732],[-73.6173830984662,45.529695049889874],[-73.61908467145689,45.53069671829694],[-73.62148316577753,45.53109857918702],[-73.61819997982846,45.53479000502884],[-73.61724730626027,45.53529131776438],[-73.61443338092474,45.53829875538519],[-73.61265243091869,45.54168539939026],[-73.61130880986526,45.54323397737369],[-73.61005849474735,45.54463277690295],[-73.60651941038277,45.543056051658255],[-73.60244432233337,45.54750990633307],[-73.5984683337437,45.55218807938964],[-73.59393597894757,45.55740578422972],[-73.5872841677305,45.565009505742914],[-73.58628991710624,45.56614914476748],[-73.58715033837571,45.56641527167165],[-73.59580757008678,45.570201398973005]]]},"properties":null}
]}